(Exported by FreeCAD)
(Post Processor: grbl_post)
(Output Time:2026-01-09 08:00:38.053712)
(Begin preamble)
G17 G90
G21
(Begin operation: Fixture)
(Path: Fixture)
G54
(Finish operation: Fixture)
(Begin operation: TC: Default Tool)
(Path: TC: Default Tool)
(TC: Default Tool)
(Begin toolchange)
( M6 T1 )
(Finish operation: TC: Default Tool)
(Begin operation: Profile)
(Path: Profile)
(Profile)
(Compensated Tool Path. Diameter: 5.0)
G0 Z6.000
G0 X281.473 Y-37.481
G0 Z4.000
G1 X281.473 Y-37.481 Z-3.000
G2 X281.616 Y-37.581 Z-3.000 I-12.727 J-18.129 K0.000
G3 X283.233 Y-38.798 Z-3.000 I11.793 J13.998 K0.000
G2 X286.446 Y-40.943 Z-3.000 I-9.123 J-17.137 K0.000
G2 X289.653 Y-42.607 Z-3.000 I-9.541 J-22.313 K0.000
G2 X292.051 Y-44.388 Z-3.000 I-46.849 J-65.592 K0.000
G2 X295.842 Y-48.047 Z-3.000 I-8.182 J-12.273 K0.000
G2 X296.835 Y-48.971 Z-3.000 I-93.974 J-101.994 K0.000
G2 X299.303 Y-53.246 Z-3.000 I-9.867 J-8.546 K0.000
G3 X299.984 Y-54.971 Z-3.000 I8.835 J2.487 K0.000
G2 X300.713 Y-56.380 Z-3.000 I-10.863 J-6.514 K0.000
G2 X302.712 Y-63.162 Z-3.000 I-30.080 J-12.555 K0.000
G2 X303.802 Y-65.087 Z-3.000 I-15.116 J-9.830 K0.000
G2 X304.999 Y-68.428 Z-3.000 I-10.334 J-5.588 K0.000
G2 X307.468 Y-72.374 Z-3.000 I-17.745 J-13.849 K0.000
G2 X309.847 Y-75.845 Z-3.000 I-11.998 J-10.771 K0.000
G2 X311.572 Y-79.887 Z-3.000 I-169.269 J-74.662 K0.000
G2 X313.006 Y-84.794 Z-3.000 I-11.500 J-6.022 K0.000
G2 X312.947 Y-88.427 Z-3.000 I-24.224 J-1.427 K0.000
G2 X311.955 Y-93.361 Z-3.000 I-15.454 J0.540 K0.000
G3 X311.470 Y-94.585 Z-3.000 I9.046 J-4.297 K0.000
G2 X309.814 Y-99.778 Z-3.000 I-26.127 J5.470 K0.000
G2 X307.910 Y-102.996 Z-3.000 I-11.355 J4.544 K0.000
G2 X304.994 Y-107.906 Z-3.000 I-17.747 J7.222 K0.000
G3 X304.493 Y-108.563 Z-3.000 I2.291 J-2.264 K0.000
G2 X301.745 Y-112.442 Z-3.000 I-11.207 J5.025 K0.000
G2 X299.871 Y-115.111 Z-3.000 I-13.994 J7.836 K0.000
G2 X295.749 Y-119.494 Z-3.000 I-343.114 J318.558 K0.000
G2 X292.280 Y-122.840 Z-3.000 I-21.703 J19.031 K0.000
G3 X288.589 Y-126.101 Z-3.000 I59.531 J-71.109 K0.000
G2 X285.215 Y-128.528 Z-3.000 I-9.207 J9.239 K0.000
G2 X280.302 Y-131.750 Z-3.000 I-17.417 J21.198 K0.000
G2 X277.741 Y-133.385 Z-3.000 I-16.138 J22.453 K0.000
G3 X276.957 Y-133.966 Z-3.000 I0.690 J-1.753 K0.000
G2 X271.400 Y-140.028 Z-3.000 I-94.962 J81.477 K0.000
G3 X266.467 Y-145.273 Z-3.000 I36.172 J-38.962 K0.000
G1 X266.290 Y-146.086 Z-3.000
G2 X263.799 Y-152.381 Z-3.000 I-17.871 J3.432 K0.000
G3 X263.324 Y-153.198 Z-3.000 I2.627 J-2.072 K0.000
G2 X261.101 Y-157.634 Z-3.000 I-32.447 J13.485 K0.000
G3 X260.924 Y-158.139 Z-3.000 I0.815 J-0.570 K0.000
G2 X260.312 Y-163.276 Z-3.000 I-65.014 J5.137 K0.000
G2 X259.060 Y-168.515 Z-3.000 I-27.046 J3.697 K0.000
G3 X257.555 Y-172.473 Z-3.000 I376.729 J-145.489 K0.000
G2 X255.853 Y-176.690 Z-3.000 I-24.306 J7.358 K0.000
G2 X250.725 Y-183.388 Z-3.000 I-19.900 J9.923 K0.000
G2 X243.358 Y-188.074 Z-3.000 I-16.468 J17.756 K0.000
G2 X238.109 Y-189.298 Z-3.000 I-5.832 J13.147 K0.000
G2 X234.062 Y-189.279 Z-3.000 I-1.106 J200.060 K0.000
G1 X233.720 Y-189.581 Z-3.000
G3 X230.461 Y-192.722 Z-3.000 I104.311 J-111.484 K0.000
G2 X226.571 Y-195.375 Z-3.000 I-9.604 J9.907 K0.000
G2 X222.280 Y-196.744 Z-3.000 I-9.746 J23.127 K0.000
G2 X216.919 Y-198.016 Z-3.000 I-72.375 J293.115 K0.000
G2 X208.349 Y-199.366 Z-3.000 I-27.190 J144.774 K0.000
G3 X206.037 Y-201.589 Z-3.000 I11.283 J-14.041 K0.000
G2 X205.024 Y-202.986 Z-3.000 I-17.144 J11.366 K0.000
G1 X204.992 Y-203.334 Z-3.000
G3 X204.520 Y-215.665 Z-3.000 I147.463 J-11.825 K0.000
G3 X204.709 Y-217.027 Z-3.000 I6.339 J0.188 K0.000
G3 X205.435 Y-218.319 Z-3.000 I11.666 J5.708 K0.000
G2 X207.830 Y-225.900 Z-3.000 I-21.227 J-10.874 K0.000
G2 X207.425 Y-233.794 Z-3.000 I-26.848 J-2.581 K0.000
G2 X206.147 Y-237.225 Z-3.000 I-10.701 J2.032 K0.000
G2 X198.043 Y-244.687 Z-3.000 I-17.318 J10.676 K0.000
G2 X194.562 Y-246.411 Z-3.000 I-9.220 J14.240 K0.000
G2 X189.895 Y-247.864 Z-3.000 I-51.813 J158.233 K0.000
G2 X182.193 Y-249.625 Z-3.000 I-10.568 J28.493 K0.000
G2 X169.663 Y-250.287 Z-3.000 I-20.614 J271.322 K0.000
G3 X167.650 Y-254.440 Z-3.000 I27.790 J-16.034 K0.000
G2 X165.398 Y-259.251 Z-3.000 I-25.156 J8.843 K0.000
G3 X165.077 Y-260.055 Z-3.000 I3.190 J-1.742 K0.000
G3 X164.858 Y-263.075 Z-3.000 I26.942 J-3.474 K0.000
G2 X164.641 Y-276.362 Z-3.000 I-760.961 J5.740 K0.000
G2 X164.402 Y-282.694 Z-3.000 I-428.171 J13.043 K0.000
G2 X168.400 Y-285.025 Z-3.000 I-6.472 J-15.694 K0.000
G1 X171.030 Y-287.203 Z-3.000
G2 X175.225 Y-291.730 Z-3.000 I-16.773 J-19.749 K0.000
G2 X177.163 Y-294.573 Z-3.000 I-51.472 J-37.166 K0.000
G2 X179.083 Y-298.914 Z-3.000 I-14.038 J-8.806 K0.000
G2 X180.559 Y-306.720 Z-3.000 I-83.938 J-19.913 K0.000
G3 X181.145 Y-309.332 Z-3.000 I17.722 J2.605 K0.000
G3 X181.852 Y-310.376 Z-3.000 I2.658 J1.038 K0.000
G3 X186.090 Y-314.612 Z-3.000 I94.300 J90.094 K0.000
G2 X189.142 Y-317.718 Z-3.000 I-23.459 J-26.105 K0.000
G2 X192.503 Y-323.004 Z-3.000 I-13.938 J-12.575 K0.000
G2 X195.892 Y-333.064 Z-3.000 I-96.738 J-38.191 K0.000
G3 X197.408 Y-338.494 Z-3.000 I61.155 J14.140 K0.000
G2 X198.262 Y-342.996 Z-3.000 I-17.977 J-5.741 K0.000
G2 X198.358 Y-351.904 Z-3.000 I-170.554 J-6.306 K0.000
G2 X197.928 Y-354.356 Z-3.000 I-7.500 J0.053 K0.000
G2 X195.622 Y-359.090 Z-3.000 I-50.460 J21.642 K0.000
G2 X191.666 Y-364.098 Z-3.000 I-14.681 J7.532 K0.000
G2 X188.092 Y-366.914 Z-3.000 I-12.115 J11.702 K0.000
G2 X184.313 Y-368.184 Z-3.000 I-7.117 J14.919 K0.000
G3 X173.418 Y-370.656 Z-3.000 I27.978 J-148.509 K0.000
G3 X169.511 Y-371.943 Z-3.000 I3.359 J-16.775 K0.000
G2 X165.313 Y-373.751 Z-3.000 I-12.069 J22.243 K0.000
G3 X162.712 Y-374.852 Z-3.000 I2.756 J-10.137 K0.000
G2 X159.106 Y-376.076 Z-3.000 I-6.269 J12.547 K0.000
G2 X153.143 Y-376.572 Z-3.000 I-6.789 J45.490 K0.000
G3 X144.923 Y-377.012 Z-3.000 I6.124 J-191.201 K0.000
G3 X143.864 Y-377.141 Z-3.000 I0.213 J-6.201 K0.000
G3 X139.955 Y-378.896 Z-3.000 I5.679 J-17.883 K0.000
G3 X139.597 Y-379.267 Z-3.000 I0.469 J-0.811 K0.000
G3 X137.874 Y-384.096 Z-3.000 I233.787 J-86.110 K0.000
G3 X137.100 Y-386.595 Z-3.000 I11.426 J-4.909 K0.000
G2 X134.719 Y-400.151 Z-3.000 I-362.527 J56.679 K0.000
G2 X133.724 Y-404.549 Z-3.000 I-48.461 J8.660 K0.000
G2 X131.266 Y-409.992 Z-3.000 I-30.672 J10.572 K0.000
G3 X130.353 Y-412.000 Z-3.000 I264.551 J-121.574 K0.000
G2 X122.060 Y-422.365 Z-3.000 I-40.601 J23.981 K0.000
G2 X124.180 Y-424.496 Z-3.000 I-41.875 J-43.794 K0.000
G2 X127.409 Y-428.531 Z-3.000 I-14.547 J-14.946 K0.000
G2 X128.992 Y-435.645 Z-3.000 I-13.890 J-6.825 K0.000
G2 X127.679 Y-442.750 Z-3.000 I-26.476 J1.219 K0.000
G2 X125.529 Y-446.407 Z-3.000 I-14.279 J5.934 K0.000
G2 X117.504 Y-454.563 Z-3.000 I-66.493 J57.403 K0.000
G2 X111.388 Y-457.852 Z-3.000 I-9.506 J10.348 K0.000
G2 X107.489 Y-458.445 Z-3.000 I-6.698 J30.900 K0.000
G1 X106.174 Y-458.541 Z-3.000
G2 X100.152 Y-458.092 Z-3.000 I-1.552 J19.808 K0.000
G1 X100.151 Y-458.095 Z-3.000
G3 X99.511 Y-457.944 Z-3.000 I-2.875 J-10.779 K0.000
G2 X94.294 Y-455.567 Z-3.000 I1.128 J9.386 K0.000
G3 X93.212 Y-454.575 Z-3.000 I-7.728 J-7.344 K0.000
G2 X89.120 Y-451.037 Z-3.000 I5.581 J10.590 K0.000
G2 X87.922 Y-450.026 Z-3.000 I7.109 J9.639 K0.000
G2 X84.516 Y-446.727 Z-3.000 I53.768 J58.915 K0.000
G2 X83.836 Y-446.501 Z-3.000 I19.483 J59.710 K0.000
G2 X79.326 Y-444.234 Z-3.000 I3.687 J12.955 K0.000
G2 X78.295 Y-443.955 Z-3.000 I31.230 J117.598 K0.000
G2 X73.913 Y-442.120 Z-3.000 I3.672 J14.914 K0.000
G3 X72.868 Y-441.520 Z-3.000 I-2.503 J-3.154 K0.000
G2 X67.339 Y-438.721 Z-3.000 I4.310 J15.371 K0.000
G3 X65.845 Y-438.079 Z-3.000 I-4.523 J-8.464 K0.000
G2 X61.429 Y-435.377 Z-3.000 I4.250 J11.907 K0.000
G2 X56.385 Y-431.931 Z-3.000 I4.071 J11.372 K0.000
G2 X52.327 Y-427.934 Z-3.000 I5.714 J9.860 K0.000
G2 X51.675 Y-427.319 Z-3.000 I4.856 J5.802 K0.000
G2 X49.176 Y-423.337 Z-3.000 I10.373 J9.285 K0.000
G3 X48.502 Y-421.875 Z-3.000 I-5.622 J-1.705 K0.000
G2 X46.143 Y-416.942 Z-3.000 I10.744 J8.170 K0.000
G3 X45.416 Y-414.177 Z-3.000 I-23.768 J-4.770 K0.000
G2 X43.676 Y-410.398 Z-3.000 I12.424 J8.010 K0.000
G2 X43.052 Y-407.603 Z-3.000 I31.131 J8.421 K0.000
G2 X40.781 Y-403.948 Z-3.000 I14.576 J11.587 K0.000
G2 X38.831 Y-401.633 Z-3.000 I8.438 J9.086 K0.000
G3 X38.083 Y-400.629 Z-3.000 I-3.895 J-2.121 K0.000
G3 X35.106 Y-397.577 Z-3.000 I-99.984 J-94.558 K0.000
G2 X33.144 Y-395.252 Z-3.000 I13.879 J13.705 K0.000
G2 X30.121 Y-391.790 Z-3.000 I8.884 J10.805 K0.000
G2 X28.234 Y-390.073 Z-3.000 I6.697 J9.259 K0.000
G2 X24.922 Y-388.970 Z-3.000 I15.856 J53.132 K0.000
G3 X23.244 Y-388.350 Z-3.000 I-4.467 J-9.512 K0.000
G2 X18.684 Y-387.322 Z-3.000 I18.592 J93.116 K0.000
G2 X13.186 Y-383.602 Z-3.000 I2.466 J9.567 K0.000
G2 X11.391 Y-382.041 Z-3.000 I6.399 J9.171 K0.000
G3 X9.925 Y-380.673 Z-3.000 I-5.350 J-4.264 K0.000
G2 X6.809 Y-377.699 Z-3.000 I7.238 J10.700 K0.000
G2 X4.441 Y-375.454 Z-3.000 I7.844 J10.648 K0.000
G2 X-0.936 Y-370.153 Z-3.000 I20.861 J26.536 K0.000
G3 X-1.564 Y-369.344 Z-3.000 I-3.132 J-1.784 K0.000
G2 X-4.742 Y-363.935 Z-3.000 I8.842 J8.833 K0.000
G3 X-5.768 Y-360.433 Z-3.000 I-25.345 J-5.523 K0.000
G2 X-6.980 Y-355.663 Z-3.000 I19.184 J7.415 K0.000
G2 X-7.305 Y-348.961 Z-3.000 I94.307 J7.934 K0.000
G2 X-7.425 Y-297.257 Z-3.000 I2713.351 J32.149 K0.000
G1 X-7.341 Y-293.328 Z-3.000
G2 X-6.138 Y-285.843 Z-3.000 I29.907 J-0.970 K0.000
G3 X-5.475 Y-283.638 Z-3.000 I-19.950 J7.199 K0.000
G3 X-5.086 Y-280.908 Z-3.000 I-38.173 J6.824 K0.000
G3 X-4.780 Y-273.816 Z-3.000 I-117.878 J8.638 K0.000
G2 X-4.693 Y-268.926 Z-3.000 I58.916 J1.387 K0.000
G2 X-2.352 Y-262.764 Z-3.000 I9.964 J-0.259 K0.000
G2 X1.377 Y-257.804 Z-3.000 I37.214 J-24.095 K0.000
G3 X1.844 Y-255.991 Z-3.000 I-18.832 J5.824 K0.000
G3 X1.818 Y-255.024 Z-3.000 I-13.623 J0.120 K0.000
G2 X1.315 Y-249.136 Z-3.000 I146.020 J15.449 K0.000
G2 X1.350 Y-242.691 Z-3.000 I35.903 J3.026 K0.000
G2 X3.022 Y-236.614 Z-3.000 I17.299 J-1.489 K0.000
G3 X4.129 Y-234.208 Z-3.000 I-14.746 J8.241 K0.000
G2 X6.723 Y-229.865 Z-3.000 I11.990 J-4.219 K0.000
G3 X6.998 Y-228.759 Z-3.000 I-28.566 J7.684 K0.000
G3 X6.655 Y-228.143 Z-3.000 I-4.919 J-2.337 K0.000
G2 X4.217 Y-225.391 Z-3.000 I7.769 J9.342 K0.000
G2 X1.470 Y-222.449 Z-3.000 I6.464 J8.788 K0.000
G1 X1.103 Y-222.098 Z-3.000
G2 X-1.579 Y-218.419 Z-3.000 I17.339 J15.454 K0.000
G2 X-4.456 Y-214.334 Z-3.000 I6.721 J7.790 K0.000
G3 X-5.714 Y-210.832 Z-3.000 I-44.711 J-14.092 K0.000
G2 X-7.257 Y-203.737 Z-3.000 I12.540 J6.443 K0.000
G2 X-6.326 Y-197.379 Z-3.000 I27.427 J-0.769 K0.000
G3 X-5.628 Y-195.134 Z-3.000 I-33.672 J11.706 K0.000
G3 X-4.432 Y-190.062 Z-3.000 I-540.662 J130.126 K0.000
G2 X-3.250 Y-186.874 Z-3.000 I10.690 J-2.152 K0.000
G2 X-1.677 Y-184.677 Z-3.000 I24.753 J-16.053 K0.000
G2 X1.011 Y-180.037 Z-3.000 I12.752 J-4.290 K0.000
G2 X2.186 Y-176.975 Z-3.000 I71.056 J-25.515 K0.000
G3 X2.853 Y-174.502 Z-3.000 I-7.247 J3.280 K0.000
G3 X2.868 Y-172.557 Z-3.000 I-5.539 J1.016 K0.000
G2 X1.926 Y-168.435 Z-3.000 I17.638 J6.202 K0.000
G2 X2.491 Y-159.672 Z-3.000 I26.053 J2.718 K0.000
G2 X3.620 Y-155.740 Z-3.000 I65.354 J-16.638 K0.000
G2 X4.963 Y-151.040 Z-3.000 I15.250 J-1.814 K0.000
G2 X6.996 Y-148.086 Z-3.000 I8.584 J-3.731 K0.000
G2 X10.122 Y-143.777 Z-3.000 I17.457 J-9.380 K0.000
G1 X13.208 Y-140.652 Z-3.000
G2 X17.483 Y-137.204 Z-3.000 I15.837 J-15.256 K0.000
G3 X19.541 Y-136.021 Z-3.000 I-19.535 J36.368 K0.000
G2 X23.737 Y-134.141 Z-3.000 I7.127 J-10.290 K0.000
G2 X28.416 Y-133.340 Z-3.000 I15.886 J-78.638 K0.000
G2 X30.482 Y-131.992 Z-3.000 I11.544 J-15.438 K0.000
G2 X32.639 Y-129.624 Z-3.000 I19.178 J-15.305 K0.000
G2 X33.170 Y-128.663 Z-3.000 I9.238 J-4.475 K0.000
G2 X35.053 Y-126.278 Z-3.000 I12.407 J-7.860 K0.000
G2 X39.128 Y-122.235 Z-3.000 I74.544 J-71.067 K0.000
G2 X43.608 Y-119.566 Z-3.000 I8.262 J-8.773 K0.000
G3 X44.470 Y-119.284 Z-3.000 I-0.574 J3.218 K0.000
G2 X48.663 Y-117.492 Z-3.000 I9.418 J-16.228 K0.000
G2 X53.587 Y-116.769 Z-3.000 I6.689 J-28.447 K0.000
G3 X58.421 Y-116.329 Z-3.000 I-5.816 J90.519 K0.000
G2 X62.172 Y-114.693 Z-3.000 I8.489 J-14.351 K0.000
G2 X63.975 Y-113.004 Z-3.000 I12.762 J-11.814 K0.000
G2 X65.816 Y-110.753 Z-3.000 I13.875 J-9.466 K0.000
G2 X68.090 Y-105.299 Z-3.000 I17.714 J-4.185 K0.000
G3 X68.530 Y-101.999 Z-3.000 I-101.874 J15.249 K0.000
G2 X70.348 Y-94.283 Z-3.000 I28.839 J-2.724 K0.000
G3 X71.399 Y-89.465 Z-3.000 I-33.377 J9.803 K0.000
G2 X72.818 Y-84.080 Z-3.000 I26.661 J-4.147 K0.000
G2 X73.867 Y-81.723 Z-3.000 I59.555 J-25.090 K0.000
G3 X74.239 Y-79.672 Z-3.000 I-20.039 J4.693 K0.000
G2 X76.623 Y-73.953 Z-3.000 I11.817 J-1.571 K0.000
G2 X79.796 Y-68.022 Z-3.000 I14.813 J-4.110 K0.000
G2 X80.356 Y-66.994 Z-3.000 I7.973 J-3.677 K0.000
G2 X82.261 Y-64.607 Z-3.000 I21.444 J-15.163 K0.000
G2 X83.502 Y-63.058 Z-3.000 I5.843 J-3.409 K0.000
G2 X86.147 Y-61.186 Z-3.000 I10.466 J-11.979 K0.000
G2 X89.363 Y-59.438 Z-3.000 I76.270 J-136.479 K0.000
G2 X92.811 Y-58.339 Z-3.000 I5.190 J-10.327 K0.000
G2 X99.342 Y-58.234 Z-3.000 I3.833 J-35.466 K0.000
G2 X103.295 Y-59.216 Z-3.000 I-0.860 J-11.914 K0.000
G3 X105.661 Y-60.119 Z-3.000 I5.265 J10.246 K0.000
G3 X114.698 Y-60.857 Z-3.000 I9.814 J64.508 K0.000
G2 X116.483 Y-58.562 Z-3.000 I30.466 J-21.863 K0.000
G2 X118.960 Y-53.720 Z-3.000 I14.128 J-4.172 K0.000
G2 X119.662 Y-51.807 Z-3.000 I44.347 J-15.191 K0.000
G2 X121.853 Y-47.902 Z-3.000 I11.530 J-3.901 K0.000
G2 X126.249 Y-44.338 Z-3.000 I14.037 J-12.820 K0.000
G2 X131.117 Y-42.684 Z-3.000 I5.708 J-8.815 K0.000
G2 X143.211 Y-46.432 Z-3.000 I1.034 J-18.052 K0.000
G3 X143.931 Y-46.843 Z-3.000 I0.933 J0.798 K0.000
G2 X148.545 Y-49.644 Z-3.000 I-6.097 J-15.243 K0.000
G2 X153.332 Y-52.288 Z-3.000 I-4.413 J-13.646 K0.000
G2 X158.001 Y-55.093 Z-3.000 I-6.123 J-15.481 K0.000
G3 X160.085 Y-56.203 Z-3.000 I7.643 J11.841 K0.000
G2 X161.154 Y-54.426 Z-3.000 I20.153 J-10.917 K0.000
G3 X161.477 Y-53.030 Z-3.000 I-31.331 J7.990 K0.000
G2 X163.577 Y-48.312 Z-3.000 I12.644 J-2.803 K0.000
G3 X164.006 Y-47.677 Z-3.000 I-2.981 J2.474 K0.000
G2 X164.815 Y-44.297 Z-3.000 I87.933 J-19.265 K0.000
G1 X164.999 Y-43.661 Z-3.000
G2 X166.828 Y-40.421 Z-3.000 I12.059 J-4.670 K0.000
G2 X167.149 Y-38.799 Z-3.000 I16.746 J-2.469 K0.000
G2 X169.755 Y-33.516 Z-3.000 I12.117 J-2.693 K0.000
G2 X171.257 Y-30.227 Z-3.000 I11.230 J-3.142 K0.000
G2 X173.065 Y-27.766 Z-3.000 I34.159 J-23.205 K0.000
G2 X174.188 Y-26.426 Z-3.000 I17.413 J-13.450 K0.000
G2 X185.694 Y-20.434 Z-3.000 I13.775 J-12.408 K0.000
G2 X192.618 Y-20.571 Z-3.000 I2.833 J-31.898 K0.000
G3 X196.539 Y-20.852 Z-3.000 I3.466 J20.922 K0.000
G2 X197.901 Y-19.306 Z-3.000 I10.114 J-7.539 K0.000
G2 X200.774 Y-14.493 Z-3.000 I14.298 J-5.272 K0.000
G3 X201.390 Y-13.672 Z-3.000 I-3.068 J2.941 K0.000
G2 X203.866 Y-10.164 Z-3.000 I10.432 J-4.737 K0.000
G2 X207.370 Y-5.924 Z-3.000 I11.828 J-6.206 K0.000
G2 X210.193 Y-2.877 Z-3.000 I13.446 J-9.624 K0.000
G2 X213.463 Y0.279 Z-3.000 I10.975 J-8.100 K0.000
G2 X217.391 Y3.578 Z-3.000 I9.436 J-7.247 K0.000
G1 X217.899 Y4.127 Z-3.000
G2 X222.730 Y6.638 Z-3.000 I7.180 J-7.912 K0.000
G2 X228.275 Y7.460 Z-3.000 I9.114 J-42.343 K0.000
G2 X235.670 Y6.720 Z-3.000 I1.284 J-24.487 K0.000
G2 X239.143 Y5.285 Z-3.000 I-3.550 J-13.510 K0.000
G2 X241.959 Y3.409 Z-3.000 I-16.443 J-27.723 K0.000
G2 X247.983 Y-1.591 Z-3.000 I-17.637 J-27.381 K0.000
G2 X250.820 Y-4.870 Z-3.000 I-292.079 J-255.581 K0.000
G2 X254.369 Y-9.912 Z-3.000 I-16.127 J-15.121 K0.000
G3 X255.508 Y-11.994 Z-3.000 I10.034 J4.139 K0.000
G2 X257.232 Y-15.630 Z-3.000 I-19.103 J-11.282 K0.000
G3 X257.651 Y-16.707 Z-3.000 I5.419 J1.489 K0.000
G2 X260.323 Y-22.483 Z-3.000 I-17.118 J-11.423 K0.000
G2 X262.268 Y-25.547 Z-3.000 I-9.237 J-8.015 K0.000
G2 X264.520 Y-28.334 Z-3.000 I-6.494 J-7.549 K0.000
G2 X266.285 Y-29.758 Z-3.000 I-13.067 J-18.001 K0.000
G2 X270.150 Y-31.514 Z-3.000 I-11.469 J-30.379 K0.000
G3 X271.935 Y-32.434 Z-3.000 I6.368 J10.173 K0.000
G2 X274.995 Y-33.707 Z-3.000 I-6.246 J-19.319 K0.000
G3 X278.524 Y-35.734 Z-3.000 I52.011 J86.469 K0.000
G2 X281.473 Y-37.481 Z-3.000 I-9.778 J-19.875 K0.000
G0 Z6.000
G0 Z6.000
G0 X281.473 Y-37.481
G0 X355.740 Y-127.822
G0 X355.740 Y-127.822 Z4.000
G1 X355.740 Y-127.822 Z-3.000
G2 X359.597 Y-125.057 Z-3.000 I22.798 J-27.732 K0.000
G3 X363.137 Y-121.998 Z-3.000 I-20.395 J27.179 K0.000
G3 X366.748 Y-118.121 Z-3.000 I-73.370 J71.972 K0.000
G2 X372.640 Y-112.972 Z-3.000 I22.875 J-20.228 K0.000
G3 X377.974 Y-107.583 Z-3.000 I-62.043 J66.738 K0.000
G3 X378.523 Y-106.645 Z-3.000 I-4.838 J3.459 K0.000
G2 X381.196 Y-102.370 Z-3.000 I15.317 J-6.605 K0.000
G2 X383.480 Y-98.165 Z-3.000 I14.718 J-5.274 K0.000
G3 X383.822 Y-97.675 Z-3.000 I-1.232 J1.224 K0.000
G2 X386.676 Y-92.925 Z-3.000 I14.808 J-5.666 K0.000
G2 X389.010 Y-90.497 Z-3.000 I49.685 J-45.416 K0.000
G2 X394.122 Y-86.541 Z-3.000 I14.825 J-13.877 K0.000
G3 X396.644 Y-85.152 Z-3.000 I-9.408 J20.068 K0.000
G2 X401.635 Y-83.498 Z-3.000 I7.328 J-13.749 K0.000
G2 X410.566 Y-83.645 Z-3.000 I4.084 J-23.223 K0.000
G2 X415.549 Y-85.586 Z-3.000 I-2.681 J-14.244 K0.000
G1 X415.549 Y-85.586 Z-3.000
G3 X417.401 Y-86.611 Z-3.000 I38.736 J67.829 K0.000
G2 X421.770 Y-90.321 Z-3.000 I-5.753 J-11.201 K0.000
G2 X422.390 Y-90.823 Z-3.000 I-5.509 J-7.433 K0.000
G2 X426.206 Y-95.666 Z-3.000 I-17.513 J-17.728 K0.000
G2 X428.058 Y-98.143 Z-3.000 I-10.637 J-9.885 K0.000
G3 X429.253 Y-100.332 Z-3.000 I40.227 J20.524 K0.000
G2 X431.802 Y-104.834 Z-3.000 I-11.901 J-9.711 K0.000
G2 X434.040 Y-108.449 Z-3.000 I-12.732 J-10.385 K0.000
G1 X434.040 Y-108.449 Z-3.000
G3 X434.758 Y-109.646 Z-3.000 I4.230 J1.725 K0.000
G2 X435.567 Y-110.581 Z-3.000 I-9.794 J-9.283 K0.000
G3 X439.706 Y-115.027 Z-3.000 I18.768 J13.323 K0.000
G2 X442.425 Y-116.923 Z-3.000 I-12.914 J-21.416 K0.000
G1 X442.581 Y-117.004 Z-3.000
G2 X447.007 Y-119.389 Z-3.000 I-5.347 J-15.221 K0.000
G2 X454.008 Y-122.304 Z-3.000 I-3.972 J-19.407 K0.000
G3 X454.579 Y-122.427 Z-3.000 I2.094 J8.359 K0.000
G2 X460.148 Y-124.325 Z-3.000 I-3.452 J-19.245 K0.000
G3 X461.501 Y-125.024 Z-3.000 I4.219 J6.512 K0.000
G2 X466.042 Y-127.283 Z-3.000 I-4.700 J-15.137 K0.000
G2 X470.379 Y-131.108 Z-3.000 I-25.499 J-33.282 K0.000
G2 X475.160 Y-138.034 Z-3.000 I-21.444 J-19.917 K0.000
G2 X476.634 Y-141.992 Z-3.000 I-11.153 J-6.407 K0.000
G2 X477.499 Y-150.151 Z-3.000 I-212.452 J-26.638 K0.000
G2 X479.248 Y-153.009 Z-3.000 I-14.614 J-10.910 K0.000
G2 X482.079 Y-156.726 Z-3.000 I-12.940 J-12.793 K0.000
G2 X484.508 Y-159.572 Z-3.000 I-9.517 J-10.581 K0.000
G3 X484.884 Y-160.108 Z-3.000 I1.645 J0.752 K0.000
G2 X487.550 Y-163.080 Z-3.000 I-7.261 J-9.197 K0.000
G3 X488.503 Y-164.452 Z-3.000 I4.010 J1.767 K0.000
G2 X491.063 Y-169.500 Z-3.000 I-8.557 J-7.512 K0.000
G2 X491.033 Y-176.867 Z-3.000 I-19.588 J-3.604 K0.000
G2 X488.347 Y-182.245 Z-3.000 I-10.149 J1.709 K0.000
G3 X488.205 Y-182.563 Z-3.000 I0.218 J-0.287 K0.000
G2 X486.445 Y-187.176 Z-3.000 I-17.774 J4.141 K0.000
G2 X487.356 Y-188.573 Z-3.000 I-13.034 J-9.495 K0.000
G2 X489.988 Y-191.235 Z-3.000 I-10.300 J-12.814 K0.000
G2 X491.283 Y-192.326 Z-3.000 I-4.198 J-6.297 K0.000
G2 X493.141 Y-194.594 Z-3.000 I-16.368 J-15.307 K0.000
G2 X496.245 Y-199.135 Z-3.000 I-13.928 J-12.850 K0.000
G3 X496.502 Y-199.632 Z-3.000 I1.903 J0.672 K0.000
G3 X497.326 Y-200.678 Z-3.000 I24.388 J18.367 K0.000
G2 X499.213 Y-205.205 Z-3.000 I-11.611 J-7.495 K0.000
G2 X499.767 Y-209.238 Z-3.000 I-29.439 J-6.096 K0.000
G2 X499.765 Y-216.358 Z-3.000 I-57.796 J-3.545 K0.000
G2 X498.997 Y-220.587 Z-3.000 I-15.276 J0.588 K0.000
G2 X497.104 Y-224.362 Z-3.000 I-17.810 J6.571 K0.000
G2 X493.830 Y-231.514 Z-3.000 I-13.041 J1.644 K0.000
G2 X491.355 Y-235.306 Z-3.000 I-15.112 J7.163 K0.000
G2 X487.187 Y-239.517 Z-3.000 I-67.269 J62.404 K0.000
G2 X482.996 Y-243.766 Z-3.000 I-78.633 J73.366 K0.000
G2 X484.240 Y-245.711 Z-3.000 I-9.001 J-7.125 K0.000
G2 X485.405 Y-249.071 Z-3.000 I-28.140 J-11.643 K0.000
G3 X485.796 Y-250.278 Z-3.000 I6.618 J1.476 K0.000
G2 X487.562 Y-255.635 Z-3.000 I-15.428 J-8.056 K0.000
G2 X487.616 Y-265.995 Z-3.000 I-38.301 J-5.381 K0.000
G3 X486.644 Y-275.247 Z-3.000 I43.352 J-9.232 K0.000
G2 X487.744 Y-277.591 Z-3.000 I-102.342 J-49.426 K0.000
G3 X488.981 Y-279.103 Z-3.000 I23.585 J18.037 K0.000
G2 X493.714 Y-284.034 Z-3.000 I-780.025 J-753.495 K0.000
G2 X496.414 Y-287.517 Z-3.000 I-16.449 J-15.538 K0.000
G3 X496.871 Y-288.269 Z-3.000 I3.690 J1.727 K0.000
G2 X499.290 Y-292.866 Z-3.000 I-8.516 J-7.417 K0.000
G2 X500.689 Y-300.161 Z-3.000 I-123.539 J-27.468 K0.000
G2 X500.504 Y-305.996 Z-3.000 I-14.724 J-2.456 K0.000
G3 X499.820 Y-308.788 Z-3.000 I30.142 J-8.871 K0.000
G2 X497.091 Y-316.002 Z-3.000 I-13.255 J0.891 K0.000
G3 X496.688 Y-316.550 Z-3.000 I1.681 J-1.658 K0.000
G2 X493.579 Y-321.649 Z-3.000 I-13.100 J4.490 K0.000
G2 X490.607 Y-325.638 Z-3.000 I-10.779 J4.928 K0.000
G2 X488.501 Y-328.737 Z-3.000 I-13.632 J7.000 K0.000
G3 X487.550 Y-330.059 Z-3.000 I3.316 J-3.389 K0.000
G2 X484.708 Y-334.033 Z-3.000 I-12.991 J6.285 K0.000
G2 X481.136 Y-338.355 Z-3.000 I-10.746 J5.246 K0.000
G2 X477.362 Y-341.861 Z-3.000 I-9.691 J6.646 K0.000
G2 X472.923 Y-345.486 Z-3.000 I-15.793 J14.809 K0.000
G2 X470.517 Y-347.622 Z-3.000 I-8.535 J7.189 K0.000
G2 X468.532 Y-350.270 Z-3.000 I-10.661 J5.928 K0.000
G3 X468.478 Y-350.810 Z-3.000 I4.480 J-0.722 K0.000
G3 X468.667 Y-355.923 Z-3.000 I39.280 J-1.103 K0.000
G3 X469.289 Y-358.250 Z-3.000 I5.175 J0.137 K0.000
G2 X470.870 Y-362.885 Z-3.000 I-11.125 J-6.381 K0.000
G2 X470.868 Y-369.247 Z-3.000 I-33.782 J-3.167 K0.000
G2 X468.382 Y-375.671 Z-3.000 I-12.653 J1.203 K0.000
G2 X466.228 Y-379.712 Z-3.000 I-14.336 J5.047 K0.000
G3 X464.342 Y-382.063 Z-3.000 I61.324 J-51.108 K0.000
G2 X462.499 Y-384.380 Z-3.000 I-15.787 J10.667 K0.000
G2 X459.812 Y-386.493 Z-3.000 I-7.985 J7.389 K0.000
G2 X457.400 Y-388.488 Z-3.000 I-11.889 J11.918 K0.000
G2 X450.381 Y-392.110 Z-3.000 I-23.647 J37.219 K0.000
G2 X446.054 Y-393.154 Z-3.000 I-5.646 J13.906 K0.000
G2 X443.270 Y-393.305 Z-3.000 I-4.040 J48.832 K0.000
G3 X435.345 Y-393.703 Z-3.000 I20.559 J-488.131 K0.000
G3 X430.751 Y-394.494 Z-3.000 I216.709 J-1272.256 K0.000
G2 X423.533 Y-395.722 Z-3.000 I-38.302 J203.396 K0.000
G2 X422.318 Y-396.835 Z-3.000 I-18.478 J18.956 K0.000
G2 X419.719 Y-400.034 Z-3.000 I-11.683 J6.835 K0.000
G2 X418.474 Y-402.015 Z-3.000 I-11.724 J5.988 K0.000
G3 X417.486 Y-403.240 Z-3.000 I63.191 J-51.936 K0.000
G2 X415.028 Y-407.158 Z-3.000 I-17.401 J8.190 K0.000
G3 X414.852 Y-407.482 Z-3.000 I0.405 J-0.429 K0.000
G2 X414.537 Y-408.908 Z-3.000 I-10.693 J1.618 K0.000
G2 X412.934 Y-412.214 Z-3.000 I-15.784 J5.612 K0.000
G1 X412.802 Y-413.013 Z-3.000
G2 X411.771 Y-418.473 Z-3.000 I-85.827 J13.390 K0.000
G2 X411.187 Y-420.161 Z-3.000 I-8.333 J1.935 K0.000
G2 X409.707 Y-422.763 Z-3.000 I-14.724 J6.656 K0.000
G3 X409.132 Y-424.545 Z-3.000 I43.804 J-15.110 K0.000
G2 X406.738 Y-428.858 Z-3.000 I-12.194 J3.948 K0.000
G2 X403.616 Y-433.882 Z-3.000 I-10.660 J3.142 K0.000
G3 X403.236 Y-434.476 Z-3.000 I4.568 J-3.344 K0.000
G2 X400.293 Y-438.494 Z-3.000 I-12.604 J6.143 K0.000
G2 X396.844 Y-442.476 Z-3.000 I-11.468 J6.447 K0.000
G2 X393.088 Y-445.961 Z-3.000 I-10.464 J7.513 K0.000
G2 X387.445 Y-449.352 Z-3.000 I-7.510 J6.107 K0.000
G3 X386.130 Y-449.670 Z-3.000 I1.026 J-7.109 K0.000
G2 X383.490 Y-450.782 Z-3.000 I-10.364 J20.910 K0.000
G2 X374.694 Y-451.622 Z-3.000 I-6.545 J22.058 K0.000
G2 X369.325 Y-450.073 Z-3.000 I4.862 J26.930 K0.000
G3 X367.499 Y-449.705 Z-3.000 I-2.118 J-5.793 K0.000
G2 X361.542 Y-448.743 Z-3.000 I3.600 J41.213 K0.000
G2 X357.252 Y-447.363 Z-3.000 I22.001 J75.734 K0.000
G3 X353.727 Y-447.436 Z-3.000 I-1.174 J-28.269 K0.000
G3 X351.753 Y-447.810 Z-3.000 I0.371 J-7.361 K0.000
G2 X343.888 Y-449.614 Z-3.000 I-10.952 J29.705 K0.000
G2 X342.048 Y-450.800 Z-3.000 I-8.922 J11.817 K0.000
G1 X342.026 Y-450.821 Z-3.000
G3 X341.908 Y-451.991 Z-3.000 I84.134 J-9.071 K0.000
G2 X341.527 Y-455.657 Z-3.000 I-50.009 J3.353 K0.000
G2 X339.542 Y-460.755 Z-3.000 I-11.689 J1.616 K0.000
G3 X339.398 Y-461.329 Z-3.000 I4.755 J-1.498 K0.000
G2 X338.694 Y-464.773 Z-3.000 I-28.788 J4.086 K0.000
G2 X336.682 Y-468.988 Z-3.000 I-11.134 J2.729 K0.000
G2 X335.751 Y-471.822 Z-3.000 I-20.049 J5.011 K0.000
G2 X333.524 Y-475.389 Z-3.000 I-9.694 J3.575 K0.000
G2 X330.269 Y-480.409 Z-3.000 I-17.188 J7.576 K0.000
G2 X329.159 Y-481.972 Z-3.000 I-6.388 J3.365 K0.000
G2 X324.161 Y-486.981 Z-3.000 I-35.731 J30.652 K0.000
G2 X321.658 Y-488.701 Z-3.000 I-7.529 J8.275 K0.000
G2 X317.229 Y-491.471 Z-3.000 I-9.352 J10.028 K0.000
G2 X315.542 Y-492.902 Z-3.000 I-13.596 J14.311 K0.000
G2 X313.596 Y-495.605 Z-3.000 I-11.519 J6.244 K0.000
G2 X311.084 Y-500.302 Z-3.000 I-12.491 J3.659 K0.000
G3 X310.751 Y-500.903 Z-3.000 I5.593 J-3.497 K0.000
G2 X309.838 Y-502.914 Z-3.000 I-42.609 J18.129 K0.000
G2 X307.563 Y-506.062 Z-3.000 I-10.634 J5.290 K0.000
G1 X307.368 Y-506.403 Z-3.000
G2 X304.408 Y-510.195 Z-3.000 I-10.772 J5.358 K0.000
G2 X302.125 Y-513.094 Z-3.000 I-19.584 J13.077 K0.000
G2 X299.835 Y-515.430 Z-3.000 I-9.996 J7.506 K0.000
G2 X296.160 Y-518.624 Z-3.000 I-8.562 J6.139 K0.000
G3 X294.529 Y-519.816 Z-3.000 I2.247 J-4.791 K0.000
G2 X289.592 Y-522.781 Z-3.000 I-10.126 J11.268 K0.000
G2 X286.385 Y-524.630 Z-3.000 I-8.808 J11.570 K0.000
G2 X282.182 Y-525.902 Z-3.000 I-9.627 J24.238 K0.000
G3 X280.381 Y-526.385 Z-3.000 I2.831 J-14.134 K0.000
G2 X275.721 Y-527.417 Z-3.000 I-5.787 J15.105 K0.000
G1 X274.985 Y-527.460 Z-3.000
G2 X267.816 Y-526.622 Z-3.000 I-1.040 J22.173 K0.000
G3 X264.601 Y-525.478 Z-3.000 I-18.188 J-46.048 K0.000
G2 X260.193 Y-523.610 Z-3.000 I3.043 J13.311 K0.000
G2 X257.516 Y-521.500 Z-3.000 I12.117 J18.137 K0.000
G2 X251.426 Y-515.707 Z-3.000 I37.429 J45.439 K0.000
G2 X248.938 Y-512.743 Z-3.000 I19.755 J19.112 K0.000
G3 X243.992 Y-507.823 Z-3.000 I-73.380 J-68.831 K0.000
G2 X243.470 Y-507.506 Z-3.000 I2.009 J3.894 K0.000
G2 X236.180 Y-500.493 Z-3.000 I37.960 J46.755 K0.000
G2 X234.826 Y-498.650 Z-3.000 I13.472 J11.319 K0.000
G2 X231.756 Y-493.126 Z-3.000 I13.405 J11.064 K0.000
G3 X231.030 Y-491.792 Z-3.000 I-9.991 J-4.569 K0.000
G2 X228.852 Y-485.391 Z-3.000 I34.106 J15.182 K0.000
G2 X226.606 Y-481.471 Z-3.000 I10.940 J8.871 K0.000
G2 X225.123 Y-479.631 Z-3.000 I11.802 J11.027 K0.000
G3 X224.042 Y-478.316 Z-3.000 I-4.747 J-2.800 K0.000
G2 X222.150 Y-476.166 Z-3.000 I7.391 J8.413 K0.000
G3 X218.659 Y-472.677 Z-3.000 I-62.948 J-59.492 K0.000
G2 X212.606 Y-466.900 Z-3.000 I85.220 J95.355 K0.000
G2 X209.496 Y-462.372 Z-3.000 I10.611 J10.620 K0.000
G3 X208.397 Y-459.838 Z-3.000 I-23.631 J-8.739 K0.000
G2 X206.764 Y-455.062 Z-3.000 I10.006 J6.090 K0.000
G2 X206.689 Y-447.956 Z-3.000 I73.675 J4.329 K0.000
G2 X207.877 Y-443.050 Z-3.000 I11.553 J-0.201 K0.000
G3 X209.117 Y-440.128 Z-3.000 I-11.557 J6.630 K0.000
G2 X209.857 Y-437.623 Z-3.000 I19.446 J-4.383 K0.000
G2 X211.907 Y-433.945 Z-3.000 I11.222 J-3.846 K0.000
G2 X212.264 Y-432.601 Z-3.000 I28.553 J-6.858 K0.000
G2 X214.688 Y-427.705 Z-3.000 I12.161 J-2.972 K0.000
G3 X214.843 Y-426.953 Z-3.000 I-13.448 J3.167 K0.000
G2 X217.495 Y-420.712 Z-3.000 I12.467 J-1.613 K0.000
G2 X219.460 Y-414.091 Z-3.000 I20.540 J-2.494 K0.000
G3 X220.203 Y-412.486 Z-3.000 I-9.002 J5.140 K0.000
G2 X221.468 Y-409.231 Z-3.000 I29.241 J-9.497 K0.000
G3 X221.983 Y-407.557 Z-3.000 I-5.141 J2.495 K0.000
G3 X222.338 Y-402.568 Z-3.000 I-102.438 J9.811 K0.000
G2 X223.011 Y-392.352 Z-3.000 I132.133 J-3.576 K0.000
G2 X224.345 Y-387.110 Z-3.000 I18.916 J-2.022 K0.000
G2 X228.914 Y-380.358 Z-3.000 I24.181 J-11.439 K0.000
G2 X234.432 Y-375.743 Z-3.000 I17.017 J-14.739 K0.000
G3 X235.886 Y-374.786 Z-3.000 I-9.009 J15.270 K0.000
G2 X239.131 Y-373.211 Z-3.000 I19.482 J-36.026 K0.000
G3 X240.668 Y-372.426 Z-3.000 I-2.316 J6.427 K0.000
G2 X241.864 Y-370.516 Z-3.000 I11.216 J-5.697 K0.000
G3 X242.738 Y-369.135 Z-3.000 I-3.490 J3.174 K0.000
G2 X245.337 Y-364.238 Z-3.000 I24.047 J-9.628 K0.000
G2 X250.125 Y-359.077 Z-3.000 I29.082 J-22.181 K0.000
G2 X261.161 Y-353.434 Z-3.000 I17.542 J-20.694 K0.000
G3 X269.416 Y-351.179 Z-3.000 I-13.175 J64.470 K0.000
G2 X275.613 Y-350.138 Z-3.000 I6.883 J-22.002 K0.000
G1 X275.613 Y-350.138 Z-3.000
G1 X276.493 Y-350.081 Z-3.000
G3 X276.336 Y-332.473 Z-3.000 I-2585.115 J-14.297 K0.000
G2 X276.459 Y-328.803 Z-3.000 I34.455 J0.682 K0.000
G2 X278.397 Y-323.046 Z-3.000 I13.559 J-1.359 K0.000
G3 X279.319 Y-321.370 Z-3.000 I-8.764 J5.915 K0.000
G2 X282.095 Y-316.169 Z-3.000 I25.127 J-10.069 K0.000
G2 X287.156 Y-310.416 Z-3.000 I28.832 J-20.259 K0.000
G1 X287.156 Y-310.416 Z-3.000
G3 X291.129 Y-306.626 Z-3.000 I-339.828 J360.322 K0.000
G2 X292.312 Y-303.875 Z-3.000 I27.120 J-10.036 K0.000
G3 X293.675 Y-300.180 Z-3.000 I-14.693 J7.517 K0.000
G2 X295.495 Y-296.171 Z-3.000 I13.450 J-3.688 K0.000
G2 X298.168 Y-292.979 Z-3.000 I26.465 J-19.449 K0.000
G2 X300.962 Y-290.448 Z-3.000 I11.966 J-10.403 K0.000
G2 X313.882 Y-285.572 Z-3.000 I16.846 J-25.084 K0.000
G3 X319.227 Y-284.513 Z-3.000 I-1.801 J23.089 K0.000
G2 X323.103 Y-283.077 Z-3.000 I41.885 J-107.107 K0.000
G3 X324.871 Y-281.592 Z-3.000 I-3.938 J6.488 K0.000
G2 X326.645 Y-279.002 Z-3.000 I27.429 J-16.885 K0.000
G3 X326.912 Y-278.359 Z-3.000 I-1.382 J0.950 K0.000
G2 X330.273 Y-272.015 Z-3.000 I14.826 J-3.793 K0.000
G2 X332.386 Y-268.552 Z-3.000 I108.457 J-63.807 K0.000
G3 X331.537 Y-263.908 Z-3.000 I-14.067 J-0.174 K0.000
G2 X329.859 Y-260.040 Z-3.000 I23.295 J12.401 K0.000
G3 X328.963 Y-257.509 Z-3.000 I-24.100 J-7.106 K0.000
G2 X326.836 Y-250.077 Z-3.000 I35.561 J14.198 K0.000
G2 X325.412 Y-247.961 Z-3.000 I8.366 J7.171 K0.000
G1 X325.412 Y-247.961 Z-3.000
G1 X325.187 Y-247.560 Z-3.000
G3 X324.491 Y-246.516 Z-3.000 I-3.859 J-1.818 K0.000
G2 X320.716 Y-243.054 Z-3.000 I290.419 J320.528 K0.000
G2 X315.164 Y-236.346 Z-3.000 I17.605 J20.220 K0.000
G2 X313.400 Y-231.639 Z-3.000 I10.990 J6.804 K0.000
G2 X313.235 Y-225.854 Z-3.000 I32.048 J3.806 K0.000
G2 X315.069 Y-219.061 Z-3.000 I16.900 J-0.918 K0.000
G3 X316.269 Y-216.592 Z-3.000 I-12.888 J7.793 K0.000
G2 X317.889 Y-212.800 Z-3.000 I17.187 J-5.097 K0.000
G3 X318.876 Y-210.813 Z-3.000 I-7.953 J5.191 K0.000
G2 X320.576 Y-207.200 Z-3.000 I20.097 J-7.248 K0.000
G1 X322.232 Y-204.508 Z-3.000
G2 X326.175 Y-199.570 Z-3.000 I25.966 J-16.687 K0.000
G2 X333.312 Y-194.363 Z-3.000 I20.376 J-20.438 K0.000
G2 X336.321 Y-193.068 Z-3.000 I7.442 J-13.145 K0.000
G2 X340.024 Y-192.580 Z-3.000 I5.606 J-28.238 K0.000
G3 X349.710 Y-191.998 Z-3.000 I-12.102 J282.193 K0.000
G3 X353.542 Y-191.393 Z-3.000 I-2.126 J25.929 K0.000
G3 X353.556 Y-190.531 Z-3.000 I-7.053 J0.541 K0.000
G2 X352.178 Y-184.001 Z-3.000 I102.581 J25.064 K0.000
G3 X351.255 Y-179.341 Z-3.000 I-58.423 J-9.143 K0.000
G2 X349.851 Y-173.852 Z-3.000 I361.772 J95.468 K0.000
G3 X349.335 Y-172.375 Z-3.000 I-5.462 J-1.078 K0.000
G2 X347.171 Y-168.570 Z-3.000 I25.297 J16.908 K0.000
G2 X346.438 Y-167.648 Z-3.000 I8.707 J7.670 K0.000
G2 X343.023 Y-160.945 Z-3.000 I26.715 J17.835 K0.000
G2 X342.323 Y-157.781 Z-3.000 I13.522 J4.651 K0.000
G2 X342.687 Y-148.280 Z-3.000 I37.408 J3.323 K0.000
G2 X343.645 Y-144.607 Z-3.000 I54.633 J-12.279 K0.000
G2 X347.131 Y-137.387 Z-3.000 I20.147 J-5.277 K0.000
G2 X350.897 Y-132.465 Z-3.000 I25.433 J-15.559 K0.000
G2 X355.179 Y-128.293 Z-3.000 I35.187 J-31.832 K0.000
G2 X355.740 Y-127.822 Z-3.000 I23.359 J-27.261 K0.000
G0 Z6.000
G0 Z6.000
(Finish operation: Profile)
(Begin postamble)
M5
G17 G90
M2
