(Exported by FreeCAD)
(Post Processor: grbl_post)
(Output Time:2025-08-21 07:25:20.426605)
(Begin preamble)
G17 G90
G21
(Begin operation: Fixture)
(Path: Fixture)
G54
(Finish operation: Fixture)
(Begin operation: 6 mm Bull Nose001)
(Path: 6 mm Bull Nose001)
(6 mm Bull Nose001)
(Begin toolchange)
( M6 T2 )
(Finish operation: 6 mm Bull Nose001)
(Begin operation: Profile)
(Path: Profile)
(Profile)
(Uncompensated Tool Path)
G0 Z13.000
G0 X0.000 Y0.000
G0 X12.634 Y2.228
G0 X12.634 Y2.228 Z0.000
G1 X12.634 Y2.228 Z-3.000 F420.000
G1 X10.828 Y12.469 Z-3.000 F420.000
G2 X11.096 Y40.272 Z-3.000 I1.688 J13.886 K0.000 F420.000
G1 X15.004 Y51.010 Z-3.000 F420.000
G2 X16.884 Y52.326 Z-3.000 I1.879 J-0.684 K0.000 F420.000
G1 X30.763 Y52.326 Z-3.000 F420.000
G2 X32.763 Y50.326 Z-3.000 I0.000 J-2.000 K0.000 F420.000
G1 X32.763 Y44.326 Z-3.000 F420.000
G2 X30.763 Y42.326 Z-3.000 I-2.000 J0.000 K0.000 F420.000
G1 X26.903 Y42.326 Z-3.000 F420.000
G1 X26.903 Y40.326 Z-3.000 F420.000
G1 X42.903 Y40.326 Z-3.000 F420.000
G1 X42.903 Y42.326 Z-3.000 F420.000
G1 X38.903 Y42.326 Z-3.000 F420.000
G2 X36.903 Y44.326 Z-3.000 I-0.000 J2.000 K0.000 F420.000
G1 X36.903 Y50.326 Z-3.000 F420.000
G2 X38.903 Y52.326 Z-3.000 I2.000 J0.000 K0.000 F420.000
G1 X52.884 Y52.326 Z-3.000 F420.000
G2 X54.763 Y51.010 Z-3.000 I0.000 J-2.000 K0.000 F420.000
G1 X58.704 Y40.181 Z-3.000 F420.000
G2 X57.500 Y12.375 Z-3.000 I-2.023 J-13.841 K0.000 F420.000
G1 X52.874 Y-0.334 Z-3.000 F420.000
G2 X50.995 Y-1.650 Z-3.000 I-1.879 J0.684 K0.000 F420.000
G1 X36.875 Y-1.650 Z-3.000 F420.000
G2 X34.875 Y0.350 Z-3.000 I0.000 J2.000 K0.000 F420.000
G1 X34.875 Y6.354 Z-3.000 F420.000
G2 X36.875 Y8.354 Z-3.000 I2.000 J0.000 K0.000 F420.000
G1 X40.875 Y8.354 Z-3.000 F420.000
G1 X40.875 Y10.354 Z-3.000 F420.000
G1 X24.875 Y10.354 Z-3.000 F420.000
G1 X24.875 Y8.354 Z-3.000 F420.000
G1 X28.875 Y8.354 Z-3.000 F420.000
G2 X30.875 Y6.354 Z-3.000 I-0.000 J-2.000 K0.000 F420.000
G1 X30.875 Y0.354 Z-3.000 F420.000
G2 X28.875 Y-1.646 Z-3.000 I-2.000 J-0.000 K0.000 F420.000
G1 X14.995 Y-1.646 Z-3.000 F420.000
G2 X13.025 Y0.007 Z-3.000 I-0.000 J2.000 K0.000 F420.000
G1 X12.634 Y2.228 Z-3.000 F420.000
G1 X12.634 Y2.228 Z-6.000 F420.000
G1 X10.828 Y12.469 Z-6.000 F420.000
G2 X11.096 Y40.272 Z-6.000 I1.688 J13.886 K0.000 F420.000
G1 X15.004 Y51.010 Z-6.000 F420.000
G2 X16.884 Y52.326 Z-6.000 I1.879 J-0.684 K0.000 F420.000
G1 X30.763 Y52.326 Z-6.000 F420.000
G2 X32.763 Y50.326 Z-6.000 I0.000 J-2.000 K0.000 F420.000
G1 X32.763 Y44.326 Z-6.000 F420.000
G2 X30.763 Y42.326 Z-6.000 I-2.000 J0.000 K0.000 F420.000
G1 X26.903 Y42.326 Z-6.000 F420.000
G1 X26.903 Y40.326 Z-6.000 F420.000
G1 X42.903 Y40.326 Z-6.000 F420.000
G1 X42.903 Y42.326 Z-6.000 F420.000
G1 X38.903 Y42.326 Z-6.000 F420.000
G2 X36.903 Y44.326 Z-6.000 I-0.000 J2.000 K0.000 F420.000
G1 X36.903 Y50.326 Z-6.000 F420.000
G2 X38.903 Y52.326 Z-6.000 I2.000 J0.000 K0.000 F420.000
G1 X52.884 Y52.326 Z-6.000 F420.000
G2 X54.763 Y51.010 Z-6.000 I0.000 J-2.000 K0.000 F420.000
G1 X58.704 Y40.181 Z-6.000 F420.000
G2 X57.500 Y12.375 Z-6.000 I-2.023 J-13.841 K0.000 F420.000
G1 X52.874 Y-0.334 Z-6.000 F420.000
G2 X50.995 Y-1.650 Z-6.000 I-1.879 J0.684 K0.000 F420.000
G1 X36.875 Y-1.650 Z-6.000 F420.000
G2 X34.875 Y0.350 Z-6.000 I0.000 J2.000 K0.000 F420.000
G1 X34.875 Y6.354 Z-6.000 F420.000
G2 X36.875 Y8.354 Z-6.000 I2.000 J0.000 K0.000 F420.000
G1 X40.875 Y8.354 Z-6.000 F420.000
G1 X40.875 Y10.354 Z-6.000 F420.000
G1 X24.875 Y10.354 Z-6.000 F420.000
G1 X24.875 Y8.354 Z-6.000 F420.000
G1 X28.875 Y8.354 Z-6.000 F420.000
G2 X30.875 Y6.354 Z-6.000 I-0.000 J-2.000 K0.000 F420.000
G1 X30.875 Y0.354 Z-6.000 F420.000
G2 X28.875 Y-1.646 Z-6.000 I-2.000 J-0.000 K0.000 F420.000
G1 X14.995 Y-1.646 Z-6.000 F420.000
G2 X13.025 Y0.007 Z-6.000 I-0.000 J2.000 K0.000 F420.000
G1 X12.634 Y2.228 Z-6.000 F420.000
G1 X12.634 Y2.228 Z-9.000 F420.000
G1 X10.828 Y12.469 Z-9.000 F420.000
G2 X11.096 Y40.272 Z-9.000 I1.688 J13.886 K0.000 F420.000
G1 X15.004 Y51.010 Z-9.000 F420.000
G2 X16.884 Y52.326 Z-9.000 I1.879 J-0.684 K0.000 F420.000
G1 X30.763 Y52.326 Z-9.000 F420.000
G2 X32.763 Y50.326 Z-9.000 I0.000 J-2.000 K0.000 F420.000
G1 X32.763 Y44.326 Z-9.000 F420.000
G2 X30.763 Y42.326 Z-9.000 I-2.000 J0.000 K0.000 F420.000
G1 X26.903 Y42.326 Z-9.000 F420.000
G1 X26.903 Y40.326 Z-9.000 F420.000
G1 X42.903 Y40.326 Z-9.000 F420.000
G1 X42.903 Y42.326 Z-9.000 F420.000
G1 X38.903 Y42.326 Z-9.000 F420.000
G2 X36.903 Y44.326 Z-9.000 I-0.000 J2.000 K0.000 F420.000
G1 X36.903 Y50.326 Z-9.000 F420.000
G2 X38.903 Y52.326 Z-9.000 I2.000 J0.000 K0.000 F420.000
G1 X52.884 Y52.326 Z-9.000 F420.000
G2 X54.763 Y51.010 Z-9.000 I0.000 J-2.000 K0.000 F420.000
G1 X58.704 Y40.181 Z-9.000 F420.000
G2 X57.500 Y12.375 Z-9.000 I-2.023 J-13.841 K0.000 F420.000
G1 X52.874 Y-0.334 Z-9.000 F420.000
G2 X50.995 Y-1.650 Z-9.000 I-1.879 J0.684 K0.000 F420.000
G1 X36.875 Y-1.650 Z-9.000 F420.000
G2 X34.875 Y0.350 Z-9.000 I0.000 J2.000 K0.000 F420.000
G1 X34.875 Y6.354 Z-9.000 F420.000
G2 X36.875 Y8.354 Z-9.000 I2.000 J0.000 K0.000 F420.000
G1 X40.875 Y8.354 Z-9.000 F420.000
G1 X40.875 Y10.354 Z-9.000 F420.000
G1 X24.875 Y10.354 Z-9.000 F420.000
G1 X24.875 Y8.354 Z-9.000 F420.000
G1 X28.875 Y8.354 Z-9.000 F420.000
G2 X30.875 Y6.354 Z-9.000 I-0.000 J-2.000 K0.000 F420.000
G1 X30.875 Y0.354 Z-9.000 F420.000
G2 X28.875 Y-1.646 Z-9.000 I-2.000 J-0.000 K0.000 F420.000
G1 X14.995 Y-1.646 Z-9.000 F420.000
G2 X13.025 Y0.007 Z-9.000 I-0.000 J2.000 K0.000 F420.000
G1 X12.634 Y2.228 Z-9.000 F420.000
G1 X12.634 Y2.228 Z-12.000 F420.000
G1 X10.828 Y12.469 Z-12.000 F420.000
G2 X11.096 Y40.272 Z-12.000 I1.688 J13.886 K0.000 F420.000
G1 X15.004 Y51.010 Z-12.000 F420.000
G2 X16.884 Y52.326 Z-12.000 I1.879 J-0.684 K0.000 F420.000
G1 X30.763 Y52.326 Z-12.000 F420.000
G2 X32.763 Y50.326 Z-12.000 I0.000 J-2.000 K0.000 F420.000
G1 X32.763 Y44.326 Z-12.000 F420.000
G2 X30.763 Y42.326 Z-12.000 I-2.000 J0.000 K0.000 F420.000
G1 X26.903 Y42.326 Z-12.000 F420.000
G1 X26.903 Y40.326 Z-12.000 F420.000
G1 X42.903 Y40.326 Z-12.000 F420.000
G1 X42.903 Y42.326 Z-12.000 F420.000
G1 X38.903 Y42.326 Z-12.000 F420.000
G2 X36.903 Y44.326 Z-12.000 I-0.000 J2.000 K0.000 F420.000
G1 X36.903 Y50.326 Z-12.000 F420.000
G2 X38.903 Y52.326 Z-12.000 I2.000 J0.000 K0.000 F420.000
G1 X52.884 Y52.326 Z-12.000 F420.000
G2 X54.763 Y51.010 Z-12.000 I0.000 J-2.000 K0.000 F420.000
G1 X58.704 Y40.181 Z-12.000 F420.000
G2 X57.500 Y12.375 Z-12.000 I-2.023 J-13.841 K0.000 F420.000
G1 X52.874 Y-0.334 Z-12.000 F420.000
G2 X50.995 Y-1.650 Z-12.000 I-1.879 J0.684 K0.000 F420.000
G1 X36.875 Y-1.650 Z-12.000 F420.000
G2 X34.875 Y0.350 Z-12.000 I0.000 J2.000 K0.000 F420.000
G1 X34.875 Y6.354 Z-12.000 F420.000
G2 X36.875 Y8.354 Z-12.000 I2.000 J0.000 K0.000 F420.000
G1 X40.875 Y8.354 Z-12.000 F420.000
G1 X40.875 Y10.354 Z-12.000 F420.000
G1 X24.875 Y10.354 Z-12.000 F420.000
G1 X24.875 Y8.354 Z-12.000 F420.000
G1 X28.875 Y8.354 Z-12.000 F420.000
G2 X30.875 Y6.354 Z-12.000 I-0.000 J-2.000 K0.000 F420.000
G1 X30.875 Y0.354 Z-12.000 F420.000
G2 X28.875 Y-1.646 Z-12.000 I-2.000 J-0.000 K0.000 F420.000
G1 X14.995 Y-1.646 Z-12.000 F420.000
G2 X13.025 Y0.007 Z-12.000 I-0.000 J2.000 K0.000 F420.000
G1 X12.634 Y2.228 Z-12.000 F420.000
G0 Z13.000
G0 Z13.000
(Finish operation: Profile)
(Begin operation: Profile001)
(Path: Profile001)
(Profile001)
(Uncompensated Tool Path)
G0 Z13.000
G0 X0.000 Y0.000
G0 X48.512 Y22.548
G0 X48.512 Y22.548 Z0.000
G1 X48.512 Y22.548 Z-3.000 F420.000
G2 X54.978 Y35.177 Z-3.000 I8.159 J3.792 K0.000 F420.000
G2 X58.404 Y17.511 Z-3.000 I1.693 J-8.837 K0.000 F420.000
G2 X48.512 Y22.548 Z-3.000 I-1.732 J8.829 K0.000 F420.000
G1 X48.512 Y22.548 Z-6.000 F420.000
G2 X54.978 Y35.177 Z-6.000 I8.159 J3.792 K0.000 F420.000
G2 X58.404 Y17.511 Z-6.000 I1.693 J-8.837 K0.000 F420.000
G2 X48.512 Y22.548 Z-6.000 I-1.732 J8.829 K0.000 F420.000
G0 Z13.000
G0 Z13.000
(Finish operation: Profile001)
(Begin operation: Profile002)
(Path: Profile002)
(Profile002)
(Uncompensated Tool Path)
G0 Z13.000
G0 X0.000 Y0.000
G0 X55.772 Y25.922
G0 X55.772 Y25.922 Z0.000
G1 X55.772 Y25.922 Z-3.000 F420.000
G2 X56.451 Y27.307 Z-3.000 I0.900 J0.418 K0.000 F420.000
G2 X57.639 Y26.561 Z-3.000 I0.221 J-0.967 K0.000 F420.000
G2 X56.892 Y25.373 Z-3.000 I-0.967 J-0.221 K0.000 F420.000
G2 X55.772 Y25.922 Z-3.000 I-0.221 J0.967 K0.000 F420.000
G1 X55.772 Y25.922 Z-6.000 F420.000
G2 X56.451 Y27.307 Z-6.000 I0.900 J0.418 K0.000 F420.000
G2 X57.639 Y26.561 Z-6.000 I0.221 J-0.967 K0.000 F420.000
G2 X56.892 Y25.373 Z-6.000 I-0.967 J-0.221 K0.000 F420.000
G2 X55.772 Y25.922 Z-6.000 I-0.221 J0.967 K0.000 F420.000
G1 X55.772 Y25.922 Z-9.000 F420.000
G2 X56.451 Y27.307 Z-9.000 I0.900 J0.418 K0.000 F420.000
G2 X57.639 Y26.561 Z-9.000 I0.221 J-0.967 K0.000 F420.000
G2 X56.892 Y25.373 Z-9.000 I-0.967 J-0.221 K0.000 F420.000
G2 X55.772 Y25.922 Z-9.000 I-0.221 J0.967 K0.000 F420.000
G1 X55.772 Y25.922 Z-12.000 F420.000
G2 X56.451 Y27.307 Z-12.000 I0.900 J0.418 K0.000 F420.000
G2 X57.639 Y26.561 Z-12.000 I0.221 J-0.967 K0.000 F420.000
G2 X56.892 Y25.373 Z-12.000 I-0.967 J-0.221 K0.000 F420.000
G2 X55.772 Y25.922 Z-12.000 I-0.221 J0.967 K0.000 F420.000
G0 Z13.000
G0 Z13.000
(Finish operation: Profile002)
(Begin postamble)
M5
G17 G90
M2
