(Exported by FreeCAD)
(Post Processor: grbl_post)
(Output Time:2025-11-23 21:18:05.795382)
(Begin preamble)
G17 G90
G21
(Begin operation: Fixture)
(Path: Fixture)
G54
(Finish operation: Fixture)
(Begin operation: TC: Default Tool)
(Path: TC: Default Tool)
(TC: Default Tool)
(Begin toolchange)
( M6 T1 )
(Finish operation: TC: Default Tool)
(Begin operation: Engrave)
(Path: Engrave)
(Engrave)
G0 Z12.000
G0 Z12.000
G0 Z12.000
G0 X69.013 Y-69.318
G0 Z0.000
G1 X69.013 Y-69.318 Z0.000 F420.000
G1 X67.849 Y-73.017 Z0.000 F420.000
G1 X66.884 Y-75.879 Z0.000 F420.000
G1 X66.041 Y-78.157 Z0.000 F420.000
G1 X65.250 Y-80.082 Z0.000 F420.000
G1 X64.482 Y-81.754 Z0.000 F420.000
G1 X63.719 Y-83.235 Z0.000 F420.000
G1 X62.948 Y-84.571 Z0.000 F420.000
G1 X62.158 Y-85.792 Z0.000 F420.000
G1 X61.340 Y-86.920 Z0.000 F420.000
G1 X60.487 Y-87.971 Z0.000 F420.000
G1 X59.592 Y-88.957 Z0.000 F420.000
G1 X58.648 Y-89.886 Z0.000 F420.000
G1 X57.648 Y-90.767 Z0.000 F420.000
G1 X56.585 Y-91.606 Z0.000 F420.000
G1 X55.450 Y-92.407 Z0.000 F420.000
G1 X54.234 Y-93.175 Z0.000 F420.000
G1 X52.928 Y-93.912 Z0.000 F420.000
G1 X51.927 Y-94.425 Z0.000 F420.000
G1 X50.878 Y-94.921 Z0.000 F420.000
G1 X59.717 Y-50.725 Z0.000 F420.000
G1 X58.297 Y-50.762 Z0.000 F420.000
G1 X57.141 Y-50.862 Z0.000 F420.000
G1 X56.189 Y-51.016 Z0.000 F420.000
G1 X55.395 Y-51.216 Z0.000 F420.000
G1 X54.726 Y-51.457 Z0.000 F420.000
G1 X54.155 Y-51.738 Z0.000 F420.000
G1 X53.663 Y-52.060 Z0.000 F420.000
G1 X53.232 Y-52.427 Z0.000 F420.000
G1 X52.850 Y-52.847 Z0.000 F420.000
G1 X52.506 Y-53.332 Z0.000 F420.000
G1 X52.191 Y-53.900 Z0.000 F420.000
G1 X51.896 Y-54.580 Z0.000 F420.000
G1 X51.610 Y-55.416 Z0.000 F420.000
G1 X51.316 Y-56.496 Z0.000 F420.000
G1 X51.172 Y-57.099 Z0.000 F420.000
G1 X51.030 Y-57.735 Z0.000 F420.000
G1 X50.720 Y-56.805 Z0.000 F420.000
G1 X50.355 Y-55.943 Z0.000 F420.000
G1 X49.940 Y-55.151 Z0.000 F420.000
G1 X49.479 Y-54.431 Z0.000 F420.000
G1 X48.976 Y-53.781 Z0.000 F420.000
G1 X48.432 Y-53.199 Z0.000 F420.000
G1 X47.850 Y-52.685 Z0.000 F420.000
G1 X47.231 Y-52.236 Z0.000 F420.000
G1 X46.573 Y-51.851 Z0.000 F420.000
G1 X45.875 Y-51.529 Z0.000 F420.000
G1 X45.136 Y-51.269 Z0.000 F420.000
G1 X44.353 Y-51.072 Z0.000 F420.000
G1 X43.524 Y-50.941 Z0.000 F420.000
G1 X42.648 Y-50.877 Z0.000 F420.000
G1 X41.636 Y-50.913 Z0.000 F420.000
G1 X40.638 Y-51.021 Z0.000 F420.000
G1 X39.654 Y-51.199 Z0.000 F420.000
G1 X38.682 Y-51.447 Z0.000 F420.000
G1 X37.723 Y-51.767 Z0.000 F420.000
G1 X36.774 Y-52.160 Z0.000 F420.000
G1 X35.836 Y-52.625 Z0.000 F420.000
G1 X34.910 Y-53.166 Z0.000 F420.000
G1 X33.995 Y-53.784 Z0.000 F420.000
G1 X33.093 Y-54.479 Z0.000 F420.000
G1 X32.206 Y-55.255 Z0.000 F420.000
G1 X31.335 Y-56.113 Z0.000 F420.000
G1 X30.483 Y-57.052 Z0.000 F420.000
G1 X29.655 Y-58.074 Z0.000 F420.000
G1 X28.853 Y-59.178 Z0.000 F420.000
G1 X28.082 Y-60.361 Z0.000 F420.000
G1 X27.347 Y-61.621 Z0.000 F420.000
G1 X26.655 Y-62.953 Z0.000 F420.000
G1 X26.009 Y-64.351 Z0.000 F420.000
G1 X25.417 Y-65.805 Z0.000 F420.000
G1 X24.884 Y-67.307 Z0.000 F420.000
G1 X24.415 Y-68.843 Z0.000 F420.000
G1 X24.015 Y-70.401 Z0.000 F420.000
G1 X23.688 Y-71.966 Z0.000 F420.000
G1 X23.436 Y-73.523 Z0.000 F420.000
G1 X23.262 Y-75.057 Z0.000 F420.000
G1 X23.164 Y-76.554 Z0.000 F420.000
G1 X23.141 Y-77.700 Z0.000 F420.000
G1 X23.177 Y-79.018 Z0.000 F420.000
G1 X23.283 Y-80.278 Z0.000 F420.000
G1 X23.457 Y-81.477 Z0.000 F420.000
G1 X23.694 Y-82.614 Z0.000 F420.000
G1 X23.991 Y-83.687 Z0.000 F420.000
G1 X24.345 Y-84.695 Z0.000 F420.000
G1 X24.752 Y-85.639 Z0.000 F420.000
G1 X25.211 Y-86.518 Z0.000 F420.000
G1 X25.717 Y-87.332 Z0.000 F420.000
G1 X26.268 Y-88.082 Z0.000 F420.000
G1 X26.863 Y-88.769 Z0.000 F420.000
G1 X27.499 Y-89.392 Z0.000 F420.000
G1 X28.175 Y-89.953 Z0.000 F420.000
G1 X28.891 Y-90.453 Z0.000 F420.000
G1 X29.646 Y-90.890 Z0.000 F420.000
G1 X30.439 Y-91.265 Z0.000 F420.000
G1 X31.272 Y-91.578 Z0.000 F420.000
G1 X32.144 Y-91.827 Z0.000 F420.000
G1 X33.055 Y-92.011 Z0.000 F420.000
G1 X34.007 Y-92.129 Z0.000 F420.000
G1 X34.588 Y-92.165 Z0.000 F420.000
G1 X35.181 Y-92.178 Z0.000 F420.000
G1 X36.048 Y-92.142 Z0.000 F420.000
G1 X36.882 Y-92.036 Z0.000 F420.000
G1 X37.687 Y-91.862 Z0.000 F420.000
G1 X38.467 Y-91.620 Z0.000 F420.000
G1 X39.225 Y-91.310 Z0.000 F420.000
G1 X39.965 Y-90.930 Z0.000 F420.000
G1 X40.691 Y-90.476 Z0.000 F420.000
G1 X41.403 Y-89.947 Z0.000 F420.000
G1 X42.106 Y-89.335 Z0.000 F420.000
G1 X42.801 Y-88.635 Z0.000 F420.000
G1 X43.490 Y-87.839 Z0.000 F420.000
G1 X44.174 Y-86.939 Z0.000 F420.000
G1 X44.857 Y-85.924 Z0.000 F420.000
G1 X45.541 Y-84.780 Z0.000 F420.000
G1 X45.931 Y-84.068 Z0.000 F420.000
G1 X46.306 Y-83.339 Z0.000 F420.000
G1 X43.563 Y-97.512 Z0.000 F420.000
G1 X38.742 Y-99.015 Z0.000 F420.000
G1 X34.848 Y-100.235 Z0.000 F420.000
G1 X31.064 Y-101.477 Z0.000 F420.000
G1 X27.966 Y-102.568 Z0.000 F420.000
G1 X25.259 Y-103.601 Z0.000 F420.000
G1 X22.822 Y-104.613 Z0.000 F420.000
G1 X20.593 Y-105.619 Z0.000 F420.000
G1 X18.521 Y-106.637 Z0.000 F420.000
G1 X17.782 Y-107.022 Z0.000 F420.000
G1 X17.045 Y-107.418 Z0.000 F420.000
G1 X15.446 Y-108.349 Z0.000 F420.000
G1 X13.933 Y-109.315 Z0.000 F420.000
G1 X12.511 Y-110.312 Z0.000 F420.000
G1 X11.182 Y-111.333 Z0.000 F420.000
G1 X9.947 Y-112.374 Z0.000 F420.000
G1 X8.807 Y-113.433 Z0.000 F420.000
G1 X7.760 Y-114.506 Z0.000 F420.000
G1 X6.804 Y-115.590 Z0.000 F420.000
G1 X5.937 Y-116.685 Z0.000 F420.000
G1 X5.157 Y-117.789 Z0.000 F420.000
G1 X4.461 Y-118.902 Z0.000 F420.000
G1 X3.846 Y-120.023 Z0.000 F420.000
G1 X3.310 Y-121.152 Z0.000 F420.000
G1 X2.852 Y-122.291 Z0.000 F420.000
G1 X2.469 Y-123.438 Z0.000 F420.000
G1 X2.160 Y-124.597 Z0.000 F420.000
G1 X1.925 Y-125.767 Z0.000 F420.000
G1 X1.761 Y-126.950 Z0.000 F420.000
G1 X1.671 Y-128.148 Z0.000 F420.000
G1 X1.653 Y-129.363 Z0.000 F420.000
G1 X1.708 Y-130.497 Z0.000 F420.000
G1 X1.832 Y-131.586 Z0.000 F420.000
G1 X2.024 Y-132.632 Z0.000 F420.000
G1 X2.281 Y-133.635 Z0.000 F420.000
G1 X2.601 Y-134.595 Z0.000 F420.000
G1 X2.983 Y-135.513 Z0.000 F420.000
G1 X3.424 Y-136.389 Z0.000 F420.000
G1 X3.925 Y-137.221 Z0.000 F420.000
G1 X4.485 Y-138.011 Z0.000 F420.000
G1 X5.101 Y-138.758 Z0.000 F420.000
G1 X5.775 Y-139.460 Z0.000 F420.000
G1 X6.505 Y-140.115 Z0.000 F420.000
G1 X7.291 Y-140.724 Z0.000 F420.000
G1 X8.131 Y-141.283 Z0.000 F420.000
G1 X9.024 Y-141.790 Z0.000 F420.000
G1 X9.970 Y-142.243 Z0.000 F420.000
G1 X10.966 Y-142.640 Z0.000 F420.000
G1 X12.010 Y-142.977 Z0.000 F420.000
G1 X13.100 Y-143.253 Z0.000 F420.000
G1 X14.232 Y-143.464 Z0.000 F420.000
G1 X15.402 Y-143.607 Z0.000 F420.000
G1 X16.893 Y-143.689 Z0.000 F420.000
G1 X18.261 Y-143.662 Z0.000 F420.000
G1 X19.591 Y-143.564 Z0.000 F420.000
G1 X20.886 Y-143.397 Z0.000 F420.000
G1 X22.148 Y-143.162 Z0.000 F420.000
G1 X23.379 Y-142.859 Z0.000 F420.000
G1 X24.583 Y-142.489 Z0.000 F420.000
G1 X25.760 Y-142.052 Z0.000 F420.000
G1 X26.914 Y-141.547 Z0.000 F420.000
G1 X28.045 Y-140.973 Z0.000 F420.000
G1 X29.155 Y-140.329 Z0.000 F420.000
G1 X30.246 Y-139.612 Z0.000 F420.000
G1 X31.320 Y-138.822 Z0.000 F420.000
G1 X32.376 Y-137.954 Z0.000 F420.000
G1 X33.417 Y-137.006 Z0.000 F420.000
G1 X34.442 Y-135.974 Z0.000 F420.000
G1 X35.452 Y-134.856 Z0.000 F420.000
G1 X36.448 Y-133.646 Z0.000 F420.000
G1 X37.430 Y-132.340 Z0.000 F420.000
G1 X38.397 Y-130.934 Z0.000 F420.000
G1 X39.349 Y-129.422 Z0.000 F420.000
G1 X40.287 Y-127.799 Z0.000 F420.000
G1 X41.209 Y-126.059 Z0.000 F420.000
G1 X42.117 Y-124.196 Z0.000 F420.000
G1 X43.008 Y-122.201 Z0.000 F420.000
G1 X43.884 Y-120.068 Z0.000 F420.000
G1 X44.744 Y-117.787 Z0.000 F420.000
G1 X45.590 Y-115.345 Z0.000 F420.000
G1 X46.422 Y-112.728 Z0.000 F420.000
G1 X47.244 Y-109.914 Z0.000 F420.000
G1 X48.062 Y-106.868 Z0.000 F420.000
G1 X48.890 Y-103.528 Z0.000 F420.000
G1 X49.760 Y-99.754 Z0.000 F420.000
G1 X50.098 Y-98.227 Z0.000 F420.000
G1 X50.421 Y-96.750 Z0.000 F420.000
G1 X52.038 Y-96.031 Z0.000 F420.000
G1 X53.535 Y-95.287 Z0.000 F420.000
G1 X54.923 Y-94.517 Z0.000 F420.000
G1 X56.213 Y-93.720 Z0.000 F420.000
G1 X57.414 Y-92.894 Z0.000 F420.000
G1 X58.534 Y-92.037 Z0.000 F420.000
G1 X59.582 Y-91.145 Z0.000 F420.000
G1 X60.566 Y-90.213 Z0.000 F420.000
G1 X61.491 Y-89.238 Z0.000 F420.000
G1 X62.366 Y-88.213 Z0.000 F420.000
G1 X63.195 Y-87.130 Z0.000 F420.000
G1 X63.985 Y-85.980 Z0.000 F420.000
G1 X64.743 Y-84.751 Z0.000 F420.000
G1 X65.475 Y-83.428 Z0.000 F420.000
G1 X66.189 Y-81.990 Z0.000 F420.000
G1 X66.896 Y-80.407 Z0.000 F420.000
G1 X67.609 Y-78.637 Z0.000 F420.000
G1 X68.350 Y-76.608 Z0.000 F420.000
G1 X69.163 Y-74.187 Z0.000 F420.000
G1 X70.537 Y-69.775 Z0.000 F420.000
G1 X69.013 Y-69.318 Z0.000 F420.000
G0 Z12.000
G0 Z12.000
G0 X113.514 Y-69.318
G0 Z0.000
G1 X113.514 Y-69.318 Z0.000 F420.000
G1 X112.843 Y-71.704 Z0.000 F420.000
G1 X112.100 Y-74.234 Z0.000 F420.000
G1 X111.376 Y-76.463 Z0.000 F420.000
G1 X110.678 Y-78.376 Z0.000 F420.000
G1 X109.995 Y-80.030 Z0.000 F420.000
G1 X109.326 Y-81.457 Z0.000 F420.000
G1 X108.668 Y-82.682 Z0.000 F420.000
G1 X108.025 Y-83.722 Z0.000 F420.000
G1 X107.397 Y-84.598 Z0.000 F420.000
G1 X106.783 Y-85.327 Z0.000 F420.000
G1 X106.182 Y-85.926 Z0.000 F420.000
G1 X105.594 Y-86.410 Z0.000 F420.000
G1 X105.016 Y-86.790 Z0.000 F420.000
G1 X104.445 Y-87.077 Z0.000 F420.000
G1 X103.880 Y-87.280 Z0.000 F420.000
G1 X103.314 Y-87.404 Z0.000 F420.000
G1 X102.541 Y-87.453 Z0.000 F420.000
G1 X102.038 Y-87.418 Z0.000 F420.000
G1 X101.556 Y-87.312 Z0.000 F420.000
G1 X101.094 Y-87.138 Z0.000 F420.000
G1 X100.651 Y-86.893 Z0.000 F420.000
G1 X100.225 Y-86.577 Z0.000 F420.000
G1 X99.819 Y-86.184 Z0.000 F420.000
G1 X99.435 Y-85.712 Z0.000 F420.000
G1 X99.078 Y-85.158 Z0.000 F420.000
G1 X98.754 Y-84.522 Z0.000 F420.000
G1 X98.579 Y-84.101 Z0.000 F420.000
G1 X99.333 Y-83.073 Z0.000 F420.000
G1 X100.045 Y-81.980 Z0.000 F420.000
G1 X100.712 Y-80.824 Z0.000 F420.000
G1 X101.330 Y-79.607 Z0.000 F420.000
G1 X101.897 Y-78.333 Z0.000 F420.000
G1 X102.409 Y-77.004 Z0.000 F420.000
G1 X102.862 Y-75.628 Z0.000 F420.000
G1 X103.253 Y-74.208 Z0.000 F420.000
G1 X103.579 Y-72.754 Z0.000 F420.000
G1 X103.836 Y-71.273 Z0.000 F420.000
G1 X104.065 Y-69.318 Z0.000 F420.000
G1 X104.116 Y-68.054 Z0.000 F420.000
G1 X104.094 Y-66.784 Z0.000 F420.000
G1 X104.000 Y-65.517 Z0.000 F420.000
G1 X103.834 Y-64.266 Z0.000 F420.000
G1 X103.597 Y-63.041 Z0.000 F420.000
G1 X103.294 Y-61.851 Z0.000 F420.000
G1 X102.926 Y-60.705 Z0.000 F420.000
G1 X102.498 Y-59.611 Z0.000 F420.000
G1 X102.014 Y-58.573 Z0.000 F420.000
G1 X101.477 Y-57.597 Z0.000 F420.000
G1 X100.893 Y-56.685 Z0.000 F420.000
G1 X100.263 Y-55.838 Z0.000 F420.000
G1 X99.592 Y-55.058 Z0.000 F420.000
G1 X98.883 Y-54.346 Z0.000 F420.000
G1 X98.136 Y-53.701 Z0.000 F420.000
G1 X97.354 Y-53.122 Z0.000 F420.000
G1 X96.538 Y-52.610 Z0.000 F420.000
G1 X95.689 Y-52.163 Z0.000 F420.000
G1 X94.805 Y-51.782 Z0.000 F420.000
G1 X93.888 Y-51.467 Z0.000 F420.000
G1 X92.936 Y-51.218 Z0.000 F420.000
G1 X91.948 Y-51.036 Z0.000 F420.000
G1 X90.922 Y-50.922 Z0.000 F420.000
G1 X90.337 Y-50.889 Z0.000 F420.000
G1 X89.740 Y-50.877 Z0.000 F420.000
G1 X88.475 Y-50.913 Z0.000 F420.000
G1 X87.242 Y-51.020 Z0.000 F420.000
G1 X86.041 Y-51.196 Z0.000 F420.000
G1 X84.870 Y-51.440 Z0.000 F420.000
G1 X83.729 Y-51.751 Z0.000 F420.000
G1 X82.618 Y-52.128 Z0.000 F420.000
G1 X81.535 Y-52.572 Z0.000 F420.000
G1 X80.482 Y-53.081 Z0.000 F420.000
G1 X79.457 Y-53.655 Z0.000 F420.000
G1 X78.463 Y-54.296 Z0.000 F420.000
G1 X77.500 Y-55.002 Z0.000 F420.000
G1 X76.568 Y-55.774 Z0.000 F420.000
G1 X75.671 Y-56.612 Z0.000 F420.000
G1 X74.809 Y-57.515 Z0.000 F420.000
G1 X73.985 Y-58.482 Z0.000 F420.000
G1 X73.202 Y-59.513 Z0.000 F420.000
G1 X72.463 Y-60.604 Z0.000 F420.000
G1 X71.772 Y-61.754 Z0.000 F420.000
G1 X71.132 Y-62.960 Z0.000 F420.000
G1 X70.546 Y-64.216 Z0.000 F420.000
G1 X70.020 Y-65.517 Z0.000 F420.000
G1 X69.555 Y-66.858 Z0.000 F420.000
G1 X69.156 Y-68.229 Z0.000 F420.000
G1 X68.826 Y-69.624 Z0.000 F420.000
G1 X68.567 Y-71.032 Z0.000 F420.000
G1 X68.380 Y-72.445 Z0.000 F420.000
G1 X68.301 Y-73.321 Z0.000 F420.000
G1 X68.251 Y-74.195 Z0.000 F420.000
G1 X68.219 Y-75.607 Z0.000 F420.000
G1 X68.261 Y-76.982 Z0.000 F420.000
G1 X68.374 Y-78.311 Z0.000 F420.000
G1 X68.556 Y-79.589 Z0.000 F420.000
G1 X68.803 Y-80.810 Z0.000 F420.000
G1 X69.113 Y-81.972 Z0.000 F420.000
G1 X69.481 Y-83.070 Z0.000 F420.000
G1 X69.905 Y-84.104 Z0.000 F420.000
G1 X70.381 Y-85.074 Z0.000 F420.000
G1 X70.906 Y-85.979 Z0.000 F420.000
G1 X71.479 Y-86.820 Z0.000 F420.000
G1 X72.098 Y-87.597 Z0.000 F420.000
G1 X72.760 Y-88.312 Z0.000 F420.000
G1 X73.466 Y-88.966 Z0.000 F420.000
G1 X74.215 Y-89.560 Z0.000 F420.000
G1 X75.006 Y-90.094 Z0.000 F420.000
G1 X75.842 Y-90.569 Z0.000 F420.000
G1 X76.723 Y-90.985 Z0.000 F420.000
G1 X77.650 Y-91.341 Z0.000 F420.000
G1 X78.626 Y-91.637 Z0.000 F420.000
G1 X79.652 Y-91.870 Z0.000 F420.000
G1 X80.731 Y-92.040 Z0.000 F420.000
G1 X81.864 Y-92.143 Z0.000 F420.000
G1 X82.443 Y-92.169 Z0.000 F420.000
G1 X83.034 Y-92.178 Z0.000 F420.000
G1 X84.233 Y-92.142 Z0.000 F420.000
G1 X85.402 Y-92.035 Z0.000 F420.000
G1 X86.542 Y-91.859 Z0.000 F420.000
G1 X87.656 Y-91.614 Z0.000 F420.000
G1 X88.747 Y-91.300 Z0.000 F420.000
G1 X89.816 Y-90.918 Z0.000 F420.000
G1 X90.865 Y-90.467 Z0.000 F420.000
G1 X91.896 Y-89.945 Z0.000 F420.000
G1 X92.910 Y-89.351 Z0.000 F420.000
G1 X93.908 Y-88.682 Z0.000 F420.000
G1 X94.891 Y-87.937 Z0.000 F420.000
G1 X95.446 Y-87.476 Z0.000 F420.000
G1 X95.988 Y-86.996 Z0.000 F420.000
G1 X96.641 Y-87.533 Z0.000 F420.000
G1 X97.317 Y-87.993 Z0.000 F420.000
G1 X98.018 Y-88.380 Z0.000 F420.000
G1 X98.746 Y-88.696 Z0.000 F420.000
G1 X99.505 Y-88.945 Z0.000 F420.000
G1 X100.297 Y-89.126 Z0.000 F420.000
G1 X101.125 Y-89.239 Z0.000 F420.000
G1 X102.084 Y-89.282 Z0.000 F420.000
G1 X102.812 Y-89.233 Z0.000 F420.000
G1 X103.517 Y-89.113 Z0.000 F420.000
G1 X104.202 Y-88.925 Z0.000 F420.000
G1 X104.871 Y-88.666 Z0.000 F420.000
G1 X105.527 Y-88.336 Z0.000 F420.000
G1 X106.173 Y-87.930 Z0.000 F420.000
G1 X106.812 Y-87.444 Z0.000 F420.000
G1 X107.444 Y-86.872 Z0.000 F420.000
G1 X108.073 Y-86.208 Z0.000 F420.000
G1 X108.697 Y-85.443 Z0.000 F420.000
G1 X109.320 Y-84.568 Z0.000 F420.000
G1 X109.940 Y-83.572 Z0.000 F420.000
G1 X110.559 Y-82.445 Z0.000 F420.000
G1 X111.178 Y-81.172 Z0.000 F420.000
G1 X111.799 Y-79.735 Z0.000 F420.000
G1 X112.425 Y-78.111 Z0.000 F420.000
G1 X113.068 Y-76.259 Z0.000 F420.000
G1 X113.752 Y-74.093 Z0.000 F420.000
G1 X114.579 Y-71.305 Z0.000 F420.000
G1 X115.038 Y-69.775 Z0.000 F420.000
G1 X113.514 Y-69.318 Z0.000 F420.000
G0 Z12.000
G0 Z12.000
G0 X158.015 Y-69.318
G0 Z0.000
G1 X158.015 Y-69.318 Z0.000 F420.000
G1 X157.343 Y-71.704 Z0.000 F420.000
G1 X156.601 Y-74.234 Z0.000 F420.000
G1 X155.877 Y-76.463 Z0.000 F420.000
G1 X155.179 Y-78.376 Z0.000 F420.000
G1 X154.496 Y-80.030 Z0.000 F420.000
G1 X153.826 Y-81.457 Z0.000 F420.000
G1 X153.169 Y-82.682 Z0.000 F420.000
G1 X152.526 Y-83.722 Z0.000 F420.000
G1 X151.898 Y-84.598 Z0.000 F420.000
G1 X151.284 Y-85.327 Z0.000 F420.000
G1 X150.683 Y-85.926 Z0.000 F420.000
G1 X150.095 Y-86.410 Z0.000 F420.000
G1 X149.517 Y-86.790 Z0.000 F420.000
G1 X148.946 Y-87.077 Z0.000 F420.000
G1 X148.380 Y-87.280 Z0.000 F420.000
G1 X147.815 Y-87.404 Z0.000 F420.000
G1 X147.042 Y-87.453 Z0.000 F420.000
G1 X146.539 Y-87.418 Z0.000 F420.000
G1 X146.057 Y-87.312 Z0.000 F420.000
G1 X145.595 Y-87.138 Z0.000 F420.000
G1 X145.152 Y-86.893 Z0.000 F420.000
G1 X144.726 Y-86.577 Z0.000 F420.000
G1 X144.320 Y-86.184 Z0.000 F420.000
G1 X143.936 Y-85.712 Z0.000 F420.000
G1 X143.579 Y-85.158 Z0.000 F420.000
G1 X143.255 Y-84.522 Z0.000 F420.000
G1 X143.080 Y-84.101 Z0.000 F420.000
G1 X143.834 Y-83.073 Z0.000 F420.000
G1 X144.545 Y-81.980 Z0.000 F420.000
G1 X145.212 Y-80.824 Z0.000 F420.000
G1 X145.831 Y-79.607 Z0.000 F420.000
G1 X146.398 Y-78.333 Z0.000 F420.000
G1 X146.910 Y-77.004 Z0.000 F420.000
G1 X147.363 Y-75.628 Z0.000 F420.000
G1 X147.754 Y-74.208 Z0.000 F420.000
G1 X148.079 Y-72.754 Z0.000 F420.000
G1 X148.337 Y-71.273 Z0.000 F420.000
G1 X148.566 Y-69.318 Z0.000 F420.000
G1 X148.617 Y-68.054 Z0.000 F420.000
G1 X148.595 Y-66.784 Z0.000 F420.000
G1 X148.501 Y-65.517 Z0.000 F420.000
G1 X148.334 Y-64.266 Z0.000 F420.000
G1 X148.098 Y-63.041 Z0.000 F420.000
G1 X147.795 Y-61.851 Z0.000 F420.000
G1 X147.427 Y-60.705 Z0.000 F420.000
G1 X146.999 Y-59.611 Z0.000 F420.000
G1 X146.515 Y-58.573 Z0.000 F420.000
G1 X145.978 Y-57.597 Z0.000 F420.000
G1 X145.393 Y-56.685 Z0.000 F420.000
G1 X144.764 Y-55.838 Z0.000 F420.000
G1 X144.093 Y-55.058 Z0.000 F420.000
G1 X143.383 Y-54.346 Z0.000 F420.000
G1 X142.637 Y-53.701 Z0.000 F420.000
G1 X141.855 Y-53.122 Z0.000 F420.000
G1 X141.039 Y-52.610 Z0.000 F420.000
G1 X140.189 Y-52.163 Z0.000 F420.000
G1 X139.306 Y-51.782 Z0.000 F420.000
G1 X138.389 Y-51.467 Z0.000 F420.000
G1 X137.437 Y-51.218 Z0.000 F420.000
G1 X136.448 Y-51.036 Z0.000 F420.000
G1 X135.423 Y-50.922 Z0.000 F420.000
G1 X134.838 Y-50.889 Z0.000 F420.000
G1 X134.240 Y-50.877 Z0.000 F420.000
G1 X132.976 Y-50.913 Z0.000 F420.000
G1 X131.743 Y-51.020 Z0.000 F420.000
G1 X130.542 Y-51.196 Z0.000 F420.000
G1 X129.371 Y-51.440 Z0.000 F420.000
G1 X128.230 Y-51.751 Z0.000 F420.000
G1 X127.118 Y-52.128 Z0.000 F420.000
G1 X126.036 Y-52.572 Z0.000 F420.000
G1 X124.982 Y-53.081 Z0.000 F420.000
G1 X123.958 Y-53.655 Z0.000 F420.000
G1 X122.964 Y-54.296 Z0.000 F420.000
G1 X122.000 Y-55.002 Z0.000 F420.000
G1 X121.069 Y-55.774 Z0.000 F420.000
G1 X120.171 Y-56.612 Z0.000 F420.000
G1 X119.309 Y-57.515 Z0.000 F420.000
G1 X118.486 Y-58.482 Z0.000 F420.000
G1 X117.703 Y-59.513 Z0.000 F420.000
G1 X116.964 Y-60.604 Z0.000 F420.000
G1 X116.273 Y-61.754 Z0.000 F420.000
G1 X115.633 Y-62.960 Z0.000 F420.000
G1 X115.047 Y-64.216 Z0.000 F420.000
G1 X114.520 Y-65.517 Z0.000 F420.000
G1 X114.056 Y-66.858 Z0.000 F420.000
G1 X113.657 Y-68.229 Z0.000 F420.000
G1 X113.327 Y-69.624 Z0.000 F420.000
G1 X113.067 Y-71.032 Z0.000 F420.000
G1 X112.881 Y-72.445 Z0.000 F420.000
G1 X112.802 Y-73.321 Z0.000 F420.000
G1 X112.752 Y-74.195 Z0.000 F420.000
G1 X112.720 Y-75.607 Z0.000 F420.000
G1 X112.762 Y-76.982 Z0.000 F420.000
G1 X112.875 Y-78.311 Z0.000 F420.000
G1 X113.057 Y-79.589 Z0.000 F420.000
G1 X113.304 Y-80.810 Z0.000 F420.000
G1 X113.614 Y-81.972 Z0.000 F420.000
G1 X113.982 Y-83.070 Z0.000 F420.000
G1 X114.406 Y-84.104 Z0.000 F420.000
G1 X114.882 Y-85.074 Z0.000 F420.000
G1 X115.407 Y-85.979 Z0.000 F420.000
G1 X115.980 Y-86.820 Z0.000 F420.000
G1 X116.599 Y-87.597 Z0.000 F420.000
G1 X117.261 Y-88.312 Z0.000 F420.000
G1 X117.967 Y-88.966 Z0.000 F420.000
G1 X118.715 Y-89.560 Z0.000 F420.000
G1 X119.507 Y-90.094 Z0.000 F420.000
G1 X120.343 Y-90.569 Z0.000 F420.000
G1 X121.224 Y-90.985 Z0.000 F420.000
G1 X122.151 Y-91.341 Z0.000 F420.000
G1 X123.127 Y-91.637 Z0.000 F420.000
G1 X124.153 Y-91.870 Z0.000 F420.000
G1 X125.231 Y-92.040 Z0.000 F420.000
G1 X126.365 Y-92.143 Z0.000 F420.000
G1 X126.944 Y-92.169 Z0.000 F420.000
G1 X127.535 Y-92.178 Z0.000 F420.000
G1 X128.734 Y-92.142 Z0.000 F420.000
G1 X129.903 Y-92.035 Z0.000 F420.000
G1 X131.043 Y-91.859 Z0.000 F420.000
G1 X132.157 Y-91.614 Z0.000 F420.000
G1 X133.248 Y-91.300 Z0.000 F420.000
G1 X134.317 Y-90.918 Z0.000 F420.000
G1 X135.366 Y-90.467 Z0.000 F420.000
G1 X136.396 Y-89.945 Z0.000 F420.000
G1 X137.410 Y-89.351 Z0.000 F420.000
G1 X138.409 Y-88.682 Z0.000 F420.000
G1 X139.392 Y-87.937 Z0.000 F420.000
G1 X139.947 Y-87.476 Z0.000 F420.000
G1 X140.489 Y-86.996 Z0.000 F420.000
G1 X141.141 Y-87.533 Z0.000 F420.000
G1 X141.817 Y-87.993 Z0.000 F420.000
G1 X142.519 Y-88.380 Z0.000 F420.000
G1 X143.247 Y-88.696 Z0.000 F420.000
G1 X144.006 Y-88.945 Z0.000 F420.000
G1 X144.797 Y-89.126 Z0.000 F420.000
G1 X145.626 Y-89.239 Z0.000 F420.000
G1 X146.585 Y-89.282 Z0.000 F420.000
G1 X147.313 Y-89.233 Z0.000 F420.000
G1 X148.018 Y-89.113 Z0.000 F420.000
G1 X148.703 Y-88.925 Z0.000 F420.000
G1 X149.372 Y-88.666 Z0.000 F420.000
G1 X150.028 Y-88.336 Z0.000 F420.000
G1 X150.674 Y-87.930 Z0.000 F420.000
G1 X151.312 Y-87.444 Z0.000 F420.000
G1 X151.945 Y-86.872 Z0.000 F420.000
G1 X152.573 Y-86.208 Z0.000 F420.000
G1 X153.198 Y-85.443 Z0.000 F420.000
G1 X153.821 Y-84.568 Z0.000 F420.000
G1 X154.441 Y-83.572 Z0.000 F420.000
G1 X155.060 Y-82.445 Z0.000 F420.000
G1 X155.679 Y-81.172 Z0.000 F420.000
G1 X156.299 Y-79.735 Z0.000 F420.000
G1 X156.926 Y-78.111 Z0.000 F420.000
G1 X157.569 Y-76.259 Z0.000 F420.000
G1 X158.253 Y-74.093 Z0.000 F420.000
G1 X159.080 Y-71.305 Z0.000 F420.000
G1 X159.539 Y-69.775 Z0.000 F420.000
G1 X158.015 Y-69.318 Z0.000 F420.000
G0 Z12.000
G0 Z12.000
G0 X213.488 Y-1.652
G0 Z0.000
G1 X213.488 Y-1.652 Z0.000 F420.000
G1 X212.620 Y-1.713 Z0.000 F420.000
G1 X211.757 Y-1.845 Z0.000 F420.000
G1 X210.898 Y-2.050 Z0.000 F420.000
G1 X210.039 Y-2.329 Z0.000 F420.000
G1 X209.179 Y-2.684 Z0.000 F420.000
G1 X208.315 Y-3.120 Z0.000 F420.000
G1 X207.445 Y-3.639 Z0.000 F420.000
G1 X206.567 Y-4.248 Z0.000 F420.000
G1 X205.681 Y-4.951 Z0.000 F420.000
G1 X204.784 Y-5.755 Z0.000 F420.000
G1 X203.876 Y-6.666 Z0.000 F420.000
G1 X202.957 Y-7.692 Z0.000 F420.000
G1 X202.026 Y-8.839 Z0.000 F420.000
G1 X201.083 Y-10.116 Z0.000 F420.000
G1 X200.128 Y-11.531 Z0.000 F420.000
G1 X199.163 Y-13.091 Z0.000 F420.000
G1 X198.186 Y-14.805 Z0.000 F420.000
G1 X197.201 Y-16.682 Z0.000 F420.000
G1 X196.207 Y-18.728 Z0.000 F420.000
G1 X195.206 Y-20.953 Z0.000 F420.000
G1 X194.201 Y-23.362 Z0.000 F420.000
G1 X193.193 Y-25.963 Z0.000 F420.000
G1 X192.186 Y-28.760 Z0.000 F420.000
G1 X191.182 Y-31.757 Z0.000 F420.000
G1 X190.185 Y-34.954 Z0.000 F420.000
G1 X189.199 Y-38.348 Z0.000 F420.000
G1 X188.231 Y-41.933 Z0.000 F420.000
G1 X187.287 Y-45.691 Z0.000 F420.000
G1 X186.377 Y-49.593 Z0.000 F420.000
G1 X185.512 Y-53.593 Z0.000 F420.000
G1 X184.685 Y-57.735 Z0.000 F420.000
G1 X184.375 Y-56.805 Z0.000 F420.000
G1 X184.010 Y-55.943 Z0.000 F420.000
G1 X183.595 Y-55.151 Z0.000 F420.000
G1 X183.134 Y-54.431 Z0.000 F420.000
G1 X182.630 Y-53.781 Z0.000 F420.000
G1 X182.087 Y-53.199 Z0.000 F420.000
G1 X181.505 Y-52.685 Z0.000 F420.000
G1 X180.885 Y-52.236 Z0.000 F420.000
G1 X180.227 Y-51.851 Z0.000 F420.000
G1 X179.530 Y-51.529 Z0.000 F420.000
G1 X178.791 Y-51.269 Z0.000 F420.000
G1 X178.008 Y-51.072 Z0.000 F420.000
G1 X177.179 Y-50.941 Z0.000 F420.000
G1 X176.303 Y-50.877 Z0.000 F420.000
G1 X175.290 Y-50.913 Z0.000 F420.000
G1 X174.292 Y-51.021 Z0.000 F420.000
G1 X173.308 Y-51.199 Z0.000 F420.000
G1 X172.337 Y-51.447 Z0.000 F420.000
G1 X171.377 Y-51.767 Z0.000 F420.000
G1 X170.429 Y-52.160 Z0.000 F420.000
G1 X169.491 Y-52.625 Z0.000 F420.000
G1 X168.564 Y-53.166 Z0.000 F420.000
G1 X167.650 Y-53.784 Z0.000 F420.000
G1 X166.748 Y-54.479 Z0.000 F420.000
G1 X165.860 Y-55.255 Z0.000 F420.000
G1 X164.989 Y-56.113 Z0.000 F420.000
G1 X164.138 Y-57.052 Z0.000 F420.000
G1 X163.309 Y-58.074 Z0.000 F420.000
G1 X162.507 Y-59.178 Z0.000 F420.000
G1 X161.736 Y-60.361 Z0.000 F420.000
G1 X161.002 Y-61.621 Z0.000 F420.000
G1 X160.309 Y-62.953 Z0.000 F420.000
G1 X159.664 Y-64.351 Z0.000 F420.000
G1 X159.072 Y-65.805 Z0.000 F420.000
G1 X158.538 Y-67.307 Z0.000 F420.000
G1 X158.069 Y-68.843 Z0.000 F420.000
G1 X157.669 Y-70.401 Z0.000 F420.000
G1 X157.342 Y-71.966 Z0.000 F420.000
G1 X157.091 Y-73.523 Z0.000 F420.000
G1 X156.916 Y-75.057 Z0.000 F420.000
G1 X156.819 Y-76.554 Z0.000 F420.000
G1 X156.796 Y-77.700 Z0.000 F420.000
G1 X156.832 Y-79.018 Z0.000 F420.000
G1 X156.938 Y-80.278 Z0.000 F420.000
G1 X157.111 Y-81.477 Z0.000 F420.000
G1 X157.348 Y-82.614 Z0.000 F420.000
G1 X157.645 Y-83.687 Z0.000 F420.000
G1 X157.999 Y-84.695 Z0.000 F420.000
G1 X158.407 Y-85.639 Z0.000 F420.000
G1 X158.865 Y-86.518 Z0.000 F420.000
G1 X159.371 Y-87.332 Z0.000 F420.000
G1 X159.923 Y-88.082 Z0.000 F420.000
G1 X160.517 Y-88.769 Z0.000 F420.000
G1 X161.154 Y-89.392 Z0.000 F420.000
G1 X161.830 Y-89.953 Z0.000 F420.000
G1 X162.546 Y-90.453 Z0.000 F420.000
G1 X163.301 Y-90.890 Z0.000 F420.000
G1 X164.094 Y-91.265 Z0.000 F420.000
G1 X164.927 Y-91.578 Z0.000 F420.000
G1 X165.798 Y-91.827 Z0.000 F420.000
G1 X166.710 Y-92.011 Z0.000 F420.000
G1 X167.662 Y-92.129 Z0.000 F420.000
G1 X168.242 Y-92.165 Z0.000 F420.000
G1 X168.835 Y-92.178 Z0.000 F420.000
G1 X169.676 Y-92.142 Z0.000 F420.000
G1 X170.489 Y-92.036 Z0.000 F420.000
G1 X171.278 Y-91.861 Z0.000 F420.000
G1 X172.047 Y-91.617 Z0.000 F420.000
G1 X172.799 Y-91.303 Z0.000 F420.000
G1 X173.535 Y-90.918 Z0.000 F420.000
G1 X174.260 Y-90.459 Z0.000 F420.000
G1 X174.973 Y-89.921 Z0.000 F420.000
G1 X175.677 Y-89.301 Z0.000 F420.000
G1 X176.373 Y-88.592 Z0.000 F420.000
G1 X177.060 Y-87.788 Z0.000 F420.000
G1 X177.741 Y-86.884 Z0.000 F420.000
G1 X178.413 Y-85.871 Z0.000 F420.000
G1 X179.077 Y-84.742 Z0.000 F420.000
G1 X179.733 Y-83.487 Z0.000 F420.000
G1 X180.380 Y-82.098 Z0.000 F420.000
G1 X181.017 Y-80.563 Z0.000 F420.000
G1 X181.646 Y-78.869 Z0.000 F420.000
G1 X181.942 Y-78.005 Z0.000 F420.000
G1 X181.942 Y-78.614 Z0.000 F420.000
G1 X181.981 Y-80.232 Z0.000 F420.000
G1 X182.094 Y-81.742 Z0.000 F420.000
G1 X182.274 Y-83.127 Z0.000 F420.000
G1 X182.514 Y-84.386 Z0.000 F420.000
G1 X182.807 Y-85.523 Z0.000 F420.000
G1 X183.148 Y-86.545 Z0.000 F420.000
G1 X183.530 Y-87.459 Z0.000 F420.000
G1 X183.951 Y-88.272 Z0.000 F420.000
G1 X184.407 Y-88.993 Z0.000 F420.000
G1 X184.895 Y-89.627 Z0.000 F420.000
G1 X185.416 Y-90.181 Z0.000 F420.000
G1 X185.969 Y-90.662 Z0.000 F420.000
G1 X186.554 Y-91.073 Z0.000 F420.000
G1 X187.175 Y-91.418 Z0.000 F420.000
G1 X187.833 Y-91.699 Z0.000 F420.000
G1 X188.532 Y-91.917 Z0.000 F420.000
G1 X189.277 Y-92.071 Z0.000 F420.000
G1 X190.071 Y-92.159 Z0.000 F420.000
G1 X190.933 Y-92.178 Z0.000 F420.000
G1 X191.595 Y-92.129 Z0.000 F420.000
G1 X192.245 Y-92.010 Z0.000 F420.000
G1 X192.887 Y-91.820 Z0.000 F420.000
G1 X193.524 Y-91.555 Z0.000 F420.000
G1 X194.159 Y-91.214 Z0.000 F420.000
G1 X194.796 Y-90.789 Z0.000 F420.000
G1 X195.436 Y-90.277 Z0.000 F420.000
G1 X196.080 Y-89.668 Z0.000 F420.000
G1 X196.731 Y-88.954 Z0.000 F420.000
G1 X197.388 Y-88.126 Z0.000 F420.000
G1 X198.052 Y-87.174 Z0.000 F420.000
G1 X198.724 Y-86.086 Z0.000 F420.000
G1 X199.403 Y-84.851 Z0.000 F420.000
G1 X200.090 Y-83.455 Z0.000 F420.000
G1 X200.786 Y-81.884 Z0.000 F420.000
G1 X201.491 Y-80.120 Z0.000 F420.000
G1 X202.210 Y-78.137 Z0.000 F420.000
G1 X202.954 Y-75.894 Z0.000 F420.000
G1 X203.756 Y-73.283 Z0.000 F420.000
G1 X204.802 Y-69.775 Z0.000 F420.000
G1 X203.278 Y-69.318 Z0.000 F420.000
G1 X202.764 Y-71.003 Z0.000 F420.000
G1 X201.795 Y-74.241 Z0.000 F420.000
G1 X200.907 Y-77.011 Z0.000 F420.000
G1 X200.078 Y-79.362 Z0.000 F420.000
G1 X199.288 Y-81.381 Z0.000 F420.000
G1 X198.529 Y-83.117 Z0.000 F420.000
G1 X197.798 Y-84.605 Z0.000 F420.000
G1 X197.092 Y-85.870 Z0.000 F420.000
G1 X196.415 Y-86.933 Z0.000 F420.000
G1 X195.764 Y-87.818 Z0.000 F420.000
G1 X195.138 Y-88.545 Z0.000 F420.000
G1 X194.536 Y-89.132 Z0.000 F420.000
G1 X193.955 Y-89.597 Z0.000 F420.000
G1 X193.392 Y-89.954 Z0.000 F420.000
G1 X192.846 Y-90.214 Z0.000 F420.000
G1 X192.311 Y-90.387 Z0.000 F420.000
G1 X191.783 Y-90.481 Z0.000 F420.000
G1 X191.588 Y-90.496 Z0.000 F420.000
G1 X191.390 Y-90.501 Z0.000 F420.000
G1 X190.927 Y-90.438 Z0.000 F420.000
G1 X190.506 Y-90.309 Z0.000 F420.000
G1 X190.121 Y-90.116 Z0.000 F420.000
G1 X189.767 Y-89.856 Z0.000 F420.000
G1 X189.438 Y-89.526 Z0.000 F420.000
G1 X189.133 Y-89.117 Z0.000 F420.000
G1 X188.852 Y-88.618 Z0.000 F420.000
G1 X188.597 Y-88.016 Z0.000 F420.000
G1 X188.372 Y-87.296 Z0.000 F420.000
G1 X188.182 Y-86.441 Z0.000 F420.000
G1 X188.033 Y-85.435 Z0.000 F420.000
G1 X187.932 Y-84.257 Z0.000 F420.000
G1 X187.885 Y-82.577 Z0.000 F420.000
G1 X187.921 Y-81.296 Z0.000 F420.000
G1 X188.040 Y-79.641 Z0.000 F420.000
G1 X188.264 Y-77.548 Z0.000 F420.000
G1 X188.615 Y-74.953 Z0.000 F420.000
G1 X189.115 Y-71.792 Z0.000 F420.000
G1 X189.784 Y-68.014 Z0.000 F420.000
G1 X190.638 Y-63.589 Z0.000 F420.000
G1 X191.684 Y-58.530 Z0.000 F420.000
G1 X192.904 Y-52.950 Z0.000 F420.000
G1 X193.829 Y-48.896 Z0.000 F420.000
G1 X195.819 Y-47.525 Z0.000 F420.000
G1 X197.877 Y-46.016 Z0.000 F420.000
G1 X199.958 Y-44.397 Z0.000 F420.000
G1 X202.023 Y-42.697 Z0.000 F420.000
G1 X204.037 Y-40.941 Z0.000 F420.000
G1 X205.975 Y-39.154 Z0.000 F420.000
G1 X207.817 Y-37.353 Z0.000 F420.000
G1 X209.550 Y-35.556 Z0.000 F420.000
G1 X211.165 Y-33.773 Z0.000 F420.000
G1 X212.659 Y-32.016 Z0.000 F420.000
G1 X214.028 Y-30.290 Z0.000 F420.000
G1 X215.274 Y-28.602 Z0.000 F420.000
G1 X216.398 Y-26.954 Z0.000 F420.000
G1 X217.403 Y-25.350 Z0.000 F420.000
G1 X218.293 Y-23.791 Z0.000 F420.000
G1 X219.073 Y-22.278 Z0.000 F420.000
G1 X219.747 Y-20.810 Z0.000 F420.000
G1 X220.320 Y-19.387 Z0.000 F420.000
G1 X220.796 Y-18.009 Z0.000 F420.000
G1 X221.180 Y-16.673 Z0.000 F420.000
G1 X221.476 Y-15.378 Z0.000 F420.000
G1 X221.688 Y-14.122 Z0.000 F420.000
G1 X221.819 Y-12.903 Z0.000 F420.000
G1 X221.852 Y-12.382 Z0.000 F420.000
G1 X221.870 Y-11.863 Z0.000 F420.000
G1 X221.864 Y-10.831 Z0.000 F420.000
G1 X221.785 Y-9.818 Z0.000 F420.000
G1 X221.636 Y-8.839 Z0.000 F420.000
G1 X221.420 Y-7.907 Z0.000 F420.000
G1 X221.142 Y-7.029 Z0.000 F420.000
G1 X220.806 Y-6.214 Z0.000 F420.000
G1 X220.419 Y-5.465 Z0.000 F420.000
G1 X219.985 Y-4.785 Z0.000 F420.000
G1 X219.508 Y-4.174 Z0.000 F420.000
G1 X218.991 Y-3.631 Z0.000 F420.000
G1 X218.436 Y-3.156 Z0.000 F420.000
G1 X217.845 Y-2.746 Z0.000 F420.000
G1 X217.217 Y-2.400 Z0.000 F420.000
G1 X216.553 Y-2.119 Z0.000 F420.000
G1 X215.850 Y-1.902 Z0.000 F420.000
G1 X215.106 Y-1.751 Z0.000 F420.000
G1 X214.320 Y-1.666 Z0.000 F420.000
G1 X213.910 Y-1.650 Z0.000 F420.000
G1 X213.488 Y-1.652 Z0.000 F420.000
G0 Z12.000
G0 Z12.000
G0 X190.665 Y-141.988
G0 Z0.000
G1 X190.665 Y-141.988 Z0.000 F420.000
G1 X189.886 Y-144.719 Z0.000 F420.000
G1 X189.119 Y-147.252 Z0.000 F420.000
G1 X188.384 Y-149.436 Z0.000 F420.000
G1 X187.673 Y-151.320 Z0.000 F420.000
G1 X186.977 Y-152.951 Z0.000 F420.000
G1 X186.297 Y-154.356 Z0.000 F420.000
G1 X185.631 Y-155.560 Z0.000 F420.000
G1 X184.982 Y-156.579 Z0.000 F420.000
G1 X184.351 Y-157.433 Z0.000 F420.000
G1 X183.736 Y-158.141 Z0.000 F420.000
G1 X183.137 Y-158.718 Z0.000 F420.000
G1 X182.552 Y-159.181 Z0.000 F420.000
G1 X181.979 Y-159.540 Z0.000 F420.000
G1 X181.416 Y-159.807 Z0.000 F420.000
G1 X180.858 Y-159.990 Z0.000 F420.000
G1 X180.302 Y-160.095 Z0.000 F420.000
G1 X179.692 Y-160.124 Z0.000 F420.000
G1 X179.161 Y-160.088 Z0.000 F420.000
G1 X178.659 Y-159.983 Z0.000 F420.000
G1 X178.183 Y-159.809 Z0.000 F420.000
G1 X177.733 Y-159.569 Z0.000 F420.000
G1 X177.307 Y-159.259 Z0.000 F420.000
G1 X176.907 Y-158.878 Z0.000 F420.000
G1 X176.536 Y-158.424 Z0.000 F420.000
G1 X176.195 Y-157.892 Z0.000 F420.000
G1 X175.891 Y-157.280 Z0.000 F420.000
G1 X175.629 Y-156.588 Z0.000 F420.000
G1 X175.425 Y-155.857 Z0.000 F420.000
G1 X176.238 Y-154.478 Z0.000 F420.000
G1 X177.051 Y-152.960 Z0.000 F420.000
G1 X177.861 Y-151.291 Z0.000 F420.000
G1 X178.670 Y-149.461 Z0.000 F420.000
G1 X179.476 Y-147.458 Z0.000 F420.000
G1 X180.281 Y-145.268 Z0.000 F420.000
G1 X181.084 Y-142.875 Z0.000 F420.000
G1 X181.886 Y-140.260 Z0.000 F420.000
G1 X182.689 Y-137.401 Z0.000 F420.000
G1 X183.495 Y-134.267 Z0.000 F420.000
G1 X184.311 Y-130.817 Z0.000 F420.000
G1 X185.146 Y-126.986 Z0.000 F420.000
G1 X186.020 Y-122.660 Z0.000 F420.000
G1 X186.550 Y-119.890 Z0.000 F420.000
G1 X185.067 Y-119.927 Z0.000 F420.000
G1 X183.838 Y-120.028 Z0.000 F420.000
G1 X182.813 Y-120.184 Z0.000 F420.000
G1 X181.955 Y-120.386 Z0.000 F420.000
G1 X181.232 Y-120.628 Z0.000 F420.000
G1 X180.620 Y-120.909 Z0.000 F420.000
G1 X180.101 Y-121.225 Z0.000 F420.000
G1 X179.658 Y-121.578 Z0.000 F420.000
G1 X179.280 Y-121.971 Z0.000 F420.000
G1 X178.957 Y-122.411 Z0.000 F420.000
G1 X178.684 Y-122.906 Z0.000 F420.000
G1 X178.456 Y-123.469 Z0.000 F420.000
G1 X178.272 Y-124.116 Z0.000 F420.000
G1 X178.133 Y-124.869 Z0.000 F420.000
G1 X178.042 Y-125.762 Z0.000 F420.000
G1 X178.015 Y-126.291 Z0.000 F420.000
G1 X177.919 Y-127.857 Z0.000 F420.000
G1 X177.713 Y-129.936 Z0.000 F420.000
G1 X177.388 Y-132.437 Z0.000 F420.000
G1 X176.952 Y-135.202 Z0.000 F420.000
G1 X176.423 Y-138.063 Z0.000 F420.000
G1 X175.823 Y-140.889 Z0.000 F420.000
G1 X175.173 Y-143.590 Z0.000 F420.000
G1 X174.358 Y-146.560 Z0.000 F420.000
G1 X174.004 Y-146.542 Z0.000 F420.000
G1 X173.608 Y-146.595 Z0.000 F420.000
G1 X173.174 Y-146.726 Z0.000 F420.000
G1 X172.708 Y-146.944 Z0.000 F420.000
G1 X172.225 Y-147.252 Z0.000 F420.000
G1 X171.742 Y-147.648 Z0.000 F420.000
G1 X171.279 Y-148.123 Z0.000 F420.000
G1 X170.854 Y-148.664 Z0.000 F420.000
G1 X170.484 Y-149.259 Z0.000 F420.000
G1 X170.178 Y-149.891 Z0.000 F420.000
G1 X169.942 Y-150.549 Z0.000 F420.000
G1 X169.780 Y-151.225 Z0.000 F420.000
G1 X169.692 Y-151.911 Z0.000 F420.000
G1 X169.679 Y-152.603 Z0.000 F420.000
G1 X169.714 Y-153.082 Z0.000 F420.000
G1 X169.786 Y-153.571 Z0.000 F420.000
G1 X170.023 Y-154.361 Z0.000 F420.000
G1 X170.244 Y-155.110 Z0.000 F420.000
G1 X170.484 Y-155.744 Z0.000 F420.000
G1 X170.700 Y-156.162 Z0.000 F420.000
G1 X169.987 Y-157.505 Z0.000 F420.000
G1 X169.286 Y-158.669 Z0.000 F420.000
G1 X168.599 Y-159.669 Z0.000 F420.000
G1 X167.928 Y-160.518 Z0.000 F420.000
G1 X167.272 Y-161.230 Z0.000 F420.000
G1 X166.631 Y-161.819 Z0.000 F420.000
G1 X166.004 Y-162.296 Z0.000 F420.000
G1 X165.391 Y-162.672 Z0.000 F420.000
G1 X164.787 Y-162.956 Z0.000 F420.000
G1 X164.191 Y-163.156 Z0.000 F420.000
G1 X163.599 Y-163.277 Z0.000 F420.000
G1 X163.265 Y-163.313 Z0.000 F420.000
G1 X162.928 Y-163.324 Z0.000 F420.000
G1 X162.272 Y-163.289 Z0.000 F420.000
G1 X161.668 Y-163.184 Z0.000 F420.000
G1 X161.110 Y-163.016 Z0.000 F420.000
G1 X160.591 Y-162.784 Z0.000 F420.000
G1 X160.109 Y-162.490 Z0.000 F420.000
G1 X159.658 Y-162.131 Z0.000 F420.000
G1 X159.237 Y-161.703 Z0.000 F420.000
G1 X158.844 Y-161.200 Z0.000 F420.000
G1 X158.479 Y-160.615 Z0.000 F420.000
G1 X158.144 Y-159.940 Z0.000 F420.000
G1 X157.841 Y-159.167 Z0.000 F420.000
G1 X157.573 Y-158.285 Z0.000 F420.000
G1 X157.346 Y-157.284 Z0.000 F420.000
G1 X157.164 Y-156.155 Z0.000 F420.000
G1 X157.032 Y-154.887 Z0.000 F420.000
G1 X156.958 Y-153.471 Z0.000 F420.000
G1 X156.948 Y-151.900 Z0.000 F420.000
G1 X156.962 Y-151.291 Z0.000 F420.000
G1 X156.984 Y-150.675 Z0.000 F420.000
G1 X157.075 Y-148.817 Z0.000 F420.000
G1 X157.246 Y-146.761 Z0.000 F420.000
G1 X157.506 Y-144.496 Z0.000 F420.000
G1 X157.861 Y-142.010 Z0.000 F420.000
G1 X158.319 Y-139.291 Z0.000 F420.000
G1 X158.887 Y-136.329 Z0.000 F420.000
G1 X159.571 Y-133.109 Z0.000 F420.000
G1 X160.380 Y-129.595 Z0.000 F420.000
G1 X161.346 Y-125.610 Z0.000 F420.000
G1 X161.861 Y-123.396 Z0.000 F420.000
G1 X160.409 Y-123.432 Z0.000 F420.000
G1 X159.220 Y-123.532 Z0.000 F420.000
G1 X158.239 Y-123.686 Z0.000 F420.000
G1 X157.421 Y-123.885 Z0.000 F420.000
G1 X156.734 Y-124.125 Z0.000 F420.000
G1 X156.152 Y-124.403 Z0.000 F420.000
G1 X155.653 Y-124.720 Z0.000 F420.000
G1 X155.220 Y-125.078 Z0.000 F420.000
G1 X154.841 Y-125.486 Z0.000 F420.000
G1 X154.504 Y-125.953 Z0.000 F420.000
G1 X154.201 Y-126.495 Z0.000 F420.000
G1 X153.922 Y-127.140 Z0.000 F420.000
G1 X153.659 Y-127.927 Z0.000 F420.000
G1 X153.395 Y-128.938 Z0.000 F420.000
G1 X153.284 Y-129.433 Z0.000 F420.000
G1 X153.174 Y-129.949 Z0.000 F420.000
G1 X152.724 Y-132.194 Z0.000 F420.000
G1 X151.731 Y-136.958 Z0.000 F420.000
G1 X151.156 Y-140.017 Z0.000 F420.000
G1 X150.736 Y-142.639 Z0.000 F420.000
G1 X150.438 Y-144.970 Z0.000 F420.000
G1 X150.245 Y-147.079 Z0.000 F420.000
G1 X150.145 Y-148.993 Z0.000 F420.000
G1 X150.126 Y-150.218 Z0.000 F420.000
G1 X150.164 Y-151.825 Z0.000 F420.000
G1 X150.272 Y-153.292 Z0.000 F420.000
G1 X150.445 Y-154.631 Z0.000 F420.000
G1 X150.677 Y-155.852 Z0.000 F420.000
G1 X150.964 Y-156.966 Z0.000 F420.000
G1 X151.301 Y-157.980 Z0.000 F420.000
G1 X151.684 Y-158.904 Z0.000 F420.000
G1 X152.113 Y-159.743 Z0.000 F420.000
G1 X152.584 Y-160.506 Z0.000 F420.000
G1 X153.097 Y-161.196 Z0.000 F420.000
G1 X153.653 Y-161.820 Z0.000 F420.000
G1 X154.251 Y-162.382 Z0.000 F420.000
G1 X154.895 Y-162.885 Z0.000 F420.000
G1 X155.585 Y-163.330 Z0.000 F420.000
G1 X156.325 Y-163.720 Z0.000 F420.000
G1 X157.120 Y-164.055 Z0.000 F420.000
G1 X157.973 Y-164.334 Z0.000 F420.000
G1 X158.889 Y-164.556 Z0.000 F420.000
G1 X159.874 Y-164.718 Z0.000 F420.000
G1 X160.934 Y-164.817 Z0.000 F420.000
G1 X161.466 Y-164.841 Z0.000 F420.000
G1 X162.013 Y-164.848 Z0.000 F420.000
G1 X163.001 Y-164.812 Z0.000 F420.000
G1 X163.958 Y-164.705 Z0.000 F420.000
G1 X164.889 Y-164.529 Z0.000 F420.000
G1 X165.798 Y-164.283 Z0.000 F420.000
G1 X166.689 Y-163.967 Z0.000 F420.000
G1 X167.565 Y-163.579 Z0.000 F420.000
G1 X168.429 Y-163.117 Z0.000 F420.000
G1 X169.285 Y-162.578 Z0.000 F420.000
G1 X170.136 Y-161.956 Z0.000 F420.000
G1 X170.984 Y-161.246 Z0.000 F420.000
G1 X171.832 Y-160.442 Z0.000 F420.000
G1 X172.337 Y-159.915 Z0.000 F420.000
G1 X172.834 Y-159.362 Z0.000 F420.000
G1 X173.370 Y-159.897 Z0.000 F420.000
G1 X173.944 Y-160.368 Z0.000 F420.000
G1 X174.559 Y-160.778 Z0.000 F420.000
G1 X175.215 Y-161.127 Z0.000 F420.000
G1 X175.915 Y-161.416 Z0.000 F420.000
G1 X176.662 Y-161.645 Z0.000 F420.000
G1 X177.459 Y-161.813 Z0.000 F420.000
G1 X178.310 Y-161.917 Z0.000 F420.000
G1 X178.766 Y-161.944 Z0.000 F420.000
G1 X179.235 Y-161.953 Z0.000 F420.000
G1 X179.963 Y-161.903 Z0.000 F420.000
G1 X180.668 Y-161.784 Z0.000 F420.000
G1 X181.353 Y-161.595 Z0.000 F420.000
G1 X182.022 Y-161.337 Z0.000 F420.000
G1 X182.678 Y-161.006 Z0.000 F420.000
G1 X183.324 Y-160.601 Z0.000 F420.000
G1 X183.962 Y-160.115 Z0.000 F420.000
G1 X184.595 Y-159.543 Z0.000 F420.000
G1 X185.223 Y-158.879 Z0.000 F420.000
G1 X185.848 Y-158.113 Z0.000 F420.000
G1 X186.470 Y-157.238 Z0.000 F420.000
G1 X187.091 Y-156.243 Z0.000 F420.000
G1 X187.710 Y-155.116 Z0.000 F420.000
G1 X188.329 Y-153.843 Z0.000 F420.000
G1 X188.949 Y-152.406 Z0.000 F420.000
G1 X189.576 Y-150.782 Z0.000 F420.000
G1 X190.219 Y-148.930 Z0.000 F420.000
G1 X190.903 Y-146.763 Z0.000 F420.000
G1 X191.729 Y-143.975 Z0.000 F420.000
G1 X192.189 Y-142.446 Z0.000 F420.000
G1 X190.665 Y-141.988 Z0.000 F420.000
G0 Z12.000
G0 Z12.000
G0 X211.086 Y-141.988
G0 Z0.000
G1 X211.086 Y-141.988 Z0.000 F420.000
G1 X210.532 Y-143.796 Z0.000 F420.000
G1 X209.786 Y-146.260 Z0.000 F420.000
G1 X208.866 Y-149.133 Z0.000 F420.000
G1 X208.009 Y-151.579 Z0.000 F420.000
G1 X207.195 Y-153.679 Z0.000 F420.000
G1 X206.415 Y-155.486 Z0.000 F420.000
G1 X205.666 Y-157.033 Z0.000 F420.000
G1 X204.946 Y-158.349 Z0.000 F420.000
G1 X204.257 Y-159.456 Z0.000 F420.000
G1 X203.597 Y-160.376 Z0.000 F420.000
G1 X202.965 Y-161.131 Z0.000 F420.000
G1 X202.359 Y-161.741 Z0.000 F420.000
G1 X201.777 Y-162.223 Z0.000 F420.000
G1 X201.216 Y-162.593 Z0.000 F420.000
G1 X200.673 Y-162.864 Z0.000 F420.000
G1 X200.145 Y-163.046 Z0.000 F420.000
G1 X199.627 Y-163.146 Z0.000 F420.000
G1 X199.414 Y-163.166 Z0.000 F420.000
G1 X199.199 Y-163.172 Z0.000 F420.000
G1 X198.735 Y-163.109 Z0.000 F420.000
G1 X198.315 Y-162.979 Z0.000 F420.000
G1 X197.930 Y-162.786 Z0.000 F420.000
G1 X197.575 Y-162.527 Z0.000 F420.000
G1 X197.246 Y-162.197 Z0.000 F420.000
G1 X196.942 Y-161.788 Z0.000 F420.000
G1 X196.661 Y-161.289 Z0.000 F420.000
G1 X196.406 Y-160.686 Z0.000 F420.000
G1 X196.181 Y-159.966 Z0.000 F420.000
G1 X195.991 Y-159.112 Z0.000 F420.000
G1 X195.841 Y-158.105 Z0.000 F420.000
G1 X195.740 Y-156.928 Z0.000 F420.000
G1 X195.694 Y-155.247 Z0.000 F420.000
G1 X195.729 Y-153.602 Z0.000 F420.000
G1 X195.841 Y-151.724 Z0.000 F420.000
G1 X196.040 Y-149.593 Z0.000 F420.000
G1 X196.335 Y-147.189 Z0.000 F420.000
G1 X196.737 Y-144.492 Z0.000 F420.000
G1 X197.255 Y-141.481 Z0.000 F420.000
G1 X197.900 Y-138.136 Z0.000 F420.000
G1 X198.681 Y-134.429 Z0.000 F420.000
G1 X199.613 Y-130.294 Z0.000 F420.000
G1 X200.798 Y-125.209 Z0.000 F420.000
G1 X201.180 Y-123.396 Z0.000 F420.000
G1 X199.728 Y-123.432 Z0.000 F420.000
G1 X198.540 Y-123.532 Z0.000 F420.000
G1 X197.558 Y-123.686 Z0.000 F420.000
G1 X196.740 Y-123.885 Z0.000 F420.000
G1 X196.053 Y-124.125 Z0.000 F420.000
G1 X195.471 Y-124.403 Z0.000 F420.000
G1 X194.972 Y-124.720 Z0.000 F420.000
G1 X194.539 Y-125.078 Z0.000 F420.000
G1 X194.160 Y-125.486 Z0.000 F420.000
G1 X193.823 Y-125.953 Z0.000 F420.000
G1 X193.520 Y-126.495 Z0.000 F420.000
G1 X193.242 Y-127.140 Z0.000 F420.000
G1 X192.979 Y-127.927 Z0.000 F420.000
G1 X192.715 Y-128.938 Z0.000 F420.000
G1 X192.603 Y-129.433 Z0.000 F420.000
G1 X192.493 Y-129.949 Z0.000 F420.000
G1 X191.607 Y-134.718 Z0.000 F420.000
G1 X190.952 Y-138.603 Z0.000 F420.000
G1 X190.475 Y-141.870 Z0.000 F420.000
G1 X190.135 Y-144.708 Z0.000 F420.000
G1 X189.910 Y-147.211 Z0.000 F420.000
G1 X189.786 Y-149.425 Z0.000 F420.000
G1 X189.750 Y-151.285 Z0.000 F420.000
G1 X189.789 Y-152.903 Z0.000 F420.000
G1 X189.903 Y-154.413 Z0.000 F420.000
G1 X190.083 Y-155.798 Z0.000 F420.000
G1 X190.323 Y-157.057 Z0.000 F420.000
G1 X190.616 Y-158.194 Z0.000 F420.000
G1 X190.956 Y-159.216 Z0.000 F420.000
G1 X191.339 Y-160.130 Z0.000 F420.000
G1 X191.760 Y-160.943 Z0.000 F420.000
G1 X192.215 Y-161.663 Z0.000 F420.000
G1 X192.704 Y-162.297 Z0.000 F420.000
G1 X193.225 Y-162.852 Z0.000 F420.000
G1 X193.778 Y-163.333 Z0.000 F420.000
G1 X194.363 Y-163.744 Z0.000 F420.000
G1 X194.983 Y-164.089 Z0.000 F420.000
G1 X195.642 Y-164.370 Z0.000 F420.000
G1 X196.341 Y-164.588 Z0.000 F420.000
G1 X197.085 Y-164.742 Z0.000 F420.000
G1 X197.880 Y-164.830 Z0.000 F420.000
G1 X198.742 Y-164.848 Z0.000 F420.000
G1 X199.404 Y-164.800 Z0.000 F420.000
G1 X200.056 Y-164.681 Z0.000 F420.000
G1 X200.700 Y-164.490 Z0.000 F420.000
G1 X201.340 Y-164.225 Z0.000 F420.000
G1 X201.979 Y-163.882 Z0.000 F420.000
G1 X202.620 Y-163.457 Z0.000 F420.000
G1 X203.265 Y-162.943 Z0.000 F420.000
G1 X203.915 Y-162.333 Z0.000 F420.000
G1 X204.571 Y-161.618 Z0.000 F420.000
G1 X205.234 Y-160.789 Z0.000 F420.000
G1 X205.904 Y-159.836 Z0.000 F420.000
G1 X206.581 Y-158.749 Z0.000 F420.000
G1 X207.265 Y-157.517 Z0.000 F420.000
G1 X207.954 Y-156.129 Z0.000 F420.000
G1 X208.649 Y-154.572 Z0.000 F420.000
G1 X209.350 Y-152.833 Z0.000 F420.000
G1 X210.056 Y-150.896 Z0.000 F420.000
G1 X210.772 Y-148.738 Z0.000 F420.000
G1 X211.510 Y-146.313 Z0.000 F420.000
G1 X212.610 Y-142.446 Z0.000 F420.000
G1 X211.086 Y-141.988 Z0.000 F420.000
G0 Z12.000
G0 Z12.000
G0 X251.625 Y-141.988
G0 Z0.000
G1 X251.625 Y-141.988 Z0.000 F420.000
G1 X250.953 Y-144.374 Z0.000 F420.000
G1 X250.211 Y-146.905 Z0.000 F420.000
G1 X249.487 Y-149.134 Z0.000 F420.000
G1 X248.789 Y-151.047 Z0.000 F420.000
G1 X248.106 Y-152.701 Z0.000 F420.000
G1 X247.436 Y-154.128 Z0.000 F420.000
G1 X246.779 Y-155.353 Z0.000 F420.000
G1 X246.136 Y-156.393 Z0.000 F420.000
G1 X245.508 Y-157.268 Z0.000 F420.000
G1 X244.894 Y-157.998 Z0.000 F420.000
G1 X244.293 Y-158.597 Z0.000 F420.000
G1 X243.705 Y-159.080 Z0.000 F420.000
G1 X243.127 Y-159.461 Z0.000 F420.000
G1 X242.556 Y-159.748 Z0.000 F420.000
G1 X241.990 Y-159.951 Z0.000 F420.000
G1 X241.425 Y-160.075 Z0.000 F420.000
G1 X240.652 Y-160.124 Z0.000 F420.000
G1 X240.119 Y-160.088 Z0.000 F420.000
G1 X239.618 Y-159.982 Z0.000 F420.000
G1 X239.147 Y-159.809 Z0.000 F420.000
G1 X238.704 Y-159.569 Z0.000 F420.000
G1 X238.285 Y-159.260 Z0.000 F420.000
G1 X237.892 Y-158.879 Z0.000 F420.000
G1 X237.524 Y-158.420 Z0.000 F420.000
G1 X237.185 Y-157.879 Z0.000 F420.000
G1 X236.877 Y-157.250 Z0.000 F420.000
G1 X236.690 Y-156.771 Z0.000 F420.000
G1 X237.472 Y-155.614 Z0.000 F420.000
G1 X238.217 Y-154.382 Z0.000 F420.000
G1 X238.920 Y-153.081 Z0.000 F420.000
G1 X239.575 Y-151.718 Z0.000 F420.000
G1 X240.175 Y-150.300 Z0.000 F420.000
G1 X240.715 Y-148.839 Z0.000 F420.000
G1 X241.190 Y-147.346 Z0.000 F420.000
G1 X241.594 Y-145.833 Z0.000 F420.000
G1 X241.926 Y-144.314 Z0.000 F420.000
G1 X242.182 Y-142.802 Z0.000 F420.000
G1 X242.360 Y-141.311 Z0.000 F420.000
G1 X242.462 Y-139.853 Z0.000 F420.000
G1 X242.487 Y-138.934 Z0.000 F420.000
G1 X242.481 Y-138.026 Z0.000 F420.000
G1 X242.445 Y-136.708 Z0.000 F420.000
G1 X242.338 Y-135.448 Z0.000 F420.000
G1 X242.165 Y-134.249 Z0.000 F420.000
G1 X241.928 Y-133.112 Z0.000 F420.000
G1 X241.631 Y-132.039 Z0.000 F420.000
G1 X241.277 Y-131.031 Z0.000 F420.000
G1 X240.869 Y-130.087 Z0.000 F420.000
G1 X240.411 Y-129.208 Z0.000 F420.000
G1 X239.905 Y-128.394 Z0.000 F420.000
G1 X239.354 Y-127.644 Z0.000 F420.000
G1 X238.759 Y-126.957 Z0.000 F420.000
G1 X238.123 Y-126.334 Z0.000 F420.000
G1 X237.446 Y-125.772 Z0.000 F420.000
G1 X236.731 Y-125.273 Z0.000 F420.000
G1 X235.976 Y-124.836 Z0.000 F420.000
G1 X235.182 Y-124.461 Z0.000 F420.000
G1 X234.350 Y-124.148 Z0.000 F420.000
G1 X233.478 Y-123.899 Z0.000 F420.000
G1 X232.567 Y-123.715 Z0.000 F420.000
G1 X231.614 Y-123.597 Z0.000 F420.000
G1 X231.034 Y-123.560 Z0.000 F420.000
G1 X230.441 Y-123.548 Z0.000 F420.000
G1 X229.589 Y-123.584 Z0.000 F420.000
G1 X228.767 Y-123.690 Z0.000 F420.000
G1 X227.972 Y-123.865 Z0.000 F420.000
G1 X227.200 Y-124.108 Z0.000 F420.000
G1 X226.449 Y-124.419 Z0.000 F420.000
G1 X225.716 Y-124.801 Z0.000 F420.000
G1 X224.998 Y-125.256 Z0.000 F420.000
G1 X224.293 Y-125.787 Z0.000 F420.000
G1 X223.602 Y-126.399 Z0.000 F420.000
G1 X222.922 Y-127.097 Z0.000 F420.000
G1 X222.253 Y-127.886 Z0.000 F420.000
G1 X221.595 Y-128.773 Z0.000 F420.000
G1 X220.949 Y-129.764 Z0.000 F420.000
G1 X220.316 Y-130.867 Z0.000 F420.000
G1 X220.040 Y-131.393 Z0.000 F420.000
G1 X219.773 Y-131.930 Z0.000 F420.000
G1 X220.464 Y-128.198 Z0.000 F420.000
G1 X221.165 Y-124.749 Z0.000 F420.000
G1 X221.610 Y-122.752 Z0.000 F420.000
G1 X221.907 Y-121.567 Z0.000 F420.000
G1 X223.897 Y-120.196 Z0.000 F420.000
G1 X225.955 Y-118.687 Z0.000 F420.000
G1 X228.036 Y-117.068 Z0.000 F420.000
G1 X230.101 Y-115.367 Z0.000 F420.000
G1 X232.115 Y-113.612 Z0.000 F420.000
G1 X234.053 Y-111.824 Z0.000 F420.000
G1 X235.895 Y-110.024 Z0.000 F420.000
G1 X237.628 Y-108.227 Z0.000 F420.000
G1 X239.243 Y-106.444 Z0.000 F420.000
G1 X240.737 Y-104.686 Z0.000 F420.000
G1 X242.106 Y-102.961 Z0.000 F420.000
G1 X243.352 Y-101.272 Z0.000 F420.000
G1 X244.476 Y-99.625 Z0.000 F420.000
G1 X245.481 Y-98.021 Z0.000 F420.000
G1 X246.371 Y-96.462 Z0.000 F420.000
G1 X247.151 Y-94.948 Z0.000 F420.000
G1 X247.825 Y-93.481 Z0.000 F420.000
G1 X248.398 Y-92.058 Z0.000 F420.000
G1 X248.874 Y-90.679 Z0.000 F420.000
G1 X249.258 Y-89.343 Z0.000 F420.000
G1 X249.554 Y-88.048 Z0.000 F420.000
G1 X249.766 Y-86.792 Z0.000 F420.000
G1 X249.897 Y-85.573 Z0.000 F420.000
G1 X249.930 Y-85.053 Z0.000 F420.000
G1 X249.948 Y-84.534 Z0.000 F420.000
G1 X249.942 Y-83.529 Z0.000 F420.000
G1 X249.862 Y-82.539 Z0.000 F420.000
G1 X249.712 Y-81.577 Z0.000 F420.000
G1 X249.494 Y-80.655 Z0.000 F420.000
G1 X249.213 Y-79.783 Z0.000 F420.000
G1 X248.874 Y-78.969 Z0.000 F420.000
G1 X248.482 Y-78.217 Z0.000 F420.000
G1 X248.042 Y-77.531 Z0.000 F420.000
G1 X247.557 Y-76.913 Z0.000 F420.000
G1 X247.032 Y-76.361 Z0.000 F420.000
G1 X246.469 Y-75.877 Z0.000 F420.000
G1 X245.870 Y-75.458 Z0.000 F420.000
G1 X245.235 Y-75.105 Z0.000 F420.000
G1 X244.563 Y-74.816 Z0.000 F420.000
G1 X243.855 Y-74.592 Z0.000 F420.000
G1 X243.109 Y-74.433 Z0.000 F420.000
G1 X242.322 Y-74.342 Z0.000 F420.000
G1 X241.875 Y-74.322 Z0.000 F420.000
G1 X241.414 Y-74.323 Z0.000 F420.000
G1 X240.544 Y-74.383 Z0.000 F420.000
G1 X239.680 Y-74.514 Z0.000 F420.000
G1 X238.821 Y-74.718 Z0.000 F420.000
G1 X237.963 Y-74.996 Z0.000 F420.000
G1 X237.103 Y-75.350 Z0.000 F420.000
G1 X236.241 Y-75.785 Z0.000 F420.000
G1 X235.373 Y-76.302 Z0.000 F420.000
G1 X234.498 Y-76.909 Z0.000 F420.000
G1 X233.615 Y-77.610 Z0.000 F420.000
G1 X232.722 Y-78.411 Z0.000 F420.000
G1 X231.818 Y-79.318 Z0.000 F420.000
G1 X230.904 Y-80.340 Z0.000 F420.000
G1 X229.978 Y-81.483 Z0.000 F420.000
G1 X229.041 Y-82.755 Z0.000 F420.000
G1 X228.093 Y-84.164 Z0.000 F420.000
G1 X227.134 Y-85.719 Z0.000 F420.000
G1 X226.165 Y-87.427 Z0.000 F420.000
G1 X225.187 Y-89.298 Z0.000 F420.000
G1 X224.200 Y-91.339 Z0.000 F420.000
G1 X223.208 Y-93.559 Z0.000 F420.000
G1 X222.210 Y-95.964 Z0.000 F420.000
G1 X221.210 Y-98.563 Z0.000 F420.000
G1 X220.209 Y-101.360 Z0.000 F420.000
G1 X219.210 Y-104.361 Z0.000 F420.000
G1 X218.218 Y-107.568 Z0.000 F420.000
G1 X217.234 Y-110.980 Z0.000 F420.000
G1 X216.265 Y-114.594 Z0.000 F420.000
G1 X215.316 Y-118.398 Z0.000 F420.000
G1 X214.394 Y-122.372 Z0.000 F420.000
G1 X213.508 Y-126.482 Z0.000 F420.000
G1 X212.458 Y-131.778 Z0.000 F420.000
G1 X211.648 Y-136.167 Z0.000 F420.000
G1 X211.139 Y-139.251 Z0.000 F420.000
G1 X210.778 Y-141.886 Z0.000 F420.000
G1 X210.533 Y-144.223 Z0.000 F420.000
G1 X210.387 Y-146.331 Z0.000 F420.000
G1 X210.331 Y-148.241 Z0.000 F420.000
G1 X210.355 Y-149.975 Z0.000 F420.000
G1 X210.452 Y-151.556 Z0.000 F420.000
G1 X210.614 Y-153.002 Z0.000 F420.000
G1 X210.838 Y-154.324 Z0.000 F420.000
G1 X211.117 Y-155.535 Z0.000 F420.000
G1 X211.448 Y-156.643 Z0.000 F420.000
G1 X211.827 Y-157.657 Z0.000 F420.000
G1 X212.253 Y-158.586 Z0.000 F420.000
G1 X212.724 Y-159.434 Z0.000 F420.000
G1 X213.237 Y-160.209 Z0.000 F420.000
G1 X213.794 Y-160.916 Z0.000 F420.000
G1 X214.393 Y-161.559 Z0.000 F420.000
G1 X215.038 Y-162.142 Z0.000 F420.000
G1 X215.729 Y-162.667 Z0.000 F420.000
G1 X216.469 Y-163.137 Z0.000 F420.000
G1 X217.261 Y-163.552 Z0.000 F420.000
G1 X218.110 Y-163.913 Z0.000 F420.000
G1 X219.019 Y-164.220 Z0.000 F420.000
G1 X219.993 Y-164.470 Z0.000 F420.000
G1 X221.038 Y-164.661 Z0.000 F420.000
G1 X222.159 Y-164.791 Z0.000 F420.000
G1 X223.126 Y-164.848 Z0.000 F420.000
G1 X224.119 Y-164.813 Z0.000 F420.000
G1 X225.104 Y-164.705 Z0.000 F420.000
G1 X226.083 Y-164.526 Z0.000 F420.000
G1 X227.055 Y-164.275 Z0.000 F420.000
G1 X228.021 Y-163.951 Z0.000 F420.000
G1 X228.980 Y-163.554 Z0.000 F420.000
G1 X229.931 Y-163.081 Z0.000 F420.000
G1 X230.873 Y-162.533 Z0.000 F420.000
G1 X231.804 Y-161.907 Z0.000 F420.000
G1 X232.722 Y-161.204 Z0.000 F420.000
G1 X233.623 Y-160.422 Z0.000 F420.000
G1 X233.940 Y-160.125 Z0.000 F420.000
G1 X234.251 Y-159.819 Z0.000 F420.000
G1 X234.851 Y-160.310 Z0.000 F420.000
G1 X235.486 Y-160.735 Z0.000 F420.000
G1 X236.159 Y-161.097 Z0.000 F420.000
G1 X236.870 Y-161.397 Z0.000 F420.000
G1 X237.621 Y-161.633 Z0.000 F420.000
G1 X238.415 Y-161.806 Z0.000 F420.000
G1 X239.255 Y-161.914 Z0.000 F420.000
G1 X240.195 Y-161.953 Z0.000 F420.000
G1 X240.936 Y-161.903 Z0.000 F420.000
G1 X241.652 Y-161.784 Z0.000 F420.000
G1 X242.346 Y-161.596 Z0.000 F420.000
G1 X243.021 Y-161.339 Z0.000 F420.000
G1 X243.682 Y-161.010 Z0.000 F420.000
G1 X244.331 Y-160.608 Z0.000 F420.000
G1 X244.970 Y-160.126 Z0.000 F420.000
G1 X245.602 Y-159.561 Z0.000 F420.000
G1 X246.227 Y-158.905 Z0.000 F420.000
G1 X246.848 Y-158.150 Z0.000 F420.000
G1 X247.464 Y-157.288 Z0.000 F420.000
G1 X248.077 Y-156.309 Z0.000 F420.000
G1 X248.687 Y-155.200 Z0.000 F420.000
G1 X249.295 Y-153.948 Z0.000 F420.000
G1 X249.903 Y-152.535 Z0.000 F420.000
G1 X250.517 Y-150.936 Z0.000 F420.000
G1 X251.145 Y-149.112 Z0.000 F420.000
G1 X251.814 Y-146.974 Z0.000 F420.000
G1 X252.622 Y-144.214 Z0.000 F420.000
G1 X253.149 Y-142.446 Z0.000 F420.000
G1 X251.625 Y-141.988 Z0.000 F420.000
G0 Z12.000
G0 Z12.000
G0 X264.274 Y-165.153
G0 Z0.000
G1 X264.274 Y-165.153 Z0.000 F420.000
G1 X265.381 Y-165.117 Z0.000 F420.000
G1 X266.457 Y-165.011 Z0.000 F420.000
G1 X267.503 Y-164.836 Z0.000 F420.000
G1 X268.523 Y-164.592 Z0.000 F420.000
G1 X269.519 Y-164.280 Z0.000 F420.000
G1 X270.492 Y-163.901 Z0.000 F420.000
G1 X271.445 Y-163.452 Z0.000 F420.000
G1 X272.379 Y-162.934 Z0.000 F420.000
G1 X273.295 Y-162.342 Z0.000 F420.000
G1 X274.193 Y-161.677 Z0.000 F420.000
G1 X275.076 Y-160.934 Z0.000 F420.000
G1 X275.942 Y-160.112 Z0.000 F420.000
G1 X276.792 Y-159.206 Z0.000 F420.000
G1 X277.625 Y-158.213 Z0.000 F420.000
G1 X278.439 Y-157.131 Z0.000 F420.000
G1 X279.234 Y-155.955 Z0.000 F420.000
G1 X280.008 Y-154.684 Z0.000 F420.000
G1 X280.758 Y-153.316 Z0.000 F420.000
G1 X281.481 Y-151.848 Z0.000 F420.000
G1 X282.174 Y-150.282 Z0.000 F420.000
G1 X282.832 Y-148.619 Z0.000 F420.000
G1 X283.452 Y-146.866 Z0.000 F420.000
G1 X283.934 Y-145.341 Z0.000 F420.000
G1 X284.696 Y-142.446 Z0.000 F420.000
G1 X283.172 Y-141.988 Z0.000 F420.000
G1 X282.410 Y-144.884 Z0.000 F420.000
G1 X281.833 Y-146.724 Z0.000 F420.000
G1 X281.188 Y-148.522 Z0.000 F420.000
G1 X280.492 Y-150.235 Z0.000 F420.000
G1 X279.759 Y-151.839 Z0.000 F420.000
G1 X278.998 Y-153.322 Z0.000 F420.000
G1 X278.216 Y-154.682 Z0.000 F420.000
G1 X277.420 Y-155.918 Z0.000 F420.000
G1 X276.612 Y-157.033 Z0.000 F420.000
G1 X275.798 Y-158.032 Z0.000 F420.000
G1 X274.977 Y-158.921 Z0.000 F420.000
G1 X274.153 Y-159.706 Z0.000 F420.000
G1 X273.325 Y-160.391 Z0.000 F420.000
G1 X272.495 Y-160.984 Z0.000 F420.000
G1 X271.661 Y-161.488 Z0.000 F420.000
G1 X270.823 Y-161.909 Z0.000 F420.000
G1 X269.979 Y-162.250 Z0.000 F420.000
G1 X269.128 Y-162.515 Z0.000 F420.000
G1 X268.267 Y-162.705 Z0.000 F420.000
G1 X267.394 Y-162.822 Z0.000 F420.000
G1 X266.408 Y-162.867 Z0.000 F420.000
G1 X265.538 Y-162.831 Z0.000 F420.000
G1 X264.727 Y-162.727 Z0.000 F420.000
G1 X263.970 Y-162.557 Z0.000 F420.000
G1 X263.263 Y-162.326 Z0.000 F420.000
G1 X262.600 Y-162.034 Z0.000 F420.000
G1 X261.980 Y-161.682 Z0.000 F420.000
G1 X261.399 Y-161.270 Z0.000 F420.000
G1 X260.855 Y-160.796 Z0.000 F420.000
G1 X260.347 Y-160.257 Z0.000 F420.000
G1 X259.875 Y-159.651 Z0.000 F420.000
G1 X259.438 Y-158.973 Z0.000 F420.000
G1 X259.038 Y-158.218 Z0.000 F420.000
G1 X258.677 Y-157.384 Z0.000 F420.000
G1 X258.358 Y-156.464 Z0.000 F420.000
G1 X258.086 Y-155.455 Z0.000 F420.000
G1 X257.863 Y-154.353 Z0.000 F420.000
G1 X257.695 Y-153.157 Z0.000 F420.000
G1 X257.586 Y-151.865 Z0.000 F420.000
G1 X257.543 Y-150.480 Z0.000 F420.000
G1 X257.569 Y-148.999 Z0.000 F420.000
G1 X258.026 Y-145.189 Z0.000 F420.000
G1 X259.583 Y-145.099 Z0.000 F420.000
G1 X261.072 Y-144.943 Z0.000 F420.000
G1 X262.494 Y-144.721 Z0.000 F420.000
G1 X263.849 Y-144.439 Z0.000 F420.000
G1 X265.139 Y-144.097 Z0.000 F420.000
G1 X266.364 Y-143.699 Z0.000 F420.000
G1 X267.525 Y-143.247 Z0.000 F420.000
G1 X268.622 Y-142.744 Z0.000 F420.000
G1 X269.655 Y-142.192 Z0.000 F420.000
G1 X270.624 Y-141.593 Z0.000 F420.000
G1 X271.530 Y-140.950 Z0.000 F420.000
G1 X272.372 Y-140.265 Z0.000 F420.000
G1 X273.148 Y-139.542 Z0.000 F420.000
G1 X273.858 Y-138.783 Z0.000 F420.000
G1 X274.501 Y-137.991 Z0.000 F420.000
G1 X275.075 Y-137.171 Z0.000 F420.000
G1 X275.580 Y-136.327 Z0.000 F420.000
G1 X276.012 Y-135.464 Z0.000 F420.000
G1 X276.371 Y-134.588 Z0.000 F420.000
G1 X276.656 Y-133.704 Z0.000 F420.000
G1 X276.866 Y-132.820 Z0.000 F420.000
G1 X277.001 Y-131.944 Z0.000 F420.000
G1 X277.060 Y-131.082 Z0.000 F420.000
G1 X277.046 Y-130.244 Z0.000 F420.000
G1 X276.961 Y-129.435 Z0.000 F420.000
G1 X276.807 Y-128.663 Z0.000 F420.000
G1 X276.588 Y-127.934 Z0.000 F420.000
G1 X276.307 Y-127.252 Z0.000 F420.000
G1 X275.969 Y-126.622 Z0.000 F420.000
G1 X275.578 Y-126.047 Z0.000 F420.000
G1 X275.137 Y-125.528 Z0.000 F420.000
G1 X274.649 Y-125.066 Z0.000 F420.000
G1 X274.116 Y-124.664 Z0.000 F420.000
G1 X273.540 Y-124.320 Z0.000 F420.000
G1 X272.921 Y-124.038 Z0.000 F420.000
G1 X272.260 Y-123.817 Z0.000 F420.000
G1 X271.556 Y-123.660 Z0.000 F420.000
G1 X270.809 Y-123.570 Z0.000 F420.000
G1 X270.442 Y-123.551 Z0.000 F420.000
G1 X270.065 Y-123.548 Z0.000 F420.000
G1 X269.086 Y-123.584 Z0.000 F420.000
G1 X268.113 Y-123.692 Z0.000 F420.000
G1 X267.145 Y-123.871 Z0.000 F420.000
G1 X266.182 Y-124.123 Z0.000 F420.000
G1 X265.224 Y-124.448 Z0.000 F420.000
G1 X264.271 Y-124.848 Z0.000 F420.000
G1 X263.323 Y-125.324 Z0.000 F420.000
G1 X262.382 Y-125.877 Z0.000 F420.000
G1 X261.448 Y-126.510 Z0.000 F420.000
G1 X260.523 Y-127.223 Z0.000 F420.000
G1 X259.612 Y-128.019 Z0.000 F420.000
G1 X258.716 Y-128.896 Z0.000 F420.000
G1 X257.839 Y-129.856 Z0.000 F420.000
G1 X256.987 Y-130.896 Z0.000 F420.000
G1 X256.164 Y-132.016 Z0.000 F420.000
G1 X255.376 Y-133.210 Z0.000 F420.000
G1 X254.628 Y-134.474 Z0.000 F420.000
G1 X253.927 Y-135.802 Z0.000 F420.000
G1 X253.279 Y-137.186 Z0.000 F420.000
G1 X252.688 Y-138.616 Z0.000 F420.000
G1 X252.162 Y-140.082 Z0.000 F420.000
G1 X251.704 Y-141.572 Z0.000 F420.000
G1 X251.318 Y-143.076 Z0.000 F420.000
G1 X251.007 Y-144.580 Z0.000 F420.000
G1 X250.772 Y-146.074 Z0.000 F420.000
G1 X250.615 Y-147.546 Z0.000 F420.000
G1 X250.583 Y-147.968 Z0.000 F420.000
G1 X250.558 Y-148.389 Z0.000 F420.000
G1 X250.524 Y-149.731 Z0.000 F420.000
G1 X250.564 Y-151.041 Z0.000 F420.000
G1 X250.675 Y-152.310 Z0.000 F420.000
G1 X250.855 Y-153.532 Z0.000 F420.000
G1 X251.100 Y-154.700 Z0.000 F420.000
G1 X251.408 Y-155.810 Z0.000 F420.000
G1 X251.775 Y-156.859 Z0.000 F420.000
G1 X252.197 Y-157.846 Z0.000 F420.000
G1 X252.671 Y-158.768 Z0.000 F420.000
G1 X253.195 Y-159.626 Z0.000 F420.000
G1 X253.765 Y-160.420 Z0.000 F420.000
G1 X254.380 Y-161.151 Z0.000 F420.000
G1 X255.038 Y-161.820 Z0.000 F420.000
G1 X255.740 Y-162.427 Z0.000 F420.000
G1 X256.483 Y-162.974 Z0.000 F420.000
G1 X257.270 Y-163.461 Z0.000 F420.000
G1 X258.100 Y-163.889 Z0.000 F420.000
G1 X258.975 Y-164.256 Z0.000 F420.000
G1 X259.896 Y-164.563 Z0.000 F420.000
G1 X260.865 Y-164.808 Z0.000 F420.000
G1 X261.885 Y-164.990 Z0.000 F420.000
G1 X262.958 Y-165.105 Z0.000 F420.000
G1 X264.274 Y-165.153 Z0.000 F420.000
G0 Z12.000
G0 Z12.000
G0 X283.019 Y-145.494
G0 Z0.000
G1 X283.019 Y-145.494 Z0.000 F420.000
G1 X282.424 Y-146.051 Z0.000 F420.000
G1 X281.863 Y-146.676 Z0.000 F420.000
G1 X281.341 Y-147.365 Z0.000 F420.000
G1 X280.867 Y-148.111 Z0.000 F420.000
G1 X280.446 Y-148.906 Z0.000 F420.000
G1 X280.088 Y-149.741 Z0.000 F420.000
G1 X279.795 Y-150.605 Z0.000 F420.000
G1 X279.574 Y-151.486 Z0.000 F420.000
G1 X279.427 Y-152.371 Z0.000 F420.000
G1 X279.362 Y-153.114 Z0.000 F420.000
G1 X279.349 Y-154.033 Z0.000 F420.000
G1 X279.409 Y-154.946 Z0.000 F420.000
G1 X279.541 Y-155.845 Z0.000 F420.000
G1 X279.745 Y-156.721 Z0.000 F420.000
G1 X280.017 Y-157.569 Z0.000 F420.000
G1 X280.355 Y-158.383 Z0.000 F420.000
G1 X280.757 Y-159.158 Z0.000 F420.000
G1 X281.221 Y-159.891 Z0.000 F420.000
G1 X281.744 Y-160.581 Z0.000 F420.000
G1 X282.325 Y-161.225 Z0.000 F420.000
G1 X282.963 Y-161.822 Z0.000 F420.000
G1 X283.658 Y-162.370 Z0.000 F420.000
G1 X284.410 Y-162.869 Z0.000 F420.000
G1 X285.219 Y-163.317 Z0.000 F420.000
G1 X286.086 Y-163.712 Z0.000 F420.000
G1 X287.013 Y-164.052 Z0.000 F420.000
G1 X288.002 Y-164.336 Z0.000 F420.000
G1 X289.053 Y-164.561 Z0.000 F420.000
G1 X290.170 Y-164.723 Z0.000 F420.000
G1 X291.355 Y-164.820 Z0.000 F420.000
G1 X291.905 Y-164.841 Z0.000 F420.000
G1 X292.468 Y-164.848 Z0.000 F420.000
G1 X293.636 Y-164.812 Z0.000 F420.000
G1 X294.804 Y-164.704 Z0.000 F420.000
G1 X295.966 Y-164.524 Z0.000 F420.000
G1 X297.117 Y-164.273 Z0.000 F420.000
G1 X298.253 Y-163.951 Z0.000 F420.000
G1 X299.366 Y-163.560 Z0.000 F420.000
G1 X300.450 Y-163.102 Z0.000 F420.000
G1 X301.500 Y-162.580 Z0.000 F420.000
G1 X302.510 Y-161.998 Z0.000 F420.000
G1 X303.474 Y-161.358 Z0.000 F420.000
G1 X304.386 Y-160.665 Z0.000 F420.000
G1 X305.243 Y-159.923 Z0.000 F420.000
G1 X306.039 Y-159.136 Z0.000 F420.000
G1 X306.773 Y-158.309 Z0.000 F420.000
G1 X307.441 Y-157.446 Z0.000 F420.000
G1 X308.041 Y-156.552 Z0.000 F420.000
G1 X308.572 Y-155.629 Z0.000 F420.000
G1 X309.033 Y-154.682 Z0.000 F420.000
G1 X309.423 Y-153.712 Z0.000 F420.000
G1 X309.742 Y-152.723 Z0.000 F420.000
G1 X309.989 Y-151.717 Z0.000 F420.000
G1 X310.165 Y-150.695 Z0.000 F420.000
G1 X310.268 Y-149.659 Z0.000 F420.000
G1 X310.291 Y-149.179 Z0.000 F420.000
G1 X310.299 Y-148.694 Z0.000 F420.000
G1 X310.263 Y-147.755 Z0.000 F420.000
G1 X310.155 Y-146.806 Z0.000 F420.000
G1 X309.973 Y-145.841 Z0.000 F420.000
G1 X309.714 Y-144.856 Z0.000 F420.000
G1 X309.375 Y-143.847 Z0.000 F420.000
G1 X308.949 Y-142.807 Z0.000 F420.000
G1 X308.432 Y-141.730 Z0.000 F420.000
G1 X307.813 Y-140.609 Z0.000 F420.000
G1 X307.084 Y-139.433 Z0.000 F420.000
G1 X306.229 Y-138.192 Z0.000 F420.000
G1 X305.232 Y-136.866 Z0.000 F420.000
G1 X304.062 Y-135.428 Z0.000 F420.000
G1 X302.673 Y-133.829 Z0.000 F420.000
G1 X300.965 Y-131.963 Z0.000 F420.000
G1 X298.620 Y-129.486 Z0.000 F420.000
G1 X296.963 Y-127.736 Z0.000 F420.000
G1 X295.058 Y-125.662 Z0.000 F420.000
G1 X293.631 Y-124.008 Z0.000 F420.000
G1 X292.507 Y-122.595 Z0.000 F420.000
G1 X291.602 Y-121.338 Z0.000 F420.000
G1 X291.423 Y-121.071 Z0.000 F420.000
G1 X291.249 Y-120.805 Z0.000 F420.000
G1 X291.840 Y-117.589 Z0.000 F420.000
G1 X292.051 Y-116.094 Z0.000 F420.000
G1 X292.148 Y-114.897 Z0.000 F420.000
G1 X292.163 Y-114.252 Z0.000 F420.000
G1 X292.210 Y-113.430 Z0.000 F420.000
G1 X292.183 Y-112.700 Z0.000 F420.000
G1 X292.091 Y-112.060 Z0.000 F420.000
G1 X291.941 Y-111.506 Z0.000 F420.000
G1 X291.743 Y-111.037 Z0.000 F420.000
G1 X291.505 Y-110.648 Z0.000 F420.000
G1 X291.233 Y-110.338 Z0.000 F420.000
G1 X290.935 Y-110.103 Z0.000 F420.000
G1 X290.617 Y-109.942 Z0.000 F420.000
G1 X290.284 Y-109.852 Z0.000 F420.000
G1 X290.030 Y-109.832 Z0.000 F420.000
G1 X289.681 Y-109.868 Z0.000 F420.000
G1 X289.329 Y-109.977 Z0.000 F420.000
G1 X288.979 Y-110.162 Z0.000 F420.000
G1 X288.637 Y-110.426 Z0.000 F420.000
G1 X288.312 Y-110.771 Z0.000 F420.000
G1 X288.014 Y-111.194 Z0.000 F420.000
G1 X287.755 Y-111.693 Z0.000 F420.000
G1 X287.546 Y-112.261 Z0.000 F420.000
G1 X287.393 Y-112.890 Z0.000 F420.000
G1 X287.306 Y-113.571 Z0.000 F420.000
G1 X287.287 Y-114.099 Z0.000 F420.000
G1 X287.323 Y-115.080 Z0.000 F420.000
G1 X287.432 Y-116.074 Z0.000 F420.000
G1 X287.615 Y-117.085 Z0.000 F420.000
G1 X287.876 Y-118.117 Z0.000 F420.000
G1 X288.219 Y-119.173 Z0.000 F420.000
G1 X288.646 Y-120.257 Z0.000 F420.000
G1 X289.013 Y-121.064 Z0.000 F420.000
G1 X289.420 Y-121.872 Z0.000 F420.000
G1 X288.615 Y-124.834 Z0.000 F420.000
G1 X287.583 Y-128.370 Z0.000 F420.000
G1 X286.252 Y-132.695 Z0.000 F420.000
G1 X284.414 Y-138.477 Z0.000 F420.000
G1 X282.257 Y-145.341 Z0.000 F420.000
G1 X283.019 Y-145.494 Z0.000 F420.000
G0 Z12.000
(Finish operation: Engrave)
(Begin postamble)
M5
G17 G90
M2
