%
(Header)
(Generated by gcodetools from Inkscape.)
(Using default header. To add your own header create file "header" in the output dir.)
M3
(Header end.)
G21 (All units in mm)

(Start cutting path id: path112)
(Change tool to Default tool)

G00 Z5.000000
G00 X387.882800 Y732.375050

G01 Z-0.125000 F100.0(Penetrate)
G01 X350.986630 Y713.453940 Z-0.125000 F400.000000
G01 X327.335240 Y704.939440 Z-0.125000
G01 X299.426600 Y701.155210 Z-0.125000
G01 X277.667320 Y706.358520 Z-0.125000
G01 X261.111350 Y721.495410 Z-0.125000
G01 X257.800150 Y743.727720 Z-0.125000
G01 X268.679790 Y771.636360 Z-0.125000
G01 X295.642380 Y798.125910 Z-0.125000
G01 X333.011570 Y817.520050 Z-0.125000
G01 X374.552020 Y831.180520 Z-0.125000
G01 X398.031400 Y831.180520 Z-0.125000
G01 X435.300250 Y817.391050 Z-0.125000
G01 X450.207800 Y786.830580 Z-0.125000
G01 X439.399830 Y753.288610 Z-0.125000
G01 X408.466680 Y715.274380 Z-0.125000
G01 X377.160840 Y675.769390 Z-0.125000
G01 X336.537780 Y611.666950 Z-0.125000
G01 X261.254690 Y516.258680 Z-0.125000
G01 X229.576160 Y480.853270 Z-0.125000
G01 X198.270320 Y468.927230 Z-0.125000
G01 X167.337170 Y469.672610 Z-0.125000
G01 X145.348540 Y483.089400 Z-0.125000
G01 X137.522080 Y509.922970 Z-0.125000
G01 X147.584670 Y539.738060 Z-0.125000
G01 X165.473730 Y557.999800 Z-0.125000
G01 X217.650130 Y597.504790 Z-0.125000
G01 X307.468070 Y635.891710 Z-0.125000
G01 X381.855860 Y663.827480 Z-0.125000
G01 X444.839680 Y689.653480 Z-0.125000
G01 X482.524560 Y710.735930 Z-0.125000
G01 X496.228150 Y717.587720 Z-0.125000
G00 Z5.000000

(End cutting path id: path112)


(Start cutting path id: path202)
(Change tool to Default tool)

G00 Z5.000000
G00 X1626.798500 Y397.206370

G01 Z-0.125000 F100.0(Penetrate)
G01 X1674.329800 Y401.039540 Z-0.125000 F400.000000
G01 X1698.095500 Y402.572810 Z-0.125000
G01 X1732.594000 Y417.905500 Z-0.125000
G01 X1757.126300 Y431.704920 Z-0.125000
G01 X1778.592100 Y454.703960 Z-0.125000
G01 X1793.924800 Y476.936360 Z-0.125000
G01 X1806.190900 Y495.335590 Z-0.125000
G00 Z5.000000

(End cutting path id: path202)


(Start cutting path id: path201)
(Change tool to Default tool)

G00 Z5.000000
G00 X1626.798500 Y601.897780

G01 Z-0.125000 F100.0(Penetrate)
G01 X1650.564100 Y568.932500 Z-0.125000 F400.000000
G01 X1659.763700 Y549.766640 Z-0.125000
G01 X1674.329800 Y520.634520 Z-0.125000
G01 X1685.062700 Y499.935390 Z-0.125000
G01 X1691.195800 Y476.169720 Z-0.125000
G01 X1677.396300 Y450.870780 Z-0.125000
G01 X1656.697200 Y433.238190 Z-0.125000
G01 X1645.197700 Y414.838960 Z-0.125000
G01 X1626.031800 Y398.739640 Z-0.125000
G01 X1581.567000 Y405.639350 Z-0.125000
G01 X1567.001000 Y410.239150 Z-0.125000
G01 X1545.535200 Y419.438770 Z-0.125000
G00 Z5.000000

(End cutting path id: path201)


(Start cutting path id: path200)
(Change tool to Default tool)

G00 Z5.000000
G00 X1345.443600 Y443.204440

G01 Z-0.125000 F100.0(Penetrate)
G01 X1388.375100 Y459.303760 Z-0.125000 F400.000000
G01 X1426.706800 Y474.636450 Z-0.125000
G01 X1460.438800 Y515.268080 Z-0.125000
G01 X1464.271900 Y544.400190 Z-0.125000
G01 X1455.072300 Y567.399230 Z-0.125000
G01 X1430.540000 Y579.665380 Z-0.125000
G01 X1389.141800 Y575.832210 Z-0.125000
G01 X1367.676000 Y554.366440 Z-0.125000
G01 X1348.510100 Y532.134040 Z-0.125000
G03 X1335.840609 Y515.471741 Z-0.125000 I420.129790 J-332.601447
G03 X1333.177400 Y509.135010 Z-0.125000 I12.037159 J-8.787006
G02 X1331.879013 Y501.752464 Z-0.125000 I-413.027669 J68.834802
G02 X1326.277700 Y471.569920 Z-0.125000 I-33500.654618 J6201.480210
G03 X1325.609945 Y448.705639 Z-0.125000 I10434.736535 J-316.189879
G03 X1325.511100 Y441.671170 Z-0.125000 I250.259542 J-7.034469
G03 X1325.890306 Y437.698287 Z-0.125000 I21.001230 J0.000000
G03 X1329.248450 Y422.888623 Z-0.125000 I228.308323 J43.984150
G03 X1333.474588 Y408.788904 Z-0.125000 I200.248805 J52.337772
G03 X1337.010600 Y401.806170 Z-0.125000 I26.194401 J8.878005
G03 X1347.162861 Y392.852728 Z-0.125000 I23.582680 J16.507759
G03 X1381.475400 Y375.740600 Z-0.125000 I392.757757 J744.584667
G01 X1455.072300 Y394.906460 Z-0.125000
G01 X1475.004800 Y412.539060 Z-0.125000
G01 X1501.070400 Y439.371270 Z-0.125000
G01 X1528.669300 Y468.503380 Z-0.125000
G01 X1553.968200 Y496.102220 Z-0.125000
G01 X1572.367400 Y520.634520 Z-0.125000
G01 X1605.332700 Y575.065580 Z-0.125000
G01 X1619.132100 Y595.764710 Z-0.125000
G01 X1648.264200 Y634.863070 Z-0.125000
G00 Z5.000000

(End cutting path id: path200)


(Start cutting path id: path199)
(Change tool to Default tool)

G00 Z5.000000
G00 X1085.746100 Y465.915980

G01 Z-0.125000 F100.0(Penetrate)
G01 X1084.165000 Y424.805210 Z-0.125000 F400.000000
G01 X1097.868600 Y400.033330 Z-0.125000
G01 X1116.842800 Y384.748550 Z-0.125000
G01 X1137.925200 Y377.896760 Z-0.125000
G01 X1177.981900 Y388.437980 Z-0.125000
G01 X1204.862000 Y408.466310 Z-0.125000
G01 X1231.215000 Y431.129940 Z-0.125000
G01 X1252.824600 Y452.212390 Z-0.125000
G01 X1270.217600 Y475.403090 Z-0.125000
G01 X1278.650600 Y507.026760 Z-0.125000
G01 X1273.379900 Y534.961010 Z-0.125000
G01 X1255.459900 Y551.299900 Z-0.125000
G01 X1226.471500 Y550.245780 Z-0.125000
G01 X1204.334900 Y536.542190 Z-0.125000
G01 X1197.483100 Y507.026760 Z-0.125000
G01 X1212.240800 Y473.294840 Z-0.125000
G01 X1243.337500 Y452.212390 Z-0.125000
G01 X1281.812900 Y444.833530 Z-0.125000
G01 X1312.382500 Y442.198230 Z-0.125000
G00 Z5.000000

(End cutting path id: path199)


(Start cutting path id: path198)
(Change tool to Default tool)

G00 Z5.000000
G00 X950.818470 Y538.650430

G01 Z-0.125000 F100.0(Penetrate)
G01 X918.140670 Y493.323170 Z-0.125000 F400.000000
G01 X898.112340 Y455.374760 Z-0.125000
G01 X883.354630 Y422.696960 Z-0.125000
G01 X890.733490 Y387.910920 Z-0.125000
G01 X910.761810 Y372.099080 Z-0.125000
G01 X955.034960 Y373.153210 Z-0.125000
G01 X1002.470500 Y401.614510 Z-0.125000
G01 X1042.527100 Y449.050020 Z-0.125000
G01 X1073.096700 Y483.836070 Z-0.125000
G00 Z5.000000

(End cutting path id: path198)


(Start cutting path id: path197)
(Change tool to Default tool)

G00 Z5.000000
G00 X728.398630 Y542.866920

G01 Z-0.125000 F100.0(Penetrate)
G01 X692.558460 Y498.593780 Z-0.125000 F400.000000
G01 X661.988910 Y443.779410 Z-0.125000
G01 X652.501810 Y400.560390 Z-0.125000
G01 X680.963110 Y357.341370 Z-0.125000
G01 X721.019770 Y357.341370 Z-0.125000
G01 X761.076420 Y374.207330 Z-0.125000
G01 X795.862460 Y420.588720 Z-0.125000
G01 X825.377890 Y465.915980 Z-0.125000
G01 X852.785080 Y523.892720 Z-0.125000
G01 X863.326300 Y550.245780 Z-0.125000
G00 Z5.000000

(End cutting path id: path197)


(Start cutting path id: path196)
(Change tool to Default tool)

G00 Z5.000000
G00 X1187.469000 Y714.688890

G01 Z-0.125000 F100.0(Penetrate)
G01 X1238.066800 Y761.070280 Z-0.125000 F400.000000
G01 X1287.610600 Y787.950400 Z-0.125000
G01 X1333.464900 Y783.733910 Z-0.125000
G01 X1344.533200 Y739.460760 Z-0.125000
G01 X1319.234300 Y696.241740 Z-0.125000
G01 X1276.015200 Y655.130970 Z-0.125000
G01 X1231.215000 Y606.641330 Z-0.125000
G01 X1180.617200 Y556.570520 Z-0.125000
G01 X1103.139200 Y493.850230 Z-0.125000
G01 X1082.056700 Y482.781940 Z-0.125000
G01 X1081.002600 Y513.351500 Z-0.125000
G01 X1114.734500 Y597.681290 Z-0.125000
G01 X1141.614600 Y651.441540 Z-0.125000
G01 X1162.170000 Y680.956970 Z-0.125000
G01 X1187.469000 Y714.688890 Z-0.125000
G00 Z5.000000

(End cutting path id: path196)


(Start cutting path id: path195)
(Change tool to Default tool)

G00 Z5.000000
G00 X1024.080000 Y655.658030

G01 Z-0.125000 F100.0(Penetrate)
G01 X976.644470 Y581.869460 Z-0.125000 F400.000000
G00 Z5.000000

(End cutting path id: path195)


(Start cutting path id: path194)
(Change tool to Default tool)

G00 Z5.000000
G00 X1006.159900 Y831.169420

G01 Z-0.125000 F100.0(Penetrate)
G01 X966.630300 Y818.519950 Z-0.125000 F400.000000
G01 X929.736020 Y805.343420 Z-0.125000
G01 X892.841730 Y770.557380 Z-0.125000
G01 X887.571120 Y746.312560 Z-0.125000
G01 X898.112340 Y722.594800 Z-0.125000
G01 X918.140670 Y709.945340 Z-0.125000
G01 X943.966670 Y710.472400 Z-0.125000
G01 X988.239810 Y733.136030 Z-0.125000
G01 X1027.242300 Y761.597340 Z-0.125000
G01 X1079.421400 Y796.910440 Z-0.125000
G01 X1166.386500 Y864.901340 Z-0.125000
G01 X1201.172600 Y905.485050 Z-0.125000
G01 X1232.269200 Y938.162850 Z-0.125000
G01 X1243.864500 Y958.191180 Z-0.125000
G01 X1245.445700 Y974.530070 Z-0.125000
G01 X1235.431500 Y984.544240 Z-0.125000
G01 X1213.822000 Y987.706610 Z-0.125000
G01 X1187.996000 Y980.327750 Z-0.125000
G01 X1161.643000 Y962.407670 Z-0.125000
G01 X1122.113400 Y926.040440 Z-0.125000
G01 X1091.543800 Y892.835580 Z-0.125000
G01 X1054.649500 Y833.804730 Z-0.125000
G01 X1035.148300 Y797.437500 Z-0.125000
G01 X1032.513000 Y755.272600 Z-0.125000
G01 X1032.513000 Y726.811290 Z-0.125000
G01 X1050.960100 Y709.418270 Z-0.125000
G01 X1070.461400 Y706.255910 Z-0.125000
G01 X1108.409800 Y716.270070 Z-0.125000
G01 X1131.073400 Y733.663090 Z-0.125000
G01 X1153.210000 Y753.691420 Z-0.125000
G00 Z5.000000

(End cutting path id: path194)


(Start cutting path id: path193)
(Change tool to Default tool)

G00 Z5.000000
G00 X753.170500 Y792.166890

G01 Z-0.125000 F100.0(Penetrate)
G01 X720.492710 Y758.962030 Z-0.125000 F400.000000
G01 X709.424420 Y736.298400 Z-0.125000
G01 X721.019770 Y707.310030 Z-0.125000
G01 X743.156340 Y691.498190 Z-0.125000
G01 X771.617650 Y692.552310 Z-0.125000
G01 X810.093120 Y706.255910 Z-0.125000
G01 X838.027360 Y730.500720 Z-0.125000
G01 X853.312140 Y757.907910 Z-0.125000
G01 X858.055690 Y786.896280 Z-0.125000
G01 X842.770910 Y810.614030 Z-0.125000
G01 X819.053160 Y822.736440 Z-0.125000
G01 X787.956550 Y826.425870 Z-0.125000
G00 Z5.000000

(End cutting path id: path193)


(Start cutting path id: path192)
(Change tool to Default tool)

G00 Z5.000000
G00 X585.037970 Y797.964560

G01 Z-0.125000 F100.0(Penetrate)
G01 X563.955520 Y777.936230 Z-0.125000 F400.000000
G01 X553.150770 Y761.070270 Z-0.125000
G01 X542.346010 Y738.933700 Z-0.125000
G01 X549.724870 Y713.634760 Z-0.125000
G01 X570.543790 Y699.931170 Z-0.125000
G01 X592.943890 Y696.505270 Z-0.125000
G01 X628.784050 Y702.039420 Z-0.125000
G01 X650.130030 Y716.270070 Z-0.125000
G01 X665.678340 Y730.237190 Z-0.125000
G01 X678.064280 Y756.063190 Z-0.125000
G01 X686.497260 Y781.889190 Z-0.125000
G01 X685.179600 Y805.079890 Z-0.125000
G01 X674.638380 Y819.047010 Z-0.125000
G01 X649.339440 Y828.797640 Z-0.125000
G01 X621.932260 Y832.750600 Z-0.125000
G00 Z5.000000

(End cutting path id: path192)


(Footer)
M5
G00 X0.0000 Y0.0000
M2
(Using default footer. To add your own footer create file "footer" in the output dir.)
(end)
%
