(Exported by FreeCAD)
(Post Processor: grbl_post)
(Output Time:2025-11-23 17:23:16.185916)
(Begin preamble)
G17 G90
G21
(Begin operation: Fixture)
(Path: Fixture)
G54
(Finish operation: Fixture)
(Begin operation: TC: Default Tool)
(Path: TC: Default Tool)
(TC: Default Tool)
(Begin toolchange)
( M6 T1 )
(Finish operation: TC: Default Tool)
(Begin operation: Profile)
(Path: Profile)
(Profile)
(Compensated Tool Path. Diameter: 5.0)
G0 Z9.000
G0 X-81.689 Y280.362
G0 Z7.000
G1 X-81.689 Y280.362 Z-3.000 F420.000
G1 X-89.016 Y290.756 Z-3.000 F420.000
G1 X-102.046 Y300.330 Z-3.000 F420.000
G1 X-114.496 Y304.160 Z-3.000 F420.000
G1 X-125.911 Y304.160 Z-3.000 F420.000
G1 X-139.967 Y299.483 Z-3.000 F420.000
G1 X-150.554 Y293.209 Z-3.000 F420.000
G1 X-162.260 Y283.685 Z-3.000 F420.000
G1 X-174.893 Y269.860 Z-3.000 F420.000
G1 X-188.087 Y253.033 Z-3.000 F420.000
G1 X-188.272 Y252.822 Z-3.000 F420.000
G1 X-200.876 Y240.015 Z-3.000 F420.000
G1 X-201.366 Y239.628 Z-3.000 F420.000
G1 X-214.173 Y231.904 Z-3.000 F420.000
G2 X-214.964 Y231.595 Z3.000 I-1.291 J2.141 K0.000 F420.000
G1 X-229.225 Y228.690 Z-3.000 F420.000
G1 X-241.770 Y227.071 Z-3.000 F420.000
G1 X-255.255 Y224.674 Z-3.000 F420.000
G1 X-264.664 Y219.396 Z-3.000 F420.000
G1 X-269.837 Y213.189 Z-3.000 F420.000
G1 X-268.979 Y208.213 Z-3.000 F420.000
G1 X-264.316 Y205.229 Z-3.000 F420.000
G1 X-254.123 Y205.229 Z-3.000 F420.000
G1 X-253.676 Y205.189 Z-3.000 F420.000
G1 X-242.751 Y203.203 Z-3.000 F420.000
G2 X-241.369 Y202.446 Z3.000 I-0.447 J-2.460 K0.000 F420.000
G1 X-234.665 Y195.246 Z-3.000 F420.000
G2 X-233.995 Y193.543 Z3.000 I-1.830 J-1.704 K0.000 F420.000
G1 X-233.995 Y183.611 Z-3.000 F420.000
G2 X-234.548 Y182.043 Z3.000 I-2.500 J-0.000 K0.000 F420.000
G1 X-241.748 Y173.104 Z-3.000 F420.000
G2 X-242.568 Y172.441 Z3.000 I-1.947 J1.568 K0.000 F420.000
G1 X-393.158 Y96.412 Z-3.000 F420.000
G1 X-393.570 Y96.248 Z-3.000 F420.000
G1 X-403.056 Y93.418 Z-3.000 F420.000
G2 X-404.496 Y93.422 Z3.000 I-0.715 J2.396 K0.000 F420.000
G1 X-409.988 Y95.086 Z-3.000 F420.000
G1 X-410.215 Y95.167 Z-3.000 F420.000
G1 X-418.246 Y98.473 Z-3.000 F420.000
G1 X-421.951 Y98.473 Z-3.000 F420.000
G1 X-424.946 Y95.087 Z-3.000 F420.000
G1 X-428.199 Y90.533 Z-3.000 F420.000
G2 X-428.760 Y89.967 Z3.000 I-2.034 J1.453 K0.000 F420.000
G1 X-434.918 Y85.473 Z-3.000 F420.000
G2 X-436.392 Y84.992 Z3.000 I-1.474 J2.019 K0.000 F420.000
G1 X-447.893 Y84.993 Z-3.000 F420.000
G1 X-450.941 Y83.299 Z-3.000 F420.000
G1 X-452.348 Y78.727 Z-3.000 F420.000
G1 X-450.982 Y75.995 Z-3.000 F420.000
G1 X-445.285 Y72.876 Z-3.000 F420.000
G1 X-404.594 Y74.498 Z-3.000 F420.000
G1 X-398.903 Y77.565 Z-3.000 F420.000
G1 X-384.507 Y88.662 Z-3.000 F420.000
G1 X-383.981 Y88.973 Z-3.000 F420.000
G1 X-267.630 Y139.757 Z-3.000 F420.000
G1 X-262.490 Y143.055 Z-3.000 F420.000
G2 X-261.668 Y143.394 Z3.000 I1.350 J-2.104 K0.000 F420.000
G1 X-255.510 Y144.726 Z-3.000 F420.000
G1 X-255.276 Y144.765 Z-3.000 F420.000
G1 X-245.457 Y145.930 Z-3.000 F420.000
G2 X-243.648 Y145.437 Z3.000 I0.295 J-2.483 K0.000 F420.000
G1 X-235.993 Y139.612 Z-3.000 F420.000
G2 X-235.117 Y138.357 Z3.000 I-1.514 J-1.990 K0.000 F420.000
G1 X-232.454 Y129.703 Z-3.000 F420.000
G2 X-232.434 Y128.303 Z3.000 I-2.389 J-0.735 K0.000 F420.000
G1 X-235.096 Y118.650 Z-3.000 F420.000
G2 X-235.851 Y117.441 Z3.000 I-2.410 J0.665 K0.000 F420.000
G1 X-245.837 Y108.620 Z-3.000 F420.000
G1 X-246.358 Y108.266 Z-3.000 F420.000
G1 X-255.284 Y103.722 Z-3.000 F420.000
G1 X-260.704 Y99.386 Z-3.000 F420.000
G1 X-260.395 Y95.570 Z-3.000 F420.000
G1 X-256.693 Y92.361 Z-3.000 F420.000
G1 X-249.495 Y91.066 Z-3.000 F420.000
G1 X-237.575 Y93.262 Z-3.000 F420.000
G1 X-222.777 Y99.695 Z-3.000 F420.000
G1 X-208.459 Y110.109 Z-3.000 F420.000
G1 X-196.652 Y120.748 Z-3.000 F420.000
G1 X-185.257 Y130.102 Z-3.000 F420.000
G2 X-184.539 Y130.514 Z3.000 I1.586 J-1.932 K0.000 F420.000
G1 X-171.058 Y135.507 Z-3.000 F420.000
G1 X-170.588 Y135.631 Z-3.000 F420.000
G1 X-155.110 Y138.127 Z-3.000 F420.000
G1 X-154.465 Y138.147 Z-3.000 F420.000
G1 X-137.496 Y136.462 Z-3.000 F420.000
G1 X-118.517 Y133.987 Z-3.000 F420.000
G1 X-98.491 Y133.987 Z-3.000 F420.000
G1 X-79.912 Y140.874 Z-3.000 F420.000
G1 X-65.234 Y151.244 Z-3.000 F420.000
G1 X-51.450 Y171.414 Z-3.000 F420.000
G1 X-47.929 Y194.622 Z-3.000 F420.000
G1 X-50.184 Y210.729 Z-3.000 F420.000
G1 X-55.760 Y230.080 Z-3.000 F420.000
G1 X-63.348 Y249.199 Z-3.000 F420.000
G1 X-75.025 Y270.908 Z-3.000 F420.000
G1 X-81.689 Y280.362 Z-3.000 F420.000
G0 Z9.000
G0 Z9.000
G0 Z9.000
G0 Z9.000
(Finish operation: Profile)
(Begin postamble)
M5
G17 G90
M2
