(Exported by FreeCAD)
(Post Processor: grbl_post)
(Output Time:2025-11-24 00:15:04.465833)
(Begin preamble)
G17 G90
G21
(Begin operation: Fixture)
(Path: Fixture)
G54
(Finish operation: Fixture)
(Begin operation: TC: Default Tool)
(Path: TC: Default Tool)
(TC: Default Tool)
(Begin toolchange)
( M6 T1 )
(Finish operation: TC: Default Tool)
(Begin operation: Profile)
(Path: Profile)
(Profile)
(Compensated Tool Path. Diameter: 5.0)
G0 Z24.000
G0 X-128.257 Y512.963
G0 Z0.000
G1 X-128.257 Y512.963 Z-3.000 F420.000
G2 X-97.401 Y483.900 Z-3.000 I-255.843 J-302.535 K0.000 F420.000
G2 X-68.639 Y449.532 Z-3.000 I-242.012 J-231.761 K0.000 F420.000
G2 X-42.329 Y406.101 Z-3.000 I-230.994 J-169.614 K0.000 F420.000
G2 X-25.794 Y362.445 Z-3.000 I-218.489 J-107.714 K0.000 F420.000
G2 X-19.124 Y326.827 Z-3.000 I-209.488 J-57.668 K0.000 F420.000
G2 X-28.146 Y241.197 Z-3.000 I-207.609 J-21.415 K0.000 F420.000
G2 X-50.400 Y192.969 Z-3.000 I-218.406 J71.530 K0.000 F420.000
G2 X-82.303 Y151.055 Z-3.000 I-228.168 J140.575 K0.000 F420.000
G2 X-121.514 Y115.524 Z-3.000 I-234.653 J219.556 K0.000 F420.000
G2 X-170.162 Y83.952 Z-3.000 I-234.568 J308.167 K0.000 F420.000
G2 X-227.789 Y57.553 Z-3.000 I-221.262 J406.900 K0.000 F420.000
G2 X-312.358 Y33.410 Z-3.000 I-192.667 J514.695 K0.000 F420.000
G2 X-430.748 Y21.107 Z-3.000 I-125.028 J627.343 K0.000 F420.000
G2 X-608.416 Y42.302 Z-3.000 I-8.150 J686.921 K0.000 F420.000
G2 X-698.919 Y72.690 Z-3.000 I153.548 J607.263 K0.000 F420.000
G2 X-766.985 Y107.076 Z-3.000 I211.806 J503.837 K0.000 F420.000
G2 X-820.347 Y143.941 Z-3.000 I238.977 J402.969 K0.000 F420.000
G2 X-860.265 Y180.426 Z-3.000 I246.796 J310.098 K0.000 F420.000
G2 X-889.040 Y214.791 Z-3.000 I242.026 J231.880 K0.000 F420.000
G2 X-915.364 Y258.222 Z-3.000 I231.011 J169.714 K0.000 F420.000
G2 X-931.913 Y301.877 Z-3.000 I218.504 J107.795 K0.000 F420.000
G2 X-938.595 Y337.496 Z-3.000 I209.496 J57.736 K0.000 F420.000
G2 X-929.565 Y423.232 Z-3.000 I207.608 J21.479 K0.000 F420.000
G2 X-907.289 Y471.477 Z-3.000 I218.424 J-71.587 K0.000 F420.000
G2 X-875.370 Y513.388 Z-3.000 I228.183 J-140.674 K0.000 F420.000
G2 X-836.145 Y548.913 Z-3.000 I234.660 J-219.677 K0.000 F420.000
G2 X-787.484 Y580.479 Z-3.000 I234.560 J-308.308 K0.000 F420.000
G2 X-729.844 Y606.869 Z-3.000 I221.230 J-407.050 K0.000 F420.000
G2 X-657.706 Y628.351 Z-3.000 I192.103 J-513.232 K0.000 F420.000
G2 X-564.642 Y641.774 Z-3.000 I136.220 J-615.127 K0.000 F420.000
G2 X-349.132 Y622.040 Z-3.000 I45.968 J-684.615 K0.000 F420.000
G2 X-258.707 Y591.655 Z-3.000 I-153.671 J-607.070 K0.000 F420.000
G2 X-190.654 Y557.261 Z-3.000 I-211.852 J-503.695 K0.000 F420.000
G2 X-137.306 Y520.389 Z-3.000 I-238.995 J-402.823 K0.000 F420.000
G2 X-128.257 Y512.963 Z-3.000 I-246.794 J-309.962 K0.000 F420.000
G1 X-128.257 Y512.963 Z-6.000 F420.000
G2 X-97.401 Y483.900 Z-6.000 I-255.843 J-302.535 K0.000 F420.000
G2 X-68.639 Y449.532 Z-6.000 I-242.012 J-231.761 K0.000 F420.000
G2 X-42.329 Y406.101 Z-6.000 I-230.994 J-169.614 K0.000 F420.000
G2 X-25.794 Y362.445 Z-6.000 I-218.489 J-107.714 K0.000 F420.000
G2 X-19.124 Y326.827 Z-6.000 I-209.488 J-57.668 K0.000 F420.000
G2 X-28.146 Y241.197 Z-6.000 I-207.609 J-21.415 K0.000 F420.000
G2 X-50.400 Y192.969 Z-6.000 I-218.406 J71.530 K0.000 F420.000
G2 X-82.303 Y151.055 Z-6.000 I-228.168 J140.575 K0.000 F420.000
G2 X-121.514 Y115.524 Z-6.000 I-234.653 J219.556 K0.000 F420.000
G2 X-170.162 Y83.952 Z-6.000 I-234.568 J308.167 K0.000 F420.000
G2 X-227.789 Y57.553 Z-6.000 I-221.262 J406.900 K0.000 F420.000
G2 X-312.358 Y33.410 Z-6.000 I-192.667 J514.695 K0.000 F420.000
G2 X-430.748 Y21.107 Z-6.000 I-125.028 J627.343 K0.000 F420.000
G2 X-608.416 Y42.302 Z-6.000 I-8.150 J686.921 K0.000 F420.000
G2 X-698.919 Y72.690 Z-6.000 I153.548 J607.263 K0.000 F420.000
G2 X-766.985 Y107.076 Z-6.000 I211.806 J503.837 K0.000 F420.000
G2 X-820.347 Y143.941 Z-6.000 I238.977 J402.969 K0.000 F420.000
G2 X-860.265 Y180.426 Z-6.000 I246.796 J310.098 K0.000 F420.000
G2 X-889.040 Y214.791 Z-6.000 I242.026 J231.880 K0.000 F420.000
G2 X-915.364 Y258.222 Z-6.000 I231.011 J169.714 K0.000 F420.000
G2 X-931.913 Y301.877 Z-6.000 I218.504 J107.795 K0.000 F420.000
G2 X-938.595 Y337.496 Z-6.000 I209.496 J57.736 K0.000 F420.000
G2 X-929.565 Y423.232 Z-6.000 I207.608 J21.479 K0.000 F420.000
G2 X-907.289 Y471.477 Z-6.000 I218.424 J-71.587 K0.000 F420.000
G2 X-875.370 Y513.388 Z-6.000 I228.183 J-140.674 K0.000 F420.000
G2 X-836.145 Y548.913 Z-6.000 I234.660 J-219.677 K0.000 F420.000
G2 X-787.484 Y580.479 Z-6.000 I234.560 J-308.308 K0.000 F420.000
G2 X-729.844 Y606.869 Z-6.000 I221.230 J-407.050 K0.000 F420.000
G2 X-657.706 Y628.351 Z-6.000 I192.103 J-513.232 K0.000 F420.000
G2 X-564.642 Y641.774 Z-6.000 I136.220 J-615.127 K0.000 F420.000
G2 X-349.132 Y622.040 Z-6.000 I45.968 J-684.615 K0.000 F420.000
G2 X-258.707 Y591.655 Z-6.000 I-153.671 J-607.070 K0.000 F420.000
G2 X-190.654 Y557.261 Z-6.000 I-211.852 J-503.695 K0.000 F420.000
G2 X-137.306 Y520.389 Z-6.000 I-238.995 J-402.823 K0.000 F420.000
G2 X-128.257 Y512.963 Z-6.000 I-246.794 J-309.962 K0.000 F420.000
G1 X-128.257 Y512.963 Z-9.000 F420.000
G2 X-97.401 Y483.900 Z-9.000 I-255.843 J-302.535 K0.000 F420.000
G2 X-68.639 Y449.532 Z-9.000 I-242.012 J-231.761 K0.000 F420.000
G2 X-42.329 Y406.101 Z-9.000 I-230.994 J-169.614 K0.000 F420.000
G2 X-25.794 Y362.445 Z-9.000 I-218.489 J-107.714 K0.000 F420.000
G2 X-19.124 Y326.827 Z-9.000 I-209.488 J-57.668 K0.000 F420.000
G2 X-28.146 Y241.197 Z-9.000 I-207.609 J-21.415 K0.000 F420.000
G2 X-50.400 Y192.969 Z-9.000 I-218.406 J71.530 K0.000 F420.000
G2 X-82.303 Y151.055 Z-9.000 I-228.168 J140.575 K0.000 F420.000
G2 X-121.514 Y115.524 Z-9.000 I-234.653 J219.556 K0.000 F420.000
G2 X-170.162 Y83.952 Z-9.000 I-234.568 J308.167 K0.000 F420.000
G2 X-227.789 Y57.553 Z-9.000 I-221.262 J406.900 K0.000 F420.000
G2 X-312.358 Y33.410 Z-9.000 I-192.667 J514.695 K0.000 F420.000
G2 X-430.748 Y21.107 Z-9.000 I-125.028 J627.343 K0.000 F420.000
G2 X-608.416 Y42.302 Z-9.000 I-8.150 J686.921 K0.000 F420.000
G2 X-698.919 Y72.690 Z-9.000 I153.548 J607.263 K0.000 F420.000
G2 X-766.985 Y107.076 Z-9.000 I211.806 J503.837 K0.000 F420.000
G2 X-820.347 Y143.941 Z-9.000 I238.977 J402.969 K0.000 F420.000
G2 X-860.265 Y180.426 Z-9.000 I246.796 J310.098 K0.000 F420.000
G2 X-889.040 Y214.791 Z-9.000 I242.026 J231.880 K0.000 F420.000
G2 X-915.364 Y258.222 Z-9.000 I231.011 J169.714 K0.000 F420.000
G2 X-931.913 Y301.877 Z-9.000 I218.504 J107.795 K0.000 F420.000
G2 X-938.595 Y337.496 Z-9.000 I209.496 J57.736 K0.000 F420.000
G2 X-929.565 Y423.232 Z-9.000 I207.608 J21.479 K0.000 F420.000
G2 X-907.289 Y471.477 Z-9.000 I218.424 J-71.587 K0.000 F420.000
G2 X-875.370 Y513.388 Z-9.000 I228.183 J-140.674 K0.000 F420.000
G2 X-836.145 Y548.913 Z-9.000 I234.660 J-219.677 K0.000 F420.000
G2 X-787.484 Y580.479 Z-9.000 I234.560 J-308.308 K0.000 F420.000
G2 X-729.844 Y606.869 Z-9.000 I221.230 J-407.050 K0.000 F420.000
G2 X-657.706 Y628.351 Z-9.000 I192.103 J-513.232 K0.000 F420.000
G2 X-564.642 Y641.774 Z-9.000 I136.220 J-615.127 K0.000 F420.000
G2 X-349.132 Y622.040 Z-9.000 I45.968 J-684.615 K0.000 F420.000
G2 X-258.707 Y591.655 Z-9.000 I-153.671 J-607.070 K0.000 F420.000
G2 X-190.654 Y557.261 Z-9.000 I-211.852 J-503.695 K0.000 F420.000
G2 X-137.306 Y520.389 Z-9.000 I-238.995 J-402.823 K0.000 F420.000
G2 X-128.257 Y512.963 Z-9.000 I-246.794 J-309.962 K0.000 F420.000
G1 X-128.257 Y512.963 Z-12.000 F420.000
G2 X-97.401 Y483.900 Z-12.000 I-255.843 J-302.535 K0.000 F420.000
G2 X-68.639 Y449.532 Z-12.000 I-242.012 J-231.761 K0.000 F420.000
G2 X-42.329 Y406.101 Z-12.000 I-230.994 J-169.614 K0.000 F420.000
G2 X-25.794 Y362.445 Z-12.000 I-218.489 J-107.714 K0.000 F420.000
G2 X-19.124 Y326.827 Z-12.000 I-209.488 J-57.668 K0.000 F420.000
G2 X-28.146 Y241.197 Z-12.000 I-207.609 J-21.415 K0.000 F420.000
G2 X-50.400 Y192.969 Z-12.000 I-218.406 J71.530 K0.000 F420.000
G2 X-82.303 Y151.055 Z-12.000 I-228.168 J140.575 K0.000 F420.000
G2 X-121.514 Y115.524 Z-12.000 I-234.653 J219.556 K0.000 F420.000
G2 X-170.162 Y83.952 Z-12.000 I-234.568 J308.167 K0.000 F420.000
G2 X-227.789 Y57.553 Z-12.000 I-221.262 J406.900 K0.000 F420.000
G2 X-312.358 Y33.410 Z-12.000 I-192.667 J514.695 K0.000 F420.000
G2 X-430.748 Y21.107 Z-12.000 I-125.028 J627.343 K0.000 F420.000
G2 X-608.416 Y42.302 Z-12.000 I-8.150 J686.921 K0.000 F420.000
G2 X-698.919 Y72.690 Z-12.000 I153.548 J607.263 K0.000 F420.000
G2 X-766.985 Y107.076 Z-12.000 I211.806 J503.837 K0.000 F420.000
G2 X-820.347 Y143.941 Z-12.000 I238.977 J402.969 K0.000 F420.000
G2 X-860.265 Y180.426 Z-12.000 I246.796 J310.098 K0.000 F420.000
G2 X-889.040 Y214.791 Z-12.000 I242.026 J231.880 K0.000 F420.000
G2 X-915.364 Y258.222 Z-12.000 I231.011 J169.714 K0.000 F420.000
G2 X-931.913 Y301.877 Z-12.000 I218.504 J107.795 K0.000 F420.000
G2 X-938.595 Y337.496 Z-12.000 I209.496 J57.736 K0.000 F420.000
G2 X-929.565 Y423.232 Z-12.000 I207.608 J21.479 K0.000 F420.000
G2 X-907.289 Y471.477 Z-12.000 I218.424 J-71.587 K0.000 F420.000
G2 X-875.370 Y513.388 Z-12.000 I228.183 J-140.674 K0.000 F420.000
G2 X-836.145 Y548.913 Z-12.000 I234.660 J-219.677 K0.000 F420.000
G2 X-787.484 Y580.479 Z-12.000 I234.560 J-308.308 K0.000 F420.000
G2 X-729.844 Y606.869 Z-12.000 I221.230 J-407.050 K0.000 F420.000
G2 X-657.706 Y628.351 Z-12.000 I192.103 J-513.232 K0.000 F420.000
G2 X-564.642 Y641.774 Z-12.000 I136.220 J-615.127 K0.000 F420.000
G2 X-349.132 Y622.040 Z-12.000 I45.968 J-684.615 K0.000 F420.000
G2 X-258.707 Y591.655 Z-12.000 I-153.671 J-607.070 K0.000 F420.000
G2 X-190.654 Y557.261 Z-12.000 I-211.852 J-503.695 K0.000 F420.000
G2 X-137.306 Y520.389 Z-12.000 I-238.995 J-402.823 K0.000 F420.000
G2 X-128.257 Y512.963 Z-12.000 I-246.794 J-309.962 K0.000 F420.000
G1 X-128.257 Y512.963 Z-15.000 F420.000
G2 X-97.401 Y483.900 Z-15.000 I-255.843 J-302.535 K0.000 F420.000
G2 X-68.639 Y449.532 Z-15.000 I-242.012 J-231.761 K0.000 F420.000
G2 X-42.329 Y406.101 Z-15.000 I-230.994 J-169.614 K0.000 F420.000
G2 X-25.794 Y362.445 Z-15.000 I-218.489 J-107.714 K0.000 F420.000
G2 X-19.124 Y326.827 Z-15.000 I-209.488 J-57.668 K0.000 F420.000
G2 X-28.146 Y241.197 Z-15.000 I-207.609 J-21.415 K0.000 F420.000
G2 X-50.400 Y192.969 Z-15.000 I-218.406 J71.530 K0.000 F420.000
G2 X-82.303 Y151.055 Z-15.000 I-228.168 J140.575 K0.000 F420.000
G2 X-121.514 Y115.524 Z-15.000 I-234.653 J219.556 K0.000 F420.000
G2 X-170.162 Y83.952 Z-15.000 I-234.568 J308.167 K0.000 F420.000
G2 X-227.789 Y57.553 Z-15.000 I-221.262 J406.900 K0.000 F420.000
G2 X-312.358 Y33.410 Z-15.000 I-192.667 J514.695 K0.000 F420.000
G2 X-430.748 Y21.107 Z-15.000 I-125.028 J627.343 K0.000 F420.000
G2 X-608.416 Y42.302 Z-15.000 I-8.150 J686.921 K0.000 F420.000
G2 X-698.919 Y72.690 Z-15.000 I153.548 J607.263 K0.000 F420.000
G2 X-766.985 Y107.076 Z-15.000 I211.806 J503.837 K0.000 F420.000
G2 X-820.347 Y143.941 Z-15.000 I238.977 J402.969 K0.000 F420.000
G2 X-860.265 Y180.426 Z-15.000 I246.796 J310.098 K0.000 F420.000
G2 X-889.040 Y214.791 Z-15.000 I242.026 J231.880 K0.000 F420.000
G2 X-915.364 Y258.222 Z-15.000 I231.011 J169.714 K0.000 F420.000
G2 X-931.913 Y301.877 Z-15.000 I218.504 J107.795 K0.000 F420.000
G2 X-938.595 Y337.496 Z-15.000 I209.496 J57.736 K0.000 F420.000
G2 X-929.565 Y423.232 Z-15.000 I207.608 J21.479 K0.000 F420.000
G2 X-907.289 Y471.477 Z-15.000 I218.424 J-71.587 K0.000 F420.000
G2 X-875.370 Y513.388 Z-15.000 I228.183 J-140.674 K0.000 F420.000
G2 X-836.145 Y548.913 Z-15.000 I234.660 J-219.677 K0.000 F420.000
G2 X-787.484 Y580.479 Z-15.000 I234.560 J-308.308 K0.000 F420.000
G2 X-729.844 Y606.869 Z-15.000 I221.230 J-407.050 K0.000 F420.000
G2 X-657.706 Y628.351 Z-15.000 I192.103 J-513.232 K0.000 F420.000
G2 X-564.642 Y641.774 Z-15.000 I136.220 J-615.127 K0.000 F420.000
G2 X-349.132 Y622.040 Z-15.000 I45.968 J-684.615 K0.000 F420.000
G2 X-258.707 Y591.655 Z-15.000 I-153.671 J-607.070 K0.000 F420.000
G2 X-190.654 Y557.261 Z-15.000 I-211.852 J-503.695 K0.000 F420.000
G2 X-137.306 Y520.389 Z-15.000 I-238.995 J-402.823 K0.000 F420.000
G2 X-128.257 Y512.963 Z-15.000 I-246.794 J-309.962 K0.000 F420.000
G1 X-128.257 Y512.963 Z-18.000 F420.000
G2 X-97.401 Y483.900 Z-18.000 I-255.843 J-302.535 K0.000 F420.000
G2 X-68.639 Y449.532 Z-18.000 I-242.012 J-231.761 K0.000 F420.000
G2 X-42.329 Y406.101 Z-18.000 I-230.994 J-169.614 K0.000 F420.000
G2 X-25.794 Y362.445 Z-18.000 I-218.489 J-107.714 K0.000 F420.000
G2 X-19.124 Y326.827 Z-18.000 I-209.488 J-57.668 K0.000 F420.000
G2 X-28.146 Y241.197 Z-18.000 I-207.609 J-21.415 K0.000 F420.000
G2 X-50.400 Y192.969 Z-18.000 I-218.406 J71.530 K0.000 F420.000
G2 X-82.303 Y151.055 Z-18.000 I-228.168 J140.575 K0.000 F420.000
G2 X-121.514 Y115.524 Z-18.000 I-234.653 J219.556 K0.000 F420.000
G2 X-170.162 Y83.952 Z-18.000 I-234.568 J308.167 K0.000 F420.000
G2 X-227.789 Y57.553 Z-18.000 I-221.262 J406.900 K0.000 F420.000
G2 X-312.358 Y33.410 Z-18.000 I-192.667 J514.695 K0.000 F420.000
G2 X-430.748 Y21.107 Z-18.000 I-125.028 J627.343 K0.000 F420.000
G2 X-608.416 Y42.302 Z-18.000 I-8.150 J686.921 K0.000 F420.000
G2 X-698.919 Y72.690 Z-18.000 I153.548 J607.263 K0.000 F420.000
G2 X-766.985 Y107.076 Z-18.000 I211.806 J503.837 K0.000 F420.000
G2 X-820.347 Y143.941 Z-18.000 I238.977 J402.969 K0.000 F420.000
G2 X-860.265 Y180.426 Z-18.000 I246.796 J310.098 K0.000 F420.000
G2 X-889.040 Y214.791 Z-18.000 I242.026 J231.880 K0.000 F420.000
G2 X-915.364 Y258.222 Z-18.000 I231.011 J169.714 K0.000 F420.000
G2 X-931.913 Y301.877 Z-18.000 I218.504 J107.795 K0.000 F420.000
G2 X-938.595 Y337.496 Z-18.000 I209.496 J57.736 K0.000 F420.000
G2 X-929.565 Y423.232 Z-18.000 I207.608 J21.479 K0.000 F420.000
G2 X-907.289 Y471.477 Z-18.000 I218.424 J-71.587 K0.000 F420.000
G2 X-875.370 Y513.388 Z-18.000 I228.183 J-140.674 K0.000 F420.000
G2 X-836.145 Y548.913 Z-18.000 I234.660 J-219.677 K0.000 F420.000
G2 X-787.484 Y580.479 Z-18.000 I234.560 J-308.308 K0.000 F420.000
G2 X-729.844 Y606.869 Z-18.000 I221.230 J-407.050 K0.000 F420.000
G2 X-657.706 Y628.351 Z-18.000 I192.103 J-513.232 K0.000 F420.000
G2 X-564.642 Y641.774 Z-18.000 I136.220 J-615.127 K0.000 F420.000
G2 X-349.132 Y622.040 Z-18.000 I45.968 J-684.615 K0.000 F420.000
G2 X-258.707 Y591.655 Z-18.000 I-153.671 J-607.070 K0.000 F420.000
G2 X-190.654 Y557.261 Z-18.000 I-211.852 J-503.695 K0.000 F420.000
G2 X-137.306 Y520.389 Z-18.000 I-238.995 J-402.823 K0.000 F420.000
G2 X-128.257 Y512.963 Z-18.000 I-246.794 J-309.962 K0.000 F420.000
G0 Z24.000
G0 Z24.000
(Finish operation: Profile)
(Begin postamble)
M5
G17 G90
M2
