(Exported by FreeCAD)
(Post Processor: grbl_post)
(Output Time:2025-11-22 00:03:34.401135)
(Begin preamble)
G17 G90
G21
(Begin operation: Fixture)
(Path: Fixture)
G54
(Finish operation: Fixture)
(Begin operation: TC: Default Tool)
(Path: TC: Default Tool)
(TC: Default Tool)
(Begin toolchange)
( M6 T1 )
(Finish operation: TC: Default Tool)
(Begin operation: Engrave)
(Path: Engrave)
(Engrave)
G0 Z10.000

G0 Z10.000
G0 Z10.000
G0 Z10.000
G0 X-477 Y247.477
G0 Z0.000
G1 X-477 Y247.477 Z0.000 F420.000
G1 X-493.406 Y285.564 Z0.000 F420.000
G1 X-496.547 Y285.564 Z0.000 F420.000
G1 X-534.819 Y209.508 Z0.000 F420.000
G0 Z10.000
G0 Z10.000
G0 X-452.910 Y209.508
G0 Z0.000
G1 X-452.910 Y209.508 Z0.000 F420.000
G1 X-455.543 Y209.508 Z0.000 F420.000

G1 X-469.715 Y232.593 Z0.000 F420.000

G0 Z10.000
G0 Z10.000
G0 X-477 Y247.477
G0 Z0.000
G1 X-477 Y247.477 Z0.000 F420.000
G1 X-499.886 Y247.477 Z0.000 F420.000
G1 X-500.758 Y247.441 Z0.000 F420.000
G1 X-501.562 Y247.335 Z0.000 F420.000
G1 X-502.306 Y247.165 Z0.000 F420.000
G1 X-502.995 Y246.933 Z0.000 F420.000
G1 X-503.634 Y246.642 Z0.000 F420.000
G1 X-504.229 Y246.292 Z0.000 F420.000
G1 X-504.782 Y245.881 Z0.000 F420.000
G1 X-505.255 Y245.450 Z0.000 F420.000
G1 X-505.726 Y244.928 Z0.000 F420.000
G1 X-506.132 Y244.370 Z0.000 F420.000
G1 X-506.475 Y243.773 Z0.000 F420.000
G1 X-506.758 Y243.135 Z0.000 F420.000
G1 X-506.982 Y242.451 Z0.000 F420.000
G1 X-507.145 Y241.717 Z0.000 F420.000
G1 X-507.245 Y240.927 Z0.000 F420.000
G1 X-507.279 Y240.084 Z0.000 F420.000
G1 X-507.242 Y239.246 Z0.000 F420.000
G1 X-507.136 Y238.463 Z0.000 F420.000
G1 X-506.964 Y237.730 Z0.000 F420.000
G1 X-506.728 Y237.042 Z0.000 F420.000
G1 X-506.430 Y236.394 Z0.000 F420.000
G1 X-506.068 Y235.783 Z0.000 F420.000
G1 X-505.641 Y235.205 Z0.000 F420.000
G1 X-505.206 Y234.719 Z0.000 F420.000
G1 X-504.667 Y234.219 Z0.000 F420.000
G1 X-504.100 Y233.792 Z0.000 F420.000
G1 X-503.501 Y233.432 Z0.000 F420.000
G1 X-502.869 Y233.137 Z0.000 F420.000
G1 X-502.200 Y232.904 Z0.000 F420.000
G1 X-501.489 Y232.735 Z0.000 F420.000
G1 X-500.732 Y232.631 Z0.000 F420.000
G1 X-499.889 Y232.593 Z0.000 F420.000
G1 X-473.057 Y232.593 Z0.000 F420.000
G1 X-469.715 Y232.593 Z0.000 F420.000
G0 Z10.000
G0 Z10.000
G0 X-390.802 Y209.508
G0 Z0.000
G1 X-390.802 Y209.508 Z0.000 F420.000
G1 X-393.432 Y209.508 Z0.000 F420.000
G1 X-393.951 Y209.545 Z0.000 F420.000
G1 X-394.372 Y209.645 Z0.000 F420.000
G1 X-394.711 Y209.799 Z0.000 F420.000
G1 X-394.984 Y210.001 Z0.000 F420.000
G1 X-395.201 Y210.252 Z0.000 F420.000
G1 X-395.368 Y210.558 Z0.000 F420.000
G1 X-395.485 Y210.927 Z0.000 F420.000
G1 X-395.549 Y211.373 Z0.000 F420.000
G1 X-395.555 Y211.505 Z0.000 F420.000
G1 X-395.558 Y211.641 Z0.000 F420.000
G1 X-395.558 Y277.730 Z0.000 F420.000
G1 X-395.594 Y278.604 Z0.000 F420.000
G1 X-395.700 Y279.411 Z0.000 F420.000
G1 X-395.870 Y280.157 Z0.000 F420.000
G1 X-396.101 Y280.847 Z0.000 F420.000
G1 X-396.392 Y281.488 Z0.000 F420.000
G1 X-396.743 Y282.083 Z0.000 F420.000
G1 X-397.153 Y282.637 Z0.000 F420.000
G1 X-397.585 Y283.112 Z0.000 F420.000
G1 X-398.107 Y283.584 Z0.000 F420.000
G1 X-398.664 Y283.991 Z0.000 F420.000
G1 X-399.260 Y284.335 Z0.000 F420.000
G1 X-399.897 Y284.619 Z0.000 F420.000
G1 X-400.579 Y284.844 Z0.000 F420.000
G1 X-401.312 Y285.007 Z0.000 F420.000
G1 X-402.101 Y285.108 Z0.000 F420.000
G1 X-402.950 Y285.143 Z0.000 F420.000
G1 X-403.786 Y285.106 Z0.000 F420.000
G1 X-404.564 Y285.000 Z0.000 F420.000
G1 X-405.290 Y284.829 Z0.000 F420.000
G1 X-405.970 Y284.594 Z0.000 F420.000
G1 X-406.607 Y284.297 Z0.000 F420.000
G1 X-407.206 Y283.937 Z0.000 F420.000
G1 X-407.771 Y283.514 Z0.000 F420.000
G1 X-408.267 Y283.060 Z0.000 F420.000
G1 X-408.756 Y282.517 Z0.000 F420.000
G1 X-409.175 Y281.945 Z0.000 F420.000
G1 X-409.528 Y281.340 Z0.000 F420.000
G1 X-409.817 Y280.699 Z0.000 F420.000
G1 X-410.044 Y280.020 Z0.000 F420.000
G1 X-410.208 Y279.297 Z0.000 F420.000
G1 X-410.307 Y278.526 Z0.000 F420.000
G1 X-410.340 Y277.730 Z0.000 F420.000
G1 X-410.340 Y218.114 Z0.000 F420.000
G1 X-443.853 Y285.143 Z0.000 F420.000
G1 X-448.005 Y285.143 Z0.000 F420.000
G1 X-448.005 Y211.634 Z0.000 F420.000
G1 X-448.042 Y211.114 Z0.000 F420.000
G1 X-448.142 Y210.693 Z0.000 F420.000
G1 X-448.296 Y210.353 Z0.000 F420.000
G1 X-448.498 Y210.080 Z0.000 F420.000
G1 X-448.749 Y209.863 Z0.000 F420.000
G1 X-449.054 Y209.697 Z0.000 F420.000
G1 X-449.422 Y209.580 Z0.000 F420.000
G1 X-449.868 Y209.517 Z0.000 F420.000
G1 X-449.998 Y209.510 Z0.000 F420.000
G1 X-450.131 Y209.508 Z0.000 F420.000
G1 X-452.765 Y209.508 Z0.000 F420.000
G0 Z10.000
G0 Z10.000
G0 X-319.571 Y209.812
G0 Z0.000
G1 X-319.571 Y209.812 Z0.000 F420.000
G1 X-332.530 Y209.812 Z0.000 F420.000
G1 X-360.071 Y231.205 Z0.000 F420.000
G1 X-360.746 Y231.763 Z0.000 F420.000
G1 X-361.317 Y232.328 Z0.000 F420.000
G1 X-361.794 Y232.901 Z0.000 F420.000
G1 X-362.184 Y233.481 Z0.000 F420.000
G1 X-362.493 Y234.072 Z0.000 F420.000
G1 X-362.728 Y234.676 Z0.000 F420.000
G1 X-362.891 Y235.295 Z0.000 F420.000
G1 X-362.984 Y235.935 Z0.000 F420.000
G1 X-363.001 Y236.204 Z0.000 F420.000
G1 X-363.007 Y236.475 Z0.000 F420.000
G1 X-362.971 Y237.036 Z0.000 F420.000
G1 X-362.858 Y237.641 Z0.000 F420.000
G1 X-362.659 Y238.297 Z0.000 F420.000
G1 X-362.366 Y239.012 Z0.000 F420.000
G1 X-361.965 Y239.793 Z0.000 F420.000
G1 X-361.691 Y240.257 Z0.000 F420.000
G1 X-361.386 Y240.734 Z0.000 F420.000
G1 X-355.213 Y250.061 Z0.000 F420.000
G1 X-339.415 Y273.686 Z0.000 F420.000
G1 X-339.015 Y274.337 Z0.000 F420.000
G1 X-338.690 Y275.002 Z0.000 F420.000
G1 X-338.438 Y275.685 Z0.000 F420.000
G1 X-338.256 Y276.386 Z0.000 F420.000
G1 X-338.144 Y277.112 Z0.000 F420.000
G1 X-338.111 Y277.525 Z0.000 F420.000
G1 X-338.100 Y277.944 Z0.000 F420.000
G1 X-338.137 Y278.732 Z0.000 F420.000
G1 X-338.243 Y279.465 Z0.000 F420.000
G1 X-338.414 Y280.150 Z0.000 F420.000
G1 X-338.650 Y280.792 Z0.000 F420.000
G1 X-338.949 Y281.395 Z0.000 F420.000
G1 X-339.312 Y281.964 Z0.000 F420.000
G1 X-339.741 Y282.501 Z0.000 F420.000
G1 X-340.241 Y283.009 Z0.000 F420.000
G1 X-340.816 Y283.489 Z0.000 F420.000
G1 X-341.474 Y283.942 Z0.000 F420.000
G1 X-342.352 Y284.434 Z0.000 F420.000
G1 X-343.121 Y284.761 Z0.000 F420.000
G1 X-343.867 Y285.001 Z0.000 F420.000
G1 X-344.594 Y285.158 Z0.000 F420.000
G1 X-345.306 Y285.238 Z0.000 F420.000
G1 X-346.006 Y285.244 Z0.000 F420.000
G1 X-346.459 Y285.209 Z0.000 F420.000
G1 X-346.910 Y285.143 Z0.000 F420.000
G1 X-347.644 Y284.953 Z0.000 F420.000
G1 X-348.333 Y284.700 Z0.000 F420.000
G1 X-348.981 Y284.385 Z0.000 F420.000
G1 X-349.593 Y284.006 Z0.000 F420.000
G1 X-350.172 Y283.563 Z0.000 F420.000
G1 X-350.719 Y283.051 Z0.000 F420.000
G1 X-351.238 Y282.467 Z0.000 F420.000
G1 X-351.666 Y281.893 Z0.000 F420.000
G1 X-367.460 Y258.228 Z0.000 F420.000
G1 X-369.699 Y254.925 Z0.000 F420.000
G1 X-371.208 Y252.744 Z0.000 F420.000
G1 X-371.208 Y277.753 Z0.000 F420.000
G1 X-371.244 Y278.590 Z0.000 F420.000
G1 X-371.350 Y279.369 Z0.000 F420.000
G1 X-371.521 Y280.096 Z0.000 F420.000
G1 X-371.756 Y280.775 Z0.000 F420.000
G1 X-372.053 Y281.413 Z0.000 F420.000
G1 X-372.412 Y282.011 Z0.000 F420.000
G1 X-372.835 Y282.576 Z0.000 F420.000
G1 X-373.284 Y283.066 Z0.000 F420.000
G1 X-373.824 Y283.556 Z0.000 F420.000
G1 X-374.395 Y283.976 Z0.000 F420.000
G1 X-374.998 Y284.329 Z0.000 F420.000
G1 X-375.637 Y284.618 Z0.000 F420.000
G1 X-376.314 Y284.845 Z0.000 F420.000
G1 X-377.034 Y285.010 Z0.000 F420.000
G1 X-377.802 Y285.110 Z0.000 F420.000
G1 X-378.600 Y285.143 Z0.000 F420.000
G1 X-379.436 Y285.106 Z0.000 F420.000
G1 X-380.214 Y285.000 Z0.000 F420.000
G1 X-380.940 Y284.829 Z0.000 F420.000
G1 X-381.620 Y284.594 Z0.000 F420.000
G1 X-382.257 Y284.297 Z0.000 F420.000
G1 X-382.856 Y283.937 Z0.000 F420.000
G1 X-383.421 Y283.514 Z0.000 F420.000
G1 X-383.917 Y283.060 Z0.000 F420.000
G1 X-384.406 Y282.517 Z0.000 F420.000
G1 X-384.825 Y281.944 Z0.000 F420.000
G1 X-385.178 Y281.339 Z0.000 F420.000
G1 X-385.467 Y280.699 Z0.000 F420.000
G1 X-385.694 Y280.020 Z0.000 F420.000
G1 X-385.858 Y279.298 Z0.000 F420.000
G1 X-385.957 Y278.527 Z0.000 F420.000
G1 X-385.990 Y277.733 Z0.000 F420.000
G1 X-385.990 Y211.552 Z0.000 F420.000
G1 X-386.026 Y211.079 Z0.000 F420.000
G1 X-386.127 Y210.690 Z0.000 F420.000
G1 X-386.283 Y210.371 Z0.000 F420.000
G1 X-386.492 Y210.108 Z0.000 F420.000
G1 X-386.756 Y209.895 Z0.000 F420.000
G1 X-387.081 Y209.726 Z0.000 F420.000
G1 X-387.480 Y209.603 Z0.000 F420.000
G1 X-388.116 Y209.521 Z0.000 F420.000
G1 X-390.749 Y209.419 Z0.000 F420.000
G0 Z10.000
G0 Z10.000
G0 X-247.944 Y204.143
(G0 X-248.079 Y209.406)
G0 Z0.000
G0 X-252.839 Y204.143
(G1 X-248.079 Y209.406 Z0.000 F420.000)
G1 X-252.839 Y209.508 Z0.000 F420.000
G1 X-252.839 Y277.750 Z0.000 F420.000
G1 X-252.875 Y278.587 Z0.000 F420.000
G1 X-252.981 Y279.366 Z0.000 F420.000
G1 X-253.153 Y280.093 Z0.000 F420.000
G1 X-253.387 Y280.773 Z0.000 F420.000
G1 X-253.684 Y281.411 Z0.000 F420.000
G1 X-254.044 Y282.011 Z0.000 F420.000
G1 X-254.467 Y282.576 Z0.000 F420.000
G1 X-254.915 Y283.066 Z0.000 F420.000
G1 X-255.456 Y283.556 Z0.000 F420.000
G1 X-256.026 Y283.976 Z0.000 F420.000
G1 X-256.629 Y284.329 Z0.000 F420.000
G1 X-257.268 Y284.618 Z0.000 F420.000
G1 X-257.945 Y284.845 Z0.000 F420.000
G1 X-258.665 Y285.010 Z0.000 F420.000
G1 X-259.433 Y285.110 Z0.000 F420.000
G1 X-260.231 Y285.143 Z0.000 F420.000
G1 X-261.035 Y285.106 Z0.000 F420.000
G1 X-261.789 Y285.000 Z0.000 F420.000
G1 X-262.500 Y284.827 Z0.000 F420.000
G1 X-263.171 Y284.589 Z0.000 F420.000
G1 X-263.807 Y284.286 Z0.000 F420.000
G1 X-264.412 Y283.917 Z0.000 F420.000
G1 X-264.989 Y283.481 Z0.000 F420.000
G1 X-265.495 Y283.017 Z0.000 F420.000
G1 X-266.004 Y282.456 Z0.000 F420.000
G1 X-266.438 Y281.871 Z0.000 F420.000
G1 X-266.801 Y281.260 Z0.000 F420.000
G1 X-267.096 Y280.620 Z0.000 F420.000
G1 X-267.326 Y279.949 Z0.000 F420.000
G1 X-267.491 Y279.241 Z0.000 F420.000
G1 X-267.590 Y278.494 Z0.000 F420.000
G1 X-267.621 Y277.750 Z0.000 F420.000
G1 X-267.621 Y235.226 Z0.000 F420.000
G1 X-267.657 Y234.091 Z0.000 F420.000
G1 X-267.766 Y232.964 Z0.000 F420.000
G1 X-267.947 Y231.845 Z0.000 F420.000
G1 X-268.202 Y230.730 Z0.000 F420.000
G1 X-268.530 Y229.617 Z0.000 F420.000
G1 X-268.935 Y228.505 Z0.000 F420.000
G1 X-269.418 Y227.390 Z0.000 F420.000
G1 X-269.747 Y226.719 Z0.000 F420.000
G1 X-270.289 Y225.755 Z0.000 F420.000
G1 X-270.872 Y224.866 Z0.000 F420.000
G1 X-271.494 Y224.048 Z0.000 F420.000
G1 X-272.156 Y223.298 Z0.000 F420.000
G1 X-272.858 Y222.613 Z0.000 F420.000
G1 X-273.601 Y221.988 Z0.000 F420.000
G1 X-274.387 Y221.422 Z0.000 F420.000
G1 X-275.219 Y220.913 Z0.000 F420.000
G1 X-276.098 Y220.461 Z0.000 F420.000
G1 X-277.028 Y220.064 Z0.000 F420.000
G1 X-278.013 Y219.724 Z0.000 F420.000
G1 X-279.056 Y219.441 Z0.000 F420.000
G1 X-280.162 Y219.217 Z0.000 F420.000
G1 X-281.334 Y219.054 Z0.000 F420.000
G1 X-282.578 Y218.956 Z0.000 F420.000
G1 X-283.820 Y218.925 Z0.000 F420.000
G1 X-285.161 Y218.961 Z0.000 F420.000
G1 X-286.422 Y219.067 Z0.000 F420.000
G1 X-287.607 Y219.239 Z0.000 F420.000
G1 X-288.722 Y219.474 Z0.000 F420.000
G1 X-289.771 Y219.769 Z0.000 F420.000
G1 X-290.758 Y220.122 Z0.000 F420.000
G1 X-291.688 Y220.531 Z0.000 F420.000
G1 X-292.565 Y220.995 Z0.000 F420.000
G1 X-293.392 Y221.515 Z0.000 F420.000
G1 X-294.171 Y222.091 Z0.000 F420.000
G1 X-294.905 Y222.725 Z0.000 F420.000
G1 X-295.597 Y223.418 Z0.000 F420.000
G1 X-296.247 Y224.173 Z0.000 F420.000
G1 X-296.857 Y224.992 Z0.000 F420.000
G1 X-297.427 Y225.881 Z0.000 F420.000
G1 X-297.894 Y226.719 Z0.000 F420.000
G1 X-298.469 Y227.923 Z0.000 F420.000
G1 X-298.951 Y229.099 Z0.000 F420.000
G1 X-299.344 Y230.250 Z0.000 F420.000
G1 X-299.654 Y231.379 Z0.000 F420.000
G1 X-299.883 Y232.488 Z0.000 F420.000
G1 X-300.035 Y233.579 Z0.000 F420.000
G1 X-300.111 Y234.655 Z0.000 F420.000
G1 X-300.122 Y235.226 Z0.000 F420.000
G1 X-300.122 Y277.750 Z0.000 F420.000
G1 X-300.158 Y278.587 Z0.000 F420.000
G1 X-300.264 Y279.366 Z0.000 F420.000
G1 X-300.436 Y280.093 Z0.000 F420.000
G1 X-300.670 Y280.773 Z0.000 F420.000
G1 X-300.967 Y281.411 Z0.000 F420.000
G1 X-301.327 Y282.011 Z0.000 F420.000
G1 X-301.750 Y282.576 Z0.000 F420.000
G1 X-302.198 Y283.066 Z0.000 F420.000
G1 X-302.739 Y283.556 Z0.000 F420.000
G1 X-303.309 Y283.976 Z0.000 F420.000
G1 X-303.912 Y284.329 Z0.000 F420.000
G1 X-304.551 Y284.618 Z0.000 F420.000
G1 X-305.228 Y284.845 Z0.000 F420.000
G1 X-305.948 Y285.010 Z0.000 F420.000
G1 X-306.716 Y285.110 Z0.000 F420.000
G1 X-307.514 Y285.143 Z0.000 F420.000
G1 X-308.318 Y285.106 Z0.000 F420.000
G1 X-309.072 Y285.000 Z0.000 F420.000
G1 X-309.783 Y284.827 Z0.000 F420.000
G1 X-310.454 Y284.589 Z0.000 F420.000
G1 X-311.090 Y284.286 Z0.000 F420.000
G1 X-311.695 Y283.917 Z0.000 F420.000
G1 X-312.272 Y283.481 Z0.000 F420.000
G1 X-312.778 Y283.017 Z0.000 F420.000
G1 X-313.287 Y282.456 Z0.000 F420.000
G1 X-313.721 Y281.871 Z0.000 F420.000
G1 X-314.084 Y281.260 Z0.000 F420.000
G1 X-314.379 Y280.620 Z0.000 F420.000
G1 X-314.609 Y279.949 Z0.000 F420.000
G1 X-314.774 Y279.241 Z0.000 F420.000
G1 X-314.873 Y278.494 Z0.000 F420.000
G1 X-314.904 Y277.750 Z0.000 F420.000
G1 X-314.904 Y211.535 Z0.000 F420.000
G1 X-314.940 Y211.063 Z0.000 F420.000
G1 X-315.041 Y210.675 Z0.000 F420.000
G1 X-315.198 Y210.356 Z0.000 F420.000
G1 X-315.406 Y210.094 Z0.000 F420.000
G1 X-315.670 Y209.881 Z0.000 F420.000
G1 X-315.996 Y209.712 Z0.000 F420.000
G1 X-316.395 Y209.590 Z0.000 F420.000
G1 X-317.030 Y209.508 Z0.000 F420.000
G1 X-319.663 Y209.406 Z0.000 F420.000
G0 Z10.000
G0 Z10.000
G0 X-252.839 Y204.143
G0 Z0.000
G1 X-252.839 Y204.143 Z0.000 F420.000
G1 X-245.212 Y204.143 Z0.000 F420.000
G1 X-244.408 Y204.179 Z0.000 F420.000
G1 X-243.653 Y204.285 Z0.000 F420.000
G1 X-242.942 Y204.458 Z0.000 F420.000
G1 X-242.270 Y204.696 Z0.000 F420.000
G1 X-241.634 Y204.999 Z0.000 F420.000
G1 X-241.029 Y205.367 Z0.000 F420.000
G1 X-240.452 Y205.804 Z0.000 F420.000
G1 X-239.945 Y206.268 Z0.000 F420.000
G1 X-239.436 Y206.829 Z0.000 F420.000
G1 X-239.002 Y207.414 Z0.000 F420.000
G1 X-238.639 Y208.025 Z0.000 F420.000
G1 X-238.344 Y208.665 Z0.000 F420.000
G1 X-238.114 Y209.337 Z0.000 F420.000
G1 X-237.949 Y210.044 Z0.000 F420.000
G1 X-237.850 Y210.791 Z0.000 F420.000
G1 X-237.819 Y211.535 Z0.000 F420.000
G1 X-237.819 Y232.797 Z0.000 F420.000
G1 X-237.783 Y233.328 Z0.000 F420.000
G1 X-237.683 Y233.757 Z0.000 F420.000
G1 X-237.530 Y234.100 Z0.000 F420.000
G1 X-237.330 Y234.373 Z0.000 F420.000
G1 X-237.083 Y234.587 Z0.000 F420.000
G1 X-236.784 Y234.750 Z0.000 F420.000
G1 X-236.424 Y234.861 Z0.000 F420.000
G1 X-235.792 Y234.923 Z0.000 F420.000
G1 X-235.298 Y234.887 Z0.000 F420.000
G1 X-234.896 Y234.786 Z0.000 F420.000
G1 X-234.572 Y234.632 Z0.000 F420.000
G1 X-234.311 Y234.428 Z0.000 F420.000
G1 X-234.103 Y234.174 Z0.000 F420.000
G1 X-233.943 Y233.862 Z0.000 F420.000
G1 X-233.832 Y233.482 Z0.000 F420.000
G1 X-233.769 Y232.797 Z0.000 F420.000
G1 X-233.769 Y228.140 Z0.000 F420.000
G1 X-233.732 Y226.958 Z0.000 F420.000
G1 X-233.626 Y225.835 Z0.000 F420.000
G1 X-233.451 Y224.766 Z0.000 F420.000
G1 X-233.212 Y223.748 Z0.000 F420.000
G1 X-232.909 Y222.776 Z0.000 F420.000
G1 X-232.544 Y221.847 Z0.000 F420.000
G1 X-232.117 Y220.959 Z0.000 F420.000
G1 X-231.627 Y220.108 Z0.000 F420.000
G1 X-231.073 Y219.292 Z0.000 F420.000
G1 X-230.453 Y218.509 Z0.000 F420.000
G1 X-229.669 Y217.659 Z0.000 F420.000
G1 X-228.914 Y216.956 Z0.000 F420.000
G1 X-228.129 Y216.324 Z0.000 F420.000
G1 X-227.314 Y215.760 Z0.000 F420.000
G1 X-226.467 Y215.263 Z0.000 F420.000
G1 X-225.584 Y214.829 Z0.000 F420.000
G1 X-224.665 Y214.458 Z0.000 F420.000
G1 X-223.706 Y214.150 Z0.000 F420.000
G1 X-222.704 Y213.905 Z0.000 F420.000
G1 X-221.655 Y213.724 Z0.000 F420.000
G1 X-220.556 Y213.608 Z0.000 F420.000
G1 X-219.191 Y213.559 Z0.000 F420.000
G1 X-218.008 Y213.595 Z0.000 F420.000
G1 X-216.885 Y213.702 Z0.000 F420.000
G1 X-215.818 Y213.876 Z0.000 F420.000
G1 X-214.802 Y214.115 Z0.000 F420.000
G1 X-213.834 Y214.417 Z0.000 F420.000
G1 X-212.911 Y214.781 Z0.000 F420.000
G1 X-212.029 Y215.206 Z0.000 F420.000
G1 X-211.186 Y215.694 Z0.000 F420.000
G1 X-210.378 Y216.245 Z0.000 F420.000
G1 X-209.604 Y216.862 Z0.000 F420.000
G1 X-208.763 Y217.646 Z0.000 F420.000
G1 X-208.065 Y218.402 Z0.000 F420.000
G1 X-207.439 Y219.187 Z0.000 F420.000
G1 X-206.880 Y220.005 Z0.000 F420.000
G1 X-206.387 Y220.855 Z0.000 F420.000
G1 X-205.958 Y221.740 Z0.000 F420.000
G1 X-205.591 Y222.663 Z0.000 F420.000
G1 X-205.287 Y223.626 Z0.000 F420.000
G1 X-205.046 Y224.633 Z0.000 F420.000
G1 X-204.868 Y225.687 Z0.000 F420.000
G1 X-204.756 Y226.792 Z0.000 F420.000
G1 X-204.712 Y228.097 Z0.000 F420.000
G1 X-204.748 Y229.257 Z0.000 F420.000
G1 X-204.855 Y230.361 Z0.000 F420.000
G1 X-205.030 Y231.413 Z0.000 F420.000
G1 X-205.270 Y232.418 Z0.000 F420.000
G1 X-205.573 Y233.378 Z0.000 F420.000
G1 X-205.940 Y234.298 Z0.000 F420.000
G1 X-206.370 Y235.180 Z0.000 F420.000
G1 X-206.864 Y236.026 Z0.000 F420.000
G1 X-207.423 Y236.840 Z0.000 F420.000
G1 X-208.049 Y237.623 Z0.000 F420.000
G1 X-208.812 Y238.443 Z0.000 F420.000
G1 X-209.573 Y239.150 Z0.000 F420.000
G1 X-210.361 Y239.785 Z0.000 F420.000
G1 X-211.179 Y240.350 Z0.000 F420.000
G1 X-212.028 Y240.848 Z0.000 F420.000
G1 X-212.909 Y241.281 Z0.000 F420.000
G1 X-213.826 Y241.650 Z0.000 F420.000
G1 X-214.782 Y241.956 Z0.000 F420.000
G1 X-215.778 Y242.199 Z0.000 F420.000
G1 X-216.819 Y242.377 Z0.000 F420.000
G1 X-217.907 Y242.489 Z0.000 F420.000
G1 X-219.191 Y242.533 Z0.000 F420.000
G1 X-220.397 Y242.570 Z0.000 F420.000
G1 X-221.591 Y242.678 Z0.000 F420.000
G1 X-222.774 Y242.859 Z0.000 F420.000
G1 X-223.950 Y243.112 Z0.000 F420.000
G1 X-225.119 Y243.439 Z0.000 F420.000
G1 X-226.285 Y243.840 Z0.000 F420.000
G1 X-227.449 Y244.317 Z0.000 F420.000
G1 X-228.808 Y244.975 Z0.000 F420.000
G1 X-229.852 Y245.559 Z0.000 F420.000
G1 X-230.819 Y246.182 Z0.000 F420.000
G1 X-231.713 Y246.844 Z0.000 F420.000
G1 X-232.539 Y247.545 Z0.000 F420.000
G1 X-233.298 Y248.286 Z0.000 F420.000
G1 X-233.996 Y249.067 Z0.000 F420.000
G1 X-234.633 Y249.890 Z0.000 F420.000
G1 X-235.212 Y250.757 Z0.000 F420.000
G1 X-235.734 Y251.669 Z0.000 F420.000
G1 X-236.200 Y252.630 Z0.000 F420.000
G1 X-236.609 Y253.642 Z0.000 F420.000
G1 X-236.962 Y254.709 Z0.000 F420.000
G1 X-237.257 Y255.834 Z0.000 F420.000
G1 X-237.493 Y257.021 Z0.000 F420.000
G1 X-237.667 Y258.275 Z0.000 F420.000
G1 X-237.776 Y259.599 Z0.000 F420.000
G1 X-237.819 Y261.152 Z0.000 F420.000
G1 X-237.783 Y262.597 Z0.000 F420.000
G1 X-237.677 Y263.961 Z0.000 F420.000
G1 X-237.504 Y265.249 Z0.000 F420.000
G1 X-237.268 Y266.466 Z0.000 F420.000
G1 X-236.971 Y267.616 Z0.000 F420.000
G1 X-236.616 Y268.702 Z0.000 F420.000
G1 X-236.204 Y269.730 Z0.000 F420.000
G1 X-235.737 Y270.702 Z0.000 F420.000
G1 X-235.213 Y271.623 Z0.000 F420.000
G1 X-234.635 Y272.494 Z0.000 F420.000
G1 X-233.999 Y273.319 Z0.000 F420.000
G1 X-233.306 Y274.100 Z0.000 F420.000
G1 X-232.554 Y274.838 Z0.000 F420.000
G1 X-231.739 Y275.535 Z0.000 F420.000
G1 X-230.859 Y276.192 Z0.000 F420.000
G1 X-229.911 Y276.808 Z0.000 F420.000
G1 X-228.808 Y277.427 Z0.000 F420.000
G1 X-227.633 Y278.002 Z0.000 F420.000
G1 X-226.460 Y278.496 Z0.000 F420.000
G1 X-225.287 Y278.911 Z0.000 F420.000
G1 X-224.113 Y279.249 Z0.000 F420.000
G1 X-222.935 Y279.513 Z0.000 F420.000
G1 X-221.751 Y279.704 Z0.000 F420.000
G1 X-220.560 Y279.822 Z0.000 F420.000
G1 X-219.191 Y279.869 Z0.000 F420.000
G1 X-218.007 Y279.833 Z0.000 F420.000
G1 X-216.831 Y279.724 Z0.000 F420.000
G1 X-215.660 Y279.543 Z0.000 F420.000
G1 X-214.493 Y279.288 Z0.000 F420.000
G1 X-213.328 Y278.959 Z0.000 F420.000
G1 X-212.162 Y278.554 Z0.000 F420.000
G1 X-210.994 Y278.071 Z0.000 F420.000
G1 X-209.672 Y277.430 Z0.000 F420.000
G1 X-208.633 Y276.850 Z0.000 F420.000
G1 X-207.669 Y276.229 Z0.000 F420.000
G1 X-206.778 Y275.568 Z0.000 F420.000
G1 X-205.955 Y274.868 Z0.000 F420.000
G1 X-205.196 Y274.128 Z0.000 F420.000
G1 X-204.500 Y273.347 Z0.000 F420.000
G1 X-203.863 Y272.524 Z0.000 F420.000
G1 X-203.284 Y271.656 Z0.000 F420.000
G1 X-202.761 Y270.742 Z0.000 F420.000
G1 X-202.295 Y269.779 Z0.000 F420.000
G1 X-201.884 Y268.763 Z0.000 F420.000
G1 X-201.530 Y267.692 Z0.000 F420.000
G1 X-201.233 Y266.562 Z0.000 F420.000
G1 X-200.995 Y265.370 Z0.000 F420.000
G1 X-200.819 Y264.109 Z0.000 F420.000
G1 X-200.707 Y262.778 Z0.000 F420.000
G1 X-200.661 Y261.162 Z0.000 F420.000
G1 X-200.661 Y258.825 Z0.000 F420.000
G0 Z10.000
G0 Z10.000
G0 X-123.745 Y204.143
G0 Z0.000
G1 X-123.745 Y204.143 Z0.000 F420.000
G1 X-123.745 Y277.750 Z0.000 F420.000
G1 X-123.781 Y278.587 Z0.000 F420.000
G1 X-123.887 Y279.366 Z0.000 F420.000
G1 X-124.059 Y280.093 Z0.000 F420.000
G1 X-124.294 Y280.773 Z0.000 F420.000
G1 X-124.590 Y281.411 Z0.000 F420.000
G1 X-124.950 Y282.011 Z0.000 F420.000
G1 X-125.373 Y282.576 Z0.000 F420.000
G1 X-125.821 Y283.066 Z0.000 F420.000
G1 X-126.362 Y283.556 Z0.000 F420.000
G1 X-126.933 Y283.976 Z0.000 F420.000
G1 X-127.536 Y284.329 Z0.000 F420.000
G1 X-128.174 Y284.618 Z0.000 F420.000
G1 X-128.851 Y284.845 Z0.000 F420.000
G1 X-129.571 Y285.010 Z0.000 F420.000
G1 X-130.340 Y285.110 Z0.000 F420.000
G1 X-131.138 Y285.143 Z0.000 F420.000
G1 X-131.941 Y285.106 Z0.000 F420.000
G1 X-132.695 Y285.000 Z0.000 F420.000
G1 X-133.406 Y284.827 Z0.000 F420.000
G1 X-134.077 Y284.589 Z0.000 F420.000
G1 X-134.713 Y284.286 Z0.000 F420.000
G1 X-135.318 Y283.917 Z0.000 F420.000
G1 X-135.895 Y283.481 Z0.000 F420.000
G1 X-136.401 Y283.017 Z0.000 F420.000
G1 X-136.910 Y282.456 Z0.000 F420.000
G1 X-137.344 Y281.871 Z0.000 F420.000
G1 X-137.707 Y281.260 Z0.000 F420.000
G1 X-138.002 Y280.620 Z0.000 F420.000
G1 X-138.232 Y279.949 Z0.000 F420.000
G1 X-138.397 Y279.241 Z0.000 F420.000
G1 X-138.496 Y278.494 Z0.000 F420.000
G1 X-138.527 Y277.750 Z0.000 F420.000
G1 X-138.527 Y254.059 Z0.000 F420.000
G1 X-138.563 Y253.236 Z0.000 F420.000
G1 X-138.669 Y252.477 Z0.000 F420.000
G1 X-138.839 Y251.776 Z0.000 F420.000
G1 X-139.071 Y251.126 Z0.000 F420.000
G1 X-139.363 Y250.522 Z0.000 F420.000
G1 X-139.716 Y249.960 Z0.000 F420.000
G1 X-140.131 Y249.437 Z0.000 F420.000
G1 X-140.402 Y249.148 Z0.000 F420.000
G1 X-140.909 Y248.692 Z0.000 F420.000
G1 X-141.451 Y248.304 Z0.000 F420.000
G1 X-142.028 Y247.978 Z0.000 F420.000
G1 X-142.646 Y247.714 Z0.000 F420.000
G1 X-143.307 Y247.510 Z0.000 F420.000
G1 X-144.018 Y247.369 Z0.000 F420.000
G1 X-144.783 Y247.291 Z0.000 F420.000
G1 X-145.310 Y247.276 Z0.000 F420.000
G1 X-164.245 Y247.276 Z0.000 F420.000
G1 X-165.094 Y247.312 Z0.000 F420.000
G1 X-165.871 Y247.417 Z0.000 F420.000
G1 X-166.582 Y247.586 Z0.000 F420.000
G1 X-167.234 Y247.815 Z0.000 F420.000
G1 X-167.833 Y248.102 Z0.000 F420.000
G1 X-168.385 Y248.447 Z0.000 F420.000
G1 X-168.893 Y248.850 Z0.000 F420.000
G1 X-169.205 Y249.148 Z0.000 F420.000
G1 X-169.645 Y249.653 Z0.000 F420.000
G1 X-170.022 Y250.196 Z0.000 F420.000
G1 X-170.339 Y250.781 Z0.000 F420.000
G1 X-170.598 Y251.411 Z0.000 F420.000
G1 X-170.798 Y252.090 Z0.000 F420.000
G1 X-170.937 Y252.826 Z0.000 F420.000
G1 X-171.014 Y253.623 Z0.000 F420.000
G1 X-171.028 Y254.161 Z0.000 F420.000
G1 X-171.028 Y277.750 Z0.000 F420.000
G1 X-171.064 Y278.588 Z0.000 F420.000
G1 X-171.170 Y279.367 Z0.000 F420.000
G1 X-171.342 Y280.094 Z0.000 F420.000
G1 X-171.576 Y280.774 Z0.000 F420.000
G1 X-171.873 Y281.412 Z0.000 F420.000
G1 X-172.232 Y282.011 Z0.000 F420.000
G1 X-172.655 Y282.575 Z0.000 F420.000
G1 X-173.104 Y283.066 Z0.000 F420.000
G1 X-173.645 Y283.556 Z0.000 F420.000
G1 X-174.216 Y283.976 Z0.000 F420.000
G1 X-174.819 Y284.329 Z0.000 F420.000
G1 X-175.457 Y284.618 Z0.000 F420.000
G1 X-176.134 Y284.845 Z0.000 F420.000
G1 X-176.854 Y285.010 Z0.000 F420.000
G1 X-177.623 Y285.110 Z0.000 F420.000
G1 X-178.421 Y285.143 Z0.000 F420.000
G1 X-179.258 Y285.106 Z0.000 F420.000
G1 X-180.037 Y285.000 Z0.000 F420.000
G1 X-180.764 Y284.829 Z0.000 F420.000
G1 X-181.444 Y284.594 Z0.000 F420.000
G1 X-182.082 Y284.297 Z0.000 F420.000
G1 X-182.681 Y283.938 Z0.000 F420.000
G1 X-183.246 Y283.514 Z0.000 F420.000
G1 X-183.737 Y283.066 Z0.000 F420.000
G1 X-184.227 Y282.524 Z0.000 F420.000
G1 X-184.646 Y281.952 Z0.000 F420.000
G1 X-184.999 Y281.348 Z0.000 F420.000
G1 X-185.288 Y280.709 Z0.000 F420.000
G1 X-185.515 Y280.030 Z0.000 F420.000
G1 X-185.678 Y279.309 Z0.000 F420.000
G1 X-185.778 Y278.540 Z0.000 F420.000
G1 X-185.810 Y277.750 Z0.000 F420.000
G1 X-185.810 Y211.535 Z0.000 F420.000
G1 X-185.846 Y211.063 Z0.000 F420.000
G1 X-185.947 Y204.143 Z0.000 F420.000

G0 Z10.000
G0 Z10.000
G0 X-232.281 Y88.118
G0 Z0.000
G1 X-232.281 Y88.118 Z0.000 F420.000
G1 X-239.171 Y88.118 Z0.000 F420.000
G1 X-274.280 Y123.227 Z0.000 F420.000
G1 X-260.718 Y123.227 Z0.000 F420.000
G1 X-259.289 Y123.263 Z0.000 F420.000
G1 X-257.899 Y123.371 Z0.000 F420.000
G1 X-256.546 Y123.549 Z0.000 F420.000
G1 X-255.227 Y123.795 Z0.000 F420.000
G1 X-253.941 Y124.109 Z0.000 F420.000
G1 X-252.683 Y124.491 Z0.000 F420.000
G1 X-251.454 Y124.940 Z0.000 F420.000
G1 X-250.250 Y125.457 Z0.000 F420.000
G1 X-249.070 Y126.044 Z0.000 F420.000
G1 X-247.912 Y126.701 Z0.000 F420.000
G1 X-246.775 Y127.430 Z0.000 F420.000
G1 X-246.418 Y127.676 Z0.000 F420.000
G1 X-246.063 Y127.930 Z0.000 F420.000
G1 X-245.047 Y128.722 Z0.000 F420.000
G1 X-244.102 Y129.549 Z0.000 F420.000
G1 X-243.226 Y130.413 Z0.000 F420.000
G1 X-242.416 Y131.313 Z0.000 F420.000
G1 X-241.669 Y132.251 Z0.000 F420.000
G1 X-240.985 Y133.228 Z0.000 F420.000
G1 X-240.361 Y134.246 Z0.000 F420.000
G1 X-239.796 Y135.306 Z0.000 F420.000
G1 X-239.290 Y136.412 Z0.000 F420.000
G1 X-238.842 Y137.564 Z0.000 F420.000
G1 X-238.453 Y138.767 Z0.000 F420.000
G1 X-238.124 Y140.023 Z0.000 F420.000
G1 X-237.856 Y141.336 Z0.000 F420.000
G1 X-237.650 Y142.708 Z0.000 F420.000
G1 X-237.508 Y144.143 Z0.000 F420.000
G1 X-237.434 Y145.645 Z0.000 F420.000
G1 X-237.422 Y146.526 Z0.000 F420.000
G1 X-237.459 Y148.090 Z0.000 F420.000
G1 X-237.566 Y149.582 Z0.000 F420.000
G1 X-237.740 Y151.005 Z0.000 F420.000
G1 X-237.979 Y152.364 Z0.000 F420.000
G1 X-238.281 Y153.662 Z0.000 F420.000
G1 X-238.644 Y154.902 Z0.000 F420.000
G1 X-239.066 Y156.087 Z0.000 F420.000
G1 X-239.548 Y157.222 Z0.000 F420.000
G1 X-240.087 Y158.308 Z0.000 F420.000
G1 X-240.684 Y159.348 Z0.000 F420.000
G1 X-241.341 Y160.344 Z0.000 F420.000
G1 X-242.057 Y161.299 Z0.000 F420.000
G1 X-242.834 Y162.214 Z0.000 F420.000
G1 X-243.674 Y163.090 Z0.000 F420.000
G1 X-244.580 Y163.930 Z0.000 F420.000
G1 X-245.553 Y164.732 Z0.000 F420.000
G1 X-246.063 Y165.118 Z0.000 F420.000
G1 X-247.196 Y165.899 Z0.000 F420.000
G1 X-248.347 Y166.604 Z0.000 F420.000
G1 X-249.518 Y167.236 Z0.000 F420.000
G1 X-250.709 Y167.798 Z0.000 F420.000
G1 X-251.924 Y168.289 Z0.000 F420.000
G1 X-253.163 Y168.712 Z0.000 F420.000
G1 X-254.428 Y169.067 Z0.000 F420.000
G1 X-255.722 Y169.354 Z0.000 F420.000
G1 X-257.046 Y169.574 Z0.000 F420.000
G1 X-258.404 Y169.725 Z0.000 F420.000
G1 X-259.796 Y169.806 Z0.000 F420.000
G1 X-260.256 Y169.818 Z0.000 F420.000
G1 X-260.718 Y169.821 Z0.000 F420.000
G1 X-294.296 Y169.821 Z0.000 F420.000
G1 X-294.296 Y90.307 Z0.000 F420.000
G1 X-294.332 Y89.815 Z0.000 F420.000
G1 X-294.433 Y89.408 Z0.000 F420.000
G1 X-294.591 Y89.070 Z0.000 F420.000
G1 X-294.800 Y88.791 Z0.000 F420.000
G1 X-295.064 Y88.561 Z0.000 F420.000
G1 X-295.388 Y88.376 Z0.000 F420.000
G1 X-295.783 Y88.236 Z0.000 F420.000
G1 X-296.263 Y88.145 Z0.000 F420.000
G1 X-296.425 Y88.129 Z0.000 F420.000
G1 X-296.592 Y88.118 Z0.000 F420.000
G1 X-299.437 Y88.007 Z0.000 F420.000
G0 Z10.000
G0 Z10.000
G0 X-165 Y130
G0 Z0.000
G1 X-165 Y130 Z0.000 F420.000
G1 X-184.974 Y170.277 Z0.000 F420.000
G1 X-188.367 Y170.277 Z0.000 F420.000
G1 X-229.711 Y88.118 Z0.000 F420.000
G1 X-232.445 Y88.118 Z0.000 F420.000
G0 Z10.000
G0 Z10.000

G0 X-141.071 Y82.321
G0 Z0.000
G0 X-141.071 Y82.321 Z0.000 F420.000
G1 X-144.073 Y88.118 Z0.000 F420.000
G1 X-156 Y113 Z0.000 F420.000
G0 Z10.000
G0 Z10.000

G0 X-165 Y130
G0 Z0.000
G1 X-165 Y130 Z0.000 F420.000
G1 X-191.974 Y129.133 Z0.000 F420.000
G1 X-192.881 Y129.097 Z0.000 F420.000
G1 X-193.721 Y128.991 Z0.000 F420.000
G1 X-194.499 Y128.821 Z0.000 F420.000
G1 X-195.222 Y128.589 Z0.000 F420.000
G1 X-195.895 Y128.297 Z0.000 F420.000
G1 X-196.522 Y127.945 Z0.000 F420.000
G1 X-197.108 Y127.534 Z0.000 F420.000
G1 X-197.774 Y126.944 Z0.000 F420.000
G1 X-198.265 Y126.402 Z0.000 F420.000
G1 X-198.690 Y125.824 Z0.000 F420.000
G1 X-199.053 Y125.208 Z0.000 F420.000
G1 X-199.356 Y124.551 Z0.000 F420.000
G1 X-199.599 Y123.848 Z0.000 F420.000
G1 X-199.781 Y123.096 Z0.000 F420.000
G1 X-199.902 Y122.289 Z0.000 F420.000
G1 X-199.960 Y121.147 Z0.000 F420.000
G1 X-199.924 Y120.275 Z0.000 F420.000
G1 X-199.818 Y119.458 Z0.000 F420.000
G1 X-199.645 Y118.692 Z0.000 F420.000
G1 X-199.409 Y117.971 Z0.000 F420.000
G1 X-199.110 Y117.291 Z0.000 F420.000
G1 X-198.748 Y116.649 Z0.000 F420.000
G1 X-198.321 Y116.040 Z0.000 F420.000
G1 X-197.721 Y115.351 Z0.000 F420.000
G1 X-197.162 Y114.831 Z0.000 F420.000
G1 X-196.574 Y114.383 Z0.000 F420.000
G1 X-195.955 Y114.002 Z0.000 F420.000
G1 X-195.303 Y113.686 Z0.000 F420.000
G1 X-194.614 Y113.434 Z0.000 F420.000
G1 X-193.885 Y113.244 Z0.000 F420.000
G1 X-193.110 Y113.119 Z0.000 F420.000
G1 X-191.978 Y113.055 Z0.000 F420.000
G1 X-162.993 Y113.055 Z0.000 F420.000
G1 X-158 Y113 Z0.000 F420.000

G0 Z10.000
G0 Z10.000
G0 X-141.071 Y82.321
G0 Z0.000
G1 X-141.071 Y82.321 Z0.000 F420.000
G1 X-138.120 Y82.321 Z0.000 F420.000
G1 X-137.248 Y82.358 Z0.000 F420.000
G1 X-136.435 Y82.464 Z0.000 F420.000
G1 X-135.674 Y82.636 Z0.000 F420.000
G1 X-134.961 Y82.871 Z0.000 F420.000
G1 X-134.290 Y83.168 Z0.000 F420.000
G1 X-133.659 Y83.528 Z0.000 F420.000
G1 X-133.063 Y83.951 Z0.000 F420.000
G1 X-132.377 Y84.561 Z0.000 F420.000
G1 X-131.866 Y85.123 Z0.000 F420.000
G1 X-131.426 Y85.715 Z0.000 F420.000
G1 X-131.052 Y86.339 Z0.000 F420.000
G1 X-130.743 Y86.999 Z0.000 F420.000
G1 X-130.496 Y87.696 Z0.000 F420.000
G1 X-130.311 Y88.436 Z0.000 F420.000
G1 X-130.191 Y89.222 Z0.000 F420.000
G1 X-130.134 Y90.307 Z0.000 F420.000
G1 X-130.134 Y120.930 Z0.000 F420.000
G1 X-130.097 Y121.484 Z0.000 F420.000
G1 X-129.997 Y121.934 Z0.000 F420.000
G1 X-129.844 Y122.298 Z0.000 F420.000
G1 X-129.642 Y122.591 Z0.000 F420.000
G1 X-129.394 Y122.824 Z0.000 F420.000
G1 X-129.096 Y123.004 Z0.000 F420.000
G1 X-128.738 Y123.133 Z0.000 F420.000
G1 X-128.310 Y123.209 Z0.000 F420.000
G1 X-128.131 Y123.222 Z0.000 F420.000
G1 X-127.944 Y123.227 Z0.000 F420.000
G1 X-127.429 Y123.190 Z0.000 F420.000
G1 X-127.007 Y123.090 Z0.000 F420.000
G1 X-126.663 Y122.935 Z0.000 F420.000
G1 X-126.383 Y122.730 Z0.000 F420.000
G1 X-126.158 Y122.475 Z0.000 F420.000
G1 X-125.981 Y122.164 Z0.000 F420.000
G1 X-125.853 Y121.787 Z0.000 F420.000
G1 X-125.777 Y121.332 Z0.000 F420.000
G1 X-125.763 Y121.136 Z0.000 F420.000
G1 X-125.758 Y120.930 Z0.000 F420.000
G1 X-125.758 Y105.617 Z0.000 F420.000
G1 X-125.722 Y104.511 Z0.000 F420.000
G1 X-125.615 Y103.461 Z0.000 F420.000
G1 X-125.441 Y102.462 Z0.000 F420.000
G1 X-125.201 Y101.511 Z0.000 F420.000
G1 X-124.898 Y100.602 Z0.000 F420.000
G1 X-124.532 Y99.734 Z0.000 F420.000
G1 X-124.103 Y98.903 Z0.000 F420.000
G1 X-123.609 Y98.106 Z0.000 F420.000
G1 X-123.049 Y97.342 Z0.000 F420.000
G1 X-122.422 Y96.607 Z0.000 F420.000
G1 X-122.041 Y96.211 Z0.000 F420.000
G1 X-121.316 Y95.537 Z0.000 F420.000
G1 X-120.562 Y94.937 Z0.000 F420.000
G1 X-119.780 Y94.406 Z0.000 F420.000
G1 X-118.966 Y93.942 Z0.000 F420.000
G1 X-118.120 Y93.542 Z0.000 F420.000
G1 X-117.238 Y93.207 Z0.000 F420.000
G1 X-116.317 Y92.934 Z0.000 F420.000
G1 X-115.354 Y92.726 Z0.000 F420.000
G1 X-114.346 Y92.583 Z0.000 F420.000
G1 X-113.288 Y92.506 Z0.000 F420.000
G1 X-112.631 Y92.493 Z0.000 F420.000
G1 X-111.525 Y92.530 Z0.000 F420.000
G1 X-110.475 Y92.637 Z0.000 F420.000
G1 X-109.477 Y92.811 Z0.000 F420.000
G1 X-108.525 Y93.050 Z0.000 F420.000
G1 X-107.617 Y93.353 Z0.000 F420.000
G1 X-106.750 Y93.719 Z0.000 F420.000
G1 X-105.919 Y94.149 Z0.000 F420.000
G1 X-105.123 Y94.642 Z0.000 F420.000
G1 X-104.359 Y95.201 Z0.000 F420.000
G1 X-103.625 Y95.829 Z0.000 F420.000
G1 X-103.228 Y96.211 Z0.000 F420.000
G1 X-102.554 Y96.936 Z0.000 F420.000
G1 X-101.953 Y97.689 Z0.000 F420.000
G1 X-101.421 Y98.472 Z0.000 F420.000
G1 X-100.957 Y99.285 Z0.000 F420.000
G1 X-100.557 Y100.131 Z0.000 F420.000
G1 X-100.221 Y101.012 Z0.000 F420.000
G1 X-99.949 Y101.932 Z0.000 F420.000
G1 X-99.740 Y102.894 Z0.000 F420.000
G1 X-99.597 Y103.902 Z0.000 F420.000
G1 X-99.520 Y104.958 Z0.000 F420.000
G1 X-99.507 Y105.617 Z0.000 F420.000
G1 X-99.507 Y161.839 Z0.000 F420.000
G1 X-99.471 Y162.367 Z0.000 F420.000
G1 X-99.371 Y162.795 Z0.000 F420.000

G0 Z10.000
(Finish operation: Engrave)
(Begin postamble)
M5
G17 G90
M2
