(Exported by FreeCAD)
(Post Processor: grbl_post)
(Output Time:2025-11-23 22:45:47.531917)
(Begin preamble)
G17 G90
G21
(Begin operation: Fixture)
(Path: Fixture)
G54
(Finish operation: Fixture)
(Begin operation: TC: Default Tool)
(Path: TC: Default Tool)
(TC: Default Tool)
(Begin toolchange)
( M6 T1 )
(Finish operation: TC: Default Tool)
(Begin operation: Engrave)
(Path: Engrave)
(Engrave)
G0 Z12.000
G0 X77.676 Y-7.724
G0 Z0.000
G1 X77.676 Y-7.724 Z0.000 F420.000
G1 X79.187 Y-7.407 Z0.000 F420.000
G1 X80.622 Y-7.179 Z0.000 F420.000
G1 X81.983 Y-7.036 Z0.000 F420.000
G1 X83.275 Y-6.972 Z0.000 F420.000
G1 X84.499 Y-6.983 Z0.000 F420.000
G1 X85.660 Y-7.066 Z0.000 F420.000
G1 X86.760 Y-7.217 Z0.000 F420.000
G1 X87.802 Y-7.433 Z0.000 F420.000
G1 X88.789 Y-7.711 Z0.000 F420.000
G1 X89.725 Y-8.049 Z0.000 F420.000
G1 X90.611 Y-8.447 Z0.000 F420.000
G1 X91.451 Y-8.903 Z0.000 F420.000
G1 X92.247 Y-9.418 Z0.000 F420.000
G1 X93.000 Y-9.992 Z0.000 F420.000
G1 X93.713 Y-10.627 Z0.000 F420.000
G1 X94.385 Y-11.323 Z0.000 F420.000
G1 X95.018 Y-12.084 Z0.000 F420.000
G1 X95.611 Y-12.911 Z0.000 F420.000
G1 X96.165 Y-13.809 Z0.000 F420.000
G1 X96.678 Y-14.780 Z0.000 F420.000
G1 X97.149 Y-15.828 Z0.000 F420.000
G1 X97.575 Y-16.957 Z0.000 F420.000
G1 X97.956 Y-18.172 Z0.000 F420.000
G1 X98.287 Y-19.475 Z0.000 F420.000
G1 X98.566 Y-20.872 Z0.000 F420.000
G1 X98.860 Y-22.964 Z0.000 F420.000
G1 X98.995 Y-24.793 Z0.000 F420.000
G1 X99.059 Y-26.660 Z0.000 F420.000
G1 X99.052 Y-28.557 Z0.000 F420.000
G1 X98.973 Y-30.474 Z0.000 F420.000
G1 X98.819 Y-32.401 Z0.000 F420.000
G1 X98.593 Y-34.330 Z0.000 F420.000
G1 X98.294 Y-36.250 Z0.000 F420.000
G1 X97.945 Y-38.052 Z0.000 F420.000
G1 X94.373 Y-37.588 Z0.000 F420.000
G1 X90.664 Y-37.035 Z0.000 F420.000
G1 X86.775 Y-36.384 Z0.000 F420.000
G1 X82.636 Y-35.621 Z0.000 F420.000
G1 X75.847 Y-34.242 Z0.000 F420.000
G1 X70.515 Y-33.164 Z0.000 F420.000
G1 X66.119 Y-32.340 Z0.000 F420.000
G1 X62.431 Y-31.722 Z0.000 F420.000
G1 X59.172 Y-31.251 Z0.000 F420.000
G1 X56.226 Y-30.902 Z0.000 F420.000
G1 X53.525 Y-30.658 Z0.000 F420.000
G1 X51.014 Y-30.506 Z0.000 F420.000
G1 X47.806 Y-30.432 Z0.000 F420.000
G1 X45.564 Y-30.445 Z0.000 F420.000
G1 X43.383 Y-30.531 Z0.000 F420.000
G1 X41.262 Y-30.685 Z0.000 F420.000
G1 X39.199 Y-30.907 Z0.000 F420.000
G1 X37.194 Y-31.196 Z0.000 F420.000
G1 X35.246 Y-31.548 Z0.000 F420.000
G1 X33.355 Y-31.963 Z0.000 F420.000
G1 X31.521 Y-32.440 Z0.000 F420.000
G1 X29.742 Y-32.976 Z0.000 F420.000
G1 X28.019 Y-33.571 Z0.000 F420.000
G1 X26.350 Y-34.222 Z0.000 F420.000
G1 X24.736 Y-34.930 Z0.000 F420.000
G1 X23.177 Y-35.692 Z0.000 F420.000
G1 X21.671 Y-36.508 Z0.000 F420.000
G1 X20.220 Y-37.376 Z0.000 F420.000
G1 X18.823 Y-38.296 Z0.000 F420.000
G1 X17.480 Y-39.266 Z0.000 F420.000
G1 X16.192 Y-40.286 Z0.000 F420.000
G1 X14.959 Y-41.354 Z0.000 F420.000
G1 X13.781 Y-42.469 Z0.000 F420.000
G1 X12.659 Y-43.631 Z0.000 F420.000
G1 X11.594 Y-44.837 Z0.000 F420.000
G1 X10.587 Y-46.087 Z0.000 F420.000
G1 X9.638 Y-47.380 Z0.000 F420.000
G1 X8.749 Y-48.713 Z0.000 F420.000
G1 X7.921 Y-50.085 Z0.000 F420.000
G1 X7.154 Y-51.495 Z0.000 F420.000
G1 X6.451 Y-52.939 Z0.000 F420.000
G1 X5.813 Y-54.416 Z0.000 F420.000
G1 X5.240 Y-55.923 Z0.000 F420.000
G1 X4.734 Y-57.458 Z0.000 F420.000
G1 X4.296 Y-59.016 Z0.000 F420.000
G1 X3.928 Y-60.596 Z0.000 F420.000
G1 X3.630 Y-62.193 Z0.000 F420.000
G1 X3.403 Y-63.803 Z0.000 F420.000
G1 X3.249 Y-65.423 Z0.000 F420.000
G1 X3.166 Y-67.048 Z0.000 F420.000
G1 X3.153 Y-68.379 Z0.000 F420.000
G1 X3.207 Y-70.053 Z0.000 F420.000
G1 X3.333 Y-71.696 Z0.000 F420.000
G1 X3.529 Y-73.308 Z0.000 F420.000
G1 X3.793 Y-74.889 Z0.000 F420.000
G1 X4.126 Y-76.437 Z0.000 F420.000
G1 X4.525 Y-77.952 Z0.000 F420.000
G1 X4.989 Y-79.432 Z0.000 F420.000
G1 X5.518 Y-80.876 Z0.000 F420.000
G1 X6.111 Y-82.284 Z0.000 F420.000
G1 X6.766 Y-83.654 Z0.000 F420.000
G1 X7.482 Y-84.985 Z0.000 F420.000
G1 X8.260 Y-86.275 Z0.000 F420.000
G1 X9.096 Y-87.524 Z0.000 F420.000
G1 X9.991 Y-88.730 Z0.000 F420.000
G1 X10.943 Y-89.891 Z0.000 F420.000
G1 X11.951 Y-91.006 Z0.000 F420.000
G1 X13.014 Y-92.073 Z0.000 F420.000
G1 X14.130 Y-93.091 Z0.000 F420.000
G1 X15.299 Y-94.058 Z0.000 F420.000
G1 X16.518 Y-94.973 Z0.000 F420.000
G1 X17.785 Y-95.833 Z0.000 F420.000
G1 X19.101 Y-96.638 Z0.000 F420.000
G1 X20.462 Y-97.385 Z0.000 F420.000
G1 X21.024 Y-97.670 Z0.000 F420.000
G1 X21.593 Y-97.945 Z0.000 F420.000
G1 X20.498 Y-99.068 Z0.000 F420.000
G1 X19.449 Y-100.247 Z0.000 F420.000
G1 X18.449 Y-101.480 Z0.000 F420.000
G1 X17.499 Y-102.765 Z0.000 F420.000
G1 X16.603 Y-104.100 Z0.000 F420.000
G1 X15.763 Y-105.482 Z0.000 F420.000
G1 X14.980 Y-106.908 Z0.000 F420.000
G1 X14.257 Y-108.375 Z0.000 F420.000
G1 X13.597 Y-109.879 Z0.000 F420.000
G1 X13.002 Y-111.416 Z0.000 F420.000
G1 X12.473 Y-112.982 Z0.000 F420.000
G1 X12.013 Y-114.572 Z0.000 F420.000
G1 X11.622 Y-116.181 Z0.000 F420.000
G1 X11.304 Y-117.804 Z0.000 F420.000
G1 X11.057 Y-119.436 Z0.000 F420.000
G1 X10.884 Y-121.071 Z0.000 F420.000
G1 X10.783 Y-122.705 Z0.000 F420.000
G1 X10.756 Y-124.333 Z0.000 F420.000
G1 X10.773 Y-125.224 Z0.000 F420.000
G1 X10.856 Y-126.815 Z0.000 F420.000
G1 X11.011 Y-128.393 Z0.000 F420.000
G1 X11.238 Y-129.954 Z0.000 F420.000
G1 X11.535 Y-131.493 Z0.000 F420.000
G1 X11.901 Y-133.007 Z0.000 F420.000
G1 X12.335 Y-134.490 Z0.000 F420.000
G1 X12.835 Y-135.939 Z0.000 F420.000
G1 X13.400 Y-137.350 Z0.000 F420.000
G1 X14.026 Y-138.721 Z0.000 F420.000
G1 X14.713 Y-140.049 Z0.000 F420.000
G1 X15.459 Y-141.331 Z0.000 F420.000
G1 X16.262 Y-142.566 Z0.000 F420.000
G1 X17.120 Y-143.751 Z0.000 F420.000
G1 X18.031 Y-144.886 Z0.000 F420.000
G1 X18.994 Y-145.968 Z0.000 F420.000
G1 X20.008 Y-146.997 Z0.000 F420.000
G1 X21.072 Y-147.972 Z0.000 F420.000
G1 X22.184 Y-148.892 Z0.000 F420.000
G1 X23.344 Y-149.757 Z0.000 F420.000
G1 X24.551 Y-150.565 Z0.000 F420.000
G1 X25.805 Y-151.316 Z0.000 F420.000
G1 X27.106 Y-152.009 Z0.000 F420.000
G1 X28.452 Y-152.644 Z0.000 F420.000
G1 X29.846 Y-153.220 Z0.000 F420.000
G1 X31.285 Y-153.735 Z0.000 F420.000
G1 X32.772 Y-154.189 Z0.000 F420.000
G1 X34.306 Y-154.580 Z0.000 F420.000
G1 X35.888 Y-154.907 Z0.000 F420.000
G1 X37.518 Y-155.169 Z0.000 F420.000
G1 X39.197 Y-155.365 Z0.000 F420.000
G1 X40.925 Y-155.492 Z0.000 F420.000
G1 X43.234 Y-155.552 Z0.000 F420.000
G1 X45.317 Y-155.516 Z0.000 F420.000
G1 X47.332 Y-155.409 Z0.000 F420.000
G1 X49.280 Y-155.234 Z0.000 F420.000
G1 X51.165 Y-154.992 Z0.000 F420.000
G1 X52.990 Y-154.686 Z0.000 F420.000
G1 X54.759 Y-154.316 Z0.000 F420.000
G1 X56.473 Y-153.884 Z0.000 F420.000
G1 X58.135 Y-153.390 Z0.000 F420.000
G1 X59.749 Y-152.836 Z0.000 F420.000
G1 X61.317 Y-152.222 Z0.000 F420.000
G1 X62.841 Y-151.548 Z0.000 F420.000
G1 X64.323 Y-150.813 Z0.000 F420.000
G1 X65.766 Y-150.017 Z0.000 F420.000
G1 X67.171 Y-149.159 Z0.000 F420.000
G1 X68.542 Y-148.239 Z0.000 F420.000
G1 X69.878 Y-147.254 Z0.000 F420.000
G1 X71.183 Y-146.204 Z0.000 F420.000
G1 X72.457 Y-145.085 Z0.000 F420.000
G1 X73.702 Y-143.895 Z0.000 F420.000
G1 X74.919 Y-142.633 Z0.000 F420.000
G1 X76.110 Y-141.294 Z0.000 F420.000
G1 X77.275 Y-139.875 Z0.000 F420.000
G1 X78.415 Y-138.372 Z0.000 F420.000
G1 X79.532 Y-136.781 Z0.000 F420.000
G1 X80.626 Y-135.097 Z0.000 F420.000
G1 X81.698 Y-133.315 Z0.000 F420.000
G1 X82.749 Y-131.427 Z0.000 F420.000
G1 X83.780 Y-129.428 Z0.000 F420.000
G1 X84.792 Y-127.309 Z0.000 F420.000
G1 X85.786 Y-125.061 Z0.000 F420.000
G1 X86.764 Y-122.672 Z0.000 F420.000
G1 X87.728 Y-120.128 Z0.000 F420.000
G1 X88.681 Y-117.413 Z0.000 F420.000
G1 X89.626 Y-114.505 Z0.000 F420.000
G1 X90.569 Y-111.373 Z0.000 F420.000
G1 X91.518 Y-107.978 Z0.000 F420.000
G1 X92.485 Y-104.256 Z0.000 F420.000
G1 X93.678 Y-99.317 Z0.000 F420.000
G1 X95.808 Y-99.749 Z0.000 F420.000
G1 X97.951 Y-100.110 Z0.000 F420.000
G1 X100.103 Y-100.399 Z0.000 F420.000
G1 X102.259 Y-100.616 Z0.000 F420.000
G1 X104.415 Y-100.759 Z0.000 F420.000
G1 X106.565 Y-100.830 Z0.000 F420.000
G1 X108.706 Y-100.828 Z0.000 F420.000
G1 X110.832 Y-100.753 Z0.000 F420.000
G1 X112.938 Y-100.606 Z0.000 F420.000
G1 X115.020 Y-100.388 Z0.000 F420.000
G1 X117.074 Y-100.100 Z0.000 F420.000
G1 X119.096 Y-99.743 Z0.000 F420.000
G1 X121.080 Y-99.319 Z0.000 F420.000
G1 X123.024 Y-98.829 Z0.000 F420.000
G1 X124.925 Y-98.275 Z0.000 F420.000
G1 X126.779 Y-97.659 Z0.000 F420.000
G1 X128.582 Y-96.983 Z0.000 F420.000
G1 X130.334 Y-96.249 Z0.000 F420.000
G1 X132.031 Y-95.458 Z0.000 F420.000
G1 X133.673 Y-94.614 Z0.000 F420.000
G1 X135.256 Y-93.717 Z0.000 F420.000
G1 X136.780 Y-92.769 Z0.000 F420.000
G1 X138.245 Y-91.774 Z0.000 F420.000
G1 X139.648 Y-90.731 Z0.000 F420.000
G1 X140.990 Y-89.643 Z0.000 F420.000
G1 X142.270 Y-88.512 Z0.000 F420.000
G1 X143.488 Y-87.338 Z0.000 F420.000
G1 X144.643 Y-86.123 Z0.000 F420.000
G1 X145.736 Y-84.867 Z0.000 F420.000
G1 X146.766 Y-83.572 Z0.000 F420.000
G1 X147.734 Y-82.238 Z0.000 F420.000
G1 X148.639 Y-80.866 Z0.000 F420.000
G1 X149.481 Y-79.457 Z0.000 F420.000
G1 X150.261 Y-78.009 Z0.000 F420.000
G1 X150.978 Y-76.524 Z0.000 F420.000
G1 X151.631 Y-75.002 Z0.000 F420.000
G1 X152.221 Y-73.441 Z0.000 F420.000
G1 X152.746 Y-71.843 Z0.000 F420.000
G1 X153.208 Y-70.207 Z0.000 F420.000
G1 X153.603 Y-68.532 Z0.000 F420.000
G1 X153.933 Y-66.817 Z0.000 F420.000
G1 X154.196 Y-65.063 Z0.000 F420.000
G1 X154.390 Y-63.268 Z0.000 F420.000
G1 X154.485 Y-61.979 Z0.000 F420.000
G1 X154.545 Y-60.389 Z0.000 F420.000
G1 X154.531 Y-58.811 Z0.000 F420.000
G1 X154.445 Y-57.249 Z0.000 F420.000
G1 X154.288 Y-55.709 Z0.000 F420.000
G1 X154.061 Y-54.196 Z0.000 F420.000
G1 X153.766 Y-52.714 Z0.000 F420.000
G1 X153.404 Y-51.268 Z0.000 F420.000
G1 X152.977 Y-49.862 Z0.000 F420.000
G1 X152.488 Y-48.500 Z0.000 F420.000
G1 X151.939 Y-47.187 Z0.000 F420.000
G1 X151.332 Y-45.925 Z0.000 F420.000
G1 X150.672 Y-44.717 Z0.000 F420.000
G1 X149.959 Y-43.566 Z0.000 F420.000
G1 X149.198 Y-42.474 Z0.000 F420.000
G1 X148.390 Y-41.443 Z0.000 F420.000
G1 X147.538 Y-40.474 Z0.000 F420.000
G1 X146.645 Y-39.568 Z0.000 F420.000
G1 X145.712 Y-38.726 Z0.000 F420.000
G1 X144.742 Y-37.948 Z0.000 F420.000
G1 X143.735 Y-37.236 Z0.000 F420.000
G1 X142.695 Y-36.588 Z0.000 F420.000
G1 X141.621 Y-36.007 Z0.000 F420.000
G1 X140.515 Y-35.491 Z0.000 F420.000
G1 X139.377 Y-35.041 Z0.000 F420.000
G1 X138.208 Y-34.657 Z0.000 F420.000
G1 X137.008 Y-34.341 Z0.000 F420.000
G1 X135.777 Y-34.093 Z0.000 F420.000
G1 X134.516 Y-33.913 Z0.000 F420.000
G1 X133.224 Y-33.803 Z0.000 F420.000
G1 X131.900 Y-33.765 Z0.000 F420.000
G1 X130.864 Y-33.785 Z0.000 F420.000
G1 X129.538 Y-33.820 Z0.000 F420.000
G1 X128.179 Y-33.929 Z0.000 F420.000
G1 X126.786 Y-34.112 Z0.000 F420.000
G1 X125.357 Y-34.372 Z0.000 F420.000
G1 X123.893 Y-34.712 Z0.000 F420.000
G1 X122.391 Y-35.133 Z0.000 F420.000
G1 X120.500 Y-35.766 Z0.000 F420.000
G1 X117.758 Y-36.474 Z0.000 F420.000
G1 X115.262 Y-37.041 Z0.000 F420.000
G1 X112.955 Y-37.487 Z0.000 F420.000
G1 X110.778 Y-37.831 Z0.000 F420.000
G1 X108.695 Y-38.084 Z0.000 F420.000
G1 X106.682 Y-38.254 Z0.000 F420.000
G1 X104.720 Y-38.345 Z0.000 F420.000
G1 X102.798 Y-38.359 Z0.000 F420.000
G1 X100.904 Y-38.300 Z0.000 F420.000
G1 X99.469 Y-38.204 Z0.000 F420.000
G0 Z12.000
G0 Z12.000
G0 X25.098 Y-99.469
G0 Z0.000
G1 X25.098 Y-99.469 Z0.000 F420.000
G1 X26.706 Y-99.987 Z0.000 F420.000
G1 X28.334 Y-100.434 Z0.000 F420.000
G1 X29.977 Y-100.810 Z0.000 F420.000
G1 X31.633 Y-101.113 Z0.000 F420.000
G1 X33.299 Y-101.344 Z0.000 F420.000
G1 X34.971 Y-101.502 Z0.000 F420.000
G1 X36.648 Y-101.587 Z0.000 F420.000
G1 X37.747 Y-101.603 Z0.000 F420.000
G1 X39.528 Y-101.566 Z0.000 F420.000
G1 X41.307 Y-101.458 Z0.000 F420.000
G1 X43.086 Y-101.277 Z0.000 F420.000
G1 X44.862 Y-101.024 Z0.000 F420.000
G1 X46.636 Y-100.698 Z0.000 F420.000
G1 X48.406 Y-100.300 Z0.000 F420.000
G1 X50.172 Y-99.828 Z0.000 F420.000
G1 X51.932 Y-99.283 Z0.000 F420.000
G1 X53.686 Y-98.664 Z0.000 F420.000
G1 X55.430 Y-97.971 Z0.000 F420.000
G1 X57.165 Y-97.205 Z0.000 F420.000
G1 X57.821 Y-96.894 Z0.000 F420.000
G1 X58.474 Y-96.573 Z0.000 F420.000
G0 Z12.000
G0 Z12.000
G0 X52.835 Y-139.550
G0 Z0.000
G1 X52.835 Y-139.550 Z0.000 F420.000
G1 X52.987 Y-141.074 Z0.000 F420.000
G1 X54.239 Y-140.818 Z0.000 F420.000
G1 X55.454 Y-140.497 Z0.000 F420.000
G1 X56.632 Y-140.111 Z0.000 F420.000
G1 X57.774 Y-139.661 Z0.000 F420.000
G1 X58.880 Y-139.149 Z0.000 F420.000
G1 X59.951 Y-138.573 Z0.000 F420.000
G1 X60.985 Y-137.935 Z0.000 F420.000
G1 X61.983 Y-137.235 Z0.000 F420.000
G1 X62.943 Y-136.473 Z0.000 F420.000
G1 X63.866 Y-135.649 Z0.000 F420.000
G1 X64.749 Y-134.764 Z0.000 F420.000
G1 X65.591 Y-133.817 Z0.000 F420.000
G1 X66.391 Y-132.810 Z0.000 F420.000
G1 X67.145 Y-131.743 Z0.000 F420.000
G1 X67.852 Y-130.618 Z0.000 F420.000
G1 X68.509 Y-129.437 Z0.000 F420.000
G1 X69.113 Y-128.202 Z0.000 F420.000
G1 X69.661 Y-126.916 Z0.000 F420.000
G1 X70.151 Y-125.582 Z0.000 F420.000
G1 X70.580 Y-124.205 Z0.000 F420.000
G1 X70.944 Y-122.790 Z0.000 F420.000
G1 X71.242 Y-121.343 Z0.000 F420.000
G1 X71.472 Y-119.869 Z0.000 F420.000
G1 X71.630 Y-118.376 Z0.000 F420.000
G1 X71.700 Y-117.306 Z0.000 F420.000
G1 X71.732 Y-116.233 Z0.000 F420.000
G1 X71.696 Y-114.702 Z0.000 F420.000
G1 X71.587 Y-113.175 Z0.000 F420.000
G1 X71.405 Y-111.659 Z0.000 F420.000
G1 X71.152 Y-110.163 Z0.000 F420.000
G1 X70.830 Y-108.695 Z0.000 F420.000
G1 X70.440 Y-107.260 Z0.000 F420.000
G1 X69.985 Y-105.865 Z0.000 F420.000
G1 X69.468 Y-104.515 Z0.000 F420.000
G1 X68.891 Y-103.213 Z0.000 F420.000
G1 X68.257 Y-101.963 Z0.000 F420.000
G1 X67.568 Y-100.768 Z0.000 F420.000
G1 X66.828 Y-99.629 Z0.000 F420.000
G1 X66.037 Y-98.549 Z0.000 F420.000
G1 X65.199 Y-97.527 Z0.000 F420.000
G1 X64.315 Y-96.564 Z0.000 F420.000
G1 X63.386 Y-95.662 Z0.000 F420.000
G1 X62.131 Y-94.592 Z0.000 F420.000
G1 X63.874 Y-93.504 Z0.000 F420.000
G1 X65.611 Y-92.335 Z0.000 F420.000
G1 X67.340 Y-91.084 Z0.000 F420.000
G1 X69.060 Y-89.750 Z0.000 F420.000
G1 X70.769 Y-88.333 Z0.000 F420.000
G1 X72.464 Y-86.834 Z0.000 F420.000
G1 X74.143 Y-85.252 Z0.000 F420.000
G1 X75.803 Y-83.588 Z0.000 F420.000
G1 X77.442 Y-81.844 Z0.000 F420.000
G1 X79.055 Y-80.021 Z0.000 F420.000
G1 X80.640 Y-78.121 Z0.000 F420.000
G1 X82.193 Y-76.147 Z0.000 F420.000
G1 X83.709 Y-74.102 Z0.000 F420.000
G1 X85.185 Y-71.990 Z0.000 F420.000
G1 X86.616 Y-69.816 Z0.000 F420.000
G1 X87.998 Y-67.586 Z0.000 F420.000
G1 X89.326 Y-65.304 Z0.000 F420.000
G1 X90.596 Y-62.979 Z0.000 F420.000
G1 X91.803 Y-60.617 Z0.000 F420.000
G1 X92.944 Y-58.227 Z0.000 F420.000
G1 X94.014 Y-55.817 Z0.000 F420.000
G1 X95.010 Y-53.395 Z0.000 F420.000
G1 X95.929 Y-50.971 Z0.000 F420.000
G1 X96.767 Y-48.555 Z0.000 F420.000
G1 X97.524 Y-46.154 Z0.000 F420.000
G1 X98.196 Y-43.779 Z0.000 F420.000
G1 X98.784 Y-41.437 Z0.000 F420.000
G1 X99.164 Y-39.728 Z0.000 F420.000
G1 X101.025 Y-39.852 Z0.000 F420.000
G1 X102.903 Y-39.905 Z0.000 F420.000
G1 X104.806 Y-39.888 Z0.000 F420.000
G1 X106.744 Y-39.799 Z0.000 F420.000
G1 X108.728 Y-39.637 Z0.000 F420.000
G1 X110.771 Y-39.399 Z0.000 F420.000
G1 X112.894 Y-39.081 Z0.000 F420.000
G1 X114.404 Y-38.814 Z0.000 F420.000
G1 X113.018 Y-39.724 Z0.000 F420.000
G1 X111.679 Y-40.689 Z0.000 F420.000
G1 X110.389 Y-41.709 Z0.000 F420.000
G1 X109.146 Y-42.784 Z0.000 F420.000
G1 X107.951 Y-43.915 Z0.000 F420.000
G1 X106.802 Y-45.102 Z0.000 F420.000
G1 X105.700 Y-46.346 Z0.000 F420.000
G1 X104.645 Y-47.647 Z0.000 F420.000
G1 X103.638 Y-49.006 Z0.000 F420.000
G1 X102.677 Y-50.423 Z0.000 F420.000
G1 X102.212 Y-51.158 Z0.000 F420.000
G1 X101.203 Y-52.877 Z0.000 F420.000
G1 X100.208 Y-54.713 Z0.000 F420.000
G1 X99.225 Y-56.677 Z0.000 F420.000
G1 X98.253 Y-58.780 Z0.000 F420.000
G1 X97.290 Y-61.035 Z0.000 F420.000
G1 X96.333 Y-63.460 Z0.000 F420.000
G1 X95.377 Y-66.075 Z0.000 F420.000
G1 X94.417 Y-68.908 Z0.000 F420.000
G1 X93.444 Y-71.998 Z0.000 F420.000
G1 X92.447 Y-75.402 Z0.000 F420.000
G1 X91.404 Y-79.210 Z0.000 F420.000
G1 X90.275 Y-83.588 Z0.000 F420.000
G1 X88.968 Y-88.915 Z0.000 F420.000
G1 X87.031 Y-97.041 Z0.000 F420.000
G1 X85.506 Y-103.320 Z0.000 F420.000
G1 X84.214 Y-108.367 Z0.000 F420.000
G1 X83.060 Y-112.584 Z0.000 F420.000
G1 X81.973 Y-116.269 Z0.000 F420.000
G1 X80.927 Y-119.552 Z0.000 F420.000
G1 X79.905 Y-122.510 Z0.000 F420.000
G1 X78.895 Y-125.206 Z0.000 F420.000
G1 X77.889 Y-127.683 Z0.000 F420.000
G1 X76.880 Y-129.969 Z0.000 F420.000
G1 X75.865 Y-132.087 Z0.000 F420.000
G1 X74.840 Y-134.053 Z0.000 F420.000
G1 X73.804 Y-135.883 Z0.000 F420.000
G1 X72.755 Y-137.587 Z0.000 F420.000
G1 X71.691 Y-139.175 Z0.000 F420.000
G1 X70.611 Y-140.656 Z0.000 F420.000
G1 X69.513 Y-142.036 Z0.000 F420.000
G1 X68.397 Y-143.322 Z0.000 F420.000
G1 X67.260 Y-144.519 Z0.000 F420.000
G1 X66.102 Y-145.633 Z0.000 F420.000
G1 X64.922 Y-146.667 Z0.000 F420.000
G1 X63.716 Y-147.625 Z0.000 F420.000
G1 X62.485 Y-148.510 Z0.000 F420.000
G1 X61.225 Y-149.326 Z0.000 F420.000
G1 X59.936 Y-150.073 Z0.000 F420.000
G1 X58.614 Y-150.754 Z0.000 F420.000
G1 X57.258 Y-151.371 Z0.000 F420.000
G1 X55.864 Y-151.923 Z0.000 F420.000
G1 X54.431 Y-152.413 Z0.000 F420.000
G1 X52.956 Y-152.839 Z0.000 F420.000
G1 X51.436 Y-153.201 Z0.000 F420.000
G1 X49.867 Y-153.500 Z0.000 F420.000
G1 X48.248 Y-153.733 Z0.000 F420.000
G1 X46.573 Y-153.900 Z0.000 F420.000
G1 X44.841 Y-153.999 Z0.000 F420.000
G1 X43.234 Y-154.028 Z0.000 F420.000
G0 Z12.000
G0 Z12.000
G0 X60.760 Y-93.525
G0 Z0.000
G1 X60.760 Y-93.525 Z0.000 F420.000
G1 X59.616 Y-92.807 Z0.000 F420.000
G1 X58.434 Y-92.152 Z0.000 F420.000
G1 X57.213 Y-91.559 Z0.000 F420.000
G1 X55.952 Y-91.028 Z0.000 F420.000
G1 X54.649 Y-90.561 Z0.000 F420.000
G1 X53.305 Y-90.156 Z0.000 F420.000
G1 X51.917 Y-89.815 Z0.000 F420.000
G1 X50.484 Y-89.540 Z0.000 F420.000
G1 X49.004 Y-89.330 Z0.000 F420.000
G1 X47.475 Y-89.188 Z0.000 F420.000
G1 X45.896 Y-89.115 Z0.000 F420.000
G1 X45.481 Y-89.108 Z0.000 F420.000
G1 X45.063 Y-89.106 Z0.000 F420.000
G1 X43.311 Y-89.142 Z0.000 F420.000
G1 X41.606 Y-89.249 Z0.000 F420.000
G1 X39.946 Y-89.425 Z0.000 F420.000
G1 X38.330 Y-89.669 Z0.000 F420.000
G1 X36.757 Y-89.979 Z0.000 F420.000
G1 X35.226 Y-90.354 Z0.000 F420.000
G1 X33.734 Y-90.793 Z0.000 F420.000
G1 X32.282 Y-91.296 Z0.000 F420.000
G1 X30.868 Y-91.862 Z0.000 F420.000
G1 X29.491 Y-92.491 Z0.000 F420.000
G1 X28.150 Y-93.182 Z0.000 F420.000
G1 X26.846 Y-93.936 Z0.000 F420.000
G1 X25.577 Y-94.753 Z0.000 F420.000
G1 X24.342 Y-95.633 Z0.000 F420.000
G1 X23.645 Y-96.171 Z0.000 F420.000
G1 X22.965 Y-96.726 Z0.000 F420.000
G0 Z12.000
G0 Z12.000
G0 X179.632 Y-124.615
G0 Z0.000
G1 X179.632 Y-124.615 Z0.000 F420.000
G1 X179.168 Y-124.552 Z0.000 F420.000
G1 X178.747 Y-124.422 Z0.000 F420.000
G1 X178.363 Y-124.229 Z0.000 F420.000
G1 X178.008 Y-123.970 Z0.000 F420.000
G1 X177.679 Y-123.640 Z0.000 F420.000
G1 X177.374 Y-123.231 Z0.000 F420.000
G1 X177.093 Y-122.731 Z0.000 F420.000
G1 X176.839 Y-122.129 Z0.000 F420.000
G1 X176.614 Y-121.409 Z0.000 F420.000
G1 X176.423 Y-120.555 Z0.000 F420.000
G1 X176.274 Y-119.548 Z0.000 F420.000
G1 X176.173 Y-118.370 Z0.000 F420.000
G1 X176.126 Y-116.690 Z0.000 F420.000
G1 X176.162 Y-115.045 Z0.000 F420.000
G1 X176.274 Y-113.167 Z0.000 F420.000
G1 X176.472 Y-111.036 Z0.000 F420.000
G1 X176.767 Y-108.632 Z0.000 F420.000
G1 X177.169 Y-105.935 Z0.000 F420.000
G1 X177.688 Y-102.924 Z0.000 F420.000
G1 X178.332 Y-99.579 Z0.000 F420.000
G1 X179.113 Y-95.871 Z0.000 F420.000
G1 X180.046 Y-91.737 Z0.000 F420.000
G1 X181.230 Y-86.652 Z0.000 F420.000
G1 X181.613 Y-84.839 Z0.000 F420.000
G1 X180.190 Y-84.875 Z0.000 F420.000
G1 X179.027 Y-84.976 Z0.000 F420.000
G1 X178.065 Y-85.130 Z0.000 F420.000
G1 X177.260 Y-85.331 Z0.000 F420.000
G1 X176.581 Y-85.573 Z0.000 F420.000
G1 X176.002 Y-85.855 Z0.000 F420.000
G1 X175.503 Y-86.178 Z0.000 F420.000
G1 X175.067 Y-86.544 Z0.000 F420.000
G1 X174.682 Y-86.962 Z0.000 F420.000
G1 X174.338 Y-87.441 Z0.000 F420.000
G1 X174.027 Y-87.997 Z0.000 F420.000
G1 X173.741 Y-88.656 Z0.000 F420.000
G1 X173.474 Y-89.452 Z0.000 F420.000
G1 X173.214 Y-90.450 Z0.000 F420.000
G1 X173.067 Y-91.129 Z0.000 F420.000
G1 X172.926 Y-91.849 Z0.000 F420.000
G1 X172.616 Y-90.919 Z0.000 F420.000
G1 X172.251 Y-90.056 Z0.000 F420.000
G1 X171.836 Y-89.265 Z0.000 F420.000
G1 X171.375 Y-88.544 Z0.000 F420.000
G1 X170.871 Y-87.894 Z0.000 F420.000
G1 X170.328 Y-87.313 Z0.000 F420.000
G1 X169.746 Y-86.799 Z0.000 F420.000
G1 X169.126 Y-86.350 Z0.000 F420.000
G1 X168.468 Y-85.965 Z0.000 F420.000
G1 X167.771 Y-85.642 Z0.000 F420.000
G1 X167.032 Y-85.382 Z0.000 F420.000
G1 X166.249 Y-85.186 Z0.000 F420.000
G1 X165.420 Y-85.055 Z0.000 F420.000
G1 X164.544 Y-84.991 Z0.000 F420.000
G1 X163.531 Y-85.027 Z0.000 F420.000
G1 X162.534 Y-85.134 Z0.000 F420.000
G1 X161.550 Y-85.312 Z0.000 F420.000
G1 X160.578 Y-85.561 Z0.000 F420.000
G1 X159.618 Y-85.881 Z0.000 F420.000
G1 X158.670 Y-86.273 Z0.000 F420.000
G1 X157.732 Y-86.739 Z0.000 F420.000
G1 X156.806 Y-87.280 Z0.000 F420.000
G1 X155.891 Y-87.897 Z0.000 F420.000
G1 X154.989 Y-88.593 Z0.000 F420.000
G1 X154.101 Y-89.369 Z0.000 F420.000
G1 X153.231 Y-90.226 Z0.000 F420.000
G1 X152.379 Y-91.166 Z0.000 F420.000
G1 X151.550 Y-92.187 Z0.000 F420.000
G1 X150.748 Y-93.291 Z0.000 F420.000
G1 X149.978 Y-94.475 Z0.000 F420.000
G1 X149.243 Y-95.735 Z0.000 F420.000
G1 X148.550 Y-97.067 Z0.000 F420.000
G1 X147.905 Y-98.464 Z0.000 F420.000
G1 X147.313 Y-99.919 Z0.000 F420.000
G1 X146.779 Y-101.420 Z0.000 F420.000
G1 X146.310 Y-102.957 Z0.000 F420.000
G1 X145.911 Y-104.514 Z0.000 F420.000
G1 X145.583 Y-106.079 Z0.000 F420.000
G1 X145.332 Y-107.636 Z0.000 F420.000
G1 X145.157 Y-109.171 Z0.000 F420.000
G1 X145.060 Y-110.668 Z0.000 F420.000
G1 X145.037 Y-111.813 Z0.000 F420.000
G1 X145.073 Y-113.132 Z0.000 F420.000
G1 X145.179 Y-114.391 Z0.000 F420.000
G1 X145.353 Y-115.591 Z0.000 F420.000
G1 X145.589 Y-116.727 Z0.000 F420.000
G1 X145.887 Y-117.800 Z0.000 F420.000
G1 X146.241 Y-118.809 Z0.000 F420.000
G1 X146.648 Y-119.752 Z0.000 F420.000
G1 X147.106 Y-120.631 Z0.000 F420.000
G1 X147.612 Y-121.446 Z0.000 F420.000
G1 X148.164 Y-122.196 Z0.000 F420.000
G1 X148.759 Y-122.882 Z0.000 F420.000
G1 X149.395 Y-123.506 Z0.000 F420.000
G1 X150.071 Y-124.067 Z0.000 F420.000
G1 X150.787 Y-124.566 Z0.000 F420.000
G1 X151.542 Y-125.003 Z0.000 F420.000
G1 X152.335 Y-125.379 Z0.000 F420.000
G1 X153.168 Y-125.691 Z0.000 F420.000
G1 X154.039 Y-125.941 Z0.000 F420.000
G1 X154.951 Y-126.125 Z0.000 F420.000
G1 X155.903 Y-126.242 Z0.000 F420.000
G1 X156.484 Y-126.279 Z0.000 F420.000
G1 X157.076 Y-126.291 Z0.000 F420.000
G1 X157.917 Y-126.255 Z0.000 F420.000
G1 X158.730 Y-126.149 Z0.000 F420.000
G1 X159.519 Y-125.974 Z0.000 F420.000
G1 X160.288 Y-125.730 Z0.000 F420.000
G1 X161.040 Y-125.417 Z0.000 F420.000
G1 X161.777 Y-125.032 Z0.000 F420.000
G1 X162.501 Y-124.572 Z0.000 F420.000
G1 X163.214 Y-124.035 Z0.000 F420.000
G1 X163.918 Y-123.414 Z0.000 F420.000
G1 X164.614 Y-122.705 Z0.000 F420.000
G1 X165.302 Y-121.902 Z0.000 F420.000
G1 X165.982 Y-120.998 Z0.000 F420.000
G1 X166.654 Y-119.985 Z0.000 F420.000
G1 X167.319 Y-118.855 Z0.000 F420.000
G1 X167.974 Y-117.601 Z0.000 F420.000
G1 X168.621 Y-116.211 Z0.000 F420.000
G1 X169.259 Y-114.676 Z0.000 F420.000
G1 X169.887 Y-112.982 Z0.000 F420.000
G1 X170.183 Y-112.118 Z0.000 F420.000
G1 X170.183 Y-112.728 Z0.000 F420.000
G1 X170.222 Y-114.345 Z0.000 F420.000
G1 X170.335 Y-115.855 Z0.000 F420.000
G1 X170.515 Y-117.240 Z0.000 F420.000
G1 X170.756 Y-118.499 Z0.000 F420.000
G1 X171.049 Y-119.637 Z0.000 F420.000
G1 X171.389 Y-120.659 Z0.000 F420.000
G1 X171.771 Y-121.573 Z0.000 F420.000
G1 X172.192 Y-122.386 Z0.000 F420.000
G1 X172.648 Y-123.106 Z0.000 F420.000
G1 X173.137 Y-123.740 Z0.000 F420.000
G1 X173.657 Y-124.295 Z0.000 F420.000
G1 X174.210 Y-124.775 Z0.000 F420.000
G1 X174.796 Y-125.187 Z0.000 F420.000
G1 X175.416 Y-125.532 Z0.000 F420.000
G1 X176.074 Y-125.813 Z0.000 F420.000
G1 X176.773 Y-126.031 Z0.000 F420.000
G1 X177.518 Y-126.184 Z0.000 F420.000
G1 X178.312 Y-126.273 Z0.000 F420.000
G1 X179.174 Y-126.291 Z0.000 F420.000
G1 X179.836 Y-126.243 Z0.000 F420.000
G1 X180.486 Y-126.124 Z0.000 F420.000
G1 X181.128 Y-125.933 Z0.000 F420.000
G1 X181.765 Y-125.669 Z0.000 F420.000
G1 X182.401 Y-125.327 Z0.000 F420.000
G1 X183.037 Y-124.903 Z0.000 F420.000
G1 X183.677 Y-124.390 Z0.000 F420.000
G1 X184.321 Y-123.781 Z0.000 F420.000
G1 X184.972 Y-123.067 Z0.000 F420.000
G1 X185.629 Y-122.240 Z0.000 F420.000
G1 X186.293 Y-121.287 Z0.000 F420.000
G1 X186.965 Y-120.200 Z0.000 F420.000
G1 X187.644 Y-118.965 Z0.000 F420.000
G1 X188.332 Y-117.569 Z0.000 F420.000
G1 X189.027 Y-115.998 Z0.000 F420.000
G1 X189.732 Y-114.233 Z0.000 F420.000
G1 X190.451 Y-112.250 Z0.000 F420.000
G1 X191.195 Y-110.007 Z0.000 F420.000
G1 X191.997 Y-107.397 Z0.000 F420.000
G1 X193.043 Y-103.889 Z0.000 F420.000
G0 Z12.000
G0 Z12.000
G0 X211.636 Y-124.615
G0 Z0.000
G1 X211.636 Y-124.615 Z0.000 F420.000
G1 X211.172 Y-124.552 Z0.000 F420.000
G1 X210.752 Y-124.422 Z0.000 F420.000
G1 X210.367 Y-124.229 Z0.000 F420.000
G1 X210.012 Y-123.970 Z0.000 F420.000
G1 X209.683 Y-123.640 Z0.000 F420.000
G1 X209.378 Y-123.231 Z0.000 F420.000
G1 X209.097 Y-122.731 Z0.000 F420.000
G1 X208.843 Y-122.129 Z0.000 F420.000
G1 X208.618 Y-121.409 Z0.000 F420.000
G1 X208.427 Y-120.555 Z0.000 F420.000
G1 X208.278 Y-119.548 Z0.000 F420.000
G1 X208.177 Y-118.370 Z0.000 F420.000
G1 X208.130 Y-116.690 Z0.000 F420.000
G1 X208.166 Y-115.011 Z0.000 F420.000
G1 X208.278 Y-113.106 Z0.000 F420.000
G1 X208.475 Y-110.961 Z0.000 F420.000
G1 X208.768 Y-108.561 Z0.000 F420.000
G1 X209.163 Y-105.897 Z0.000 F420.000
G1 X209.669 Y-102.965 Z0.000 F420.000
G1 X210.289 Y-99.772 Z0.000 F420.000
G1 X211.178 Y-95.659 Z0.000 F420.000
G1 X211.686 Y-93.387 Z0.000 F420.000
G1 X211.887 Y-92.270 Z0.000 F420.000
G1 X211.965 Y-91.462 Z0.000 F420.000
G1 X211.956 Y-90.817 Z0.000 F420.000
G1 X211.875 Y-90.269 Z0.000 F420.000
G1 X211.728 Y-89.785 Z0.000 F420.000
G1 X211.513 Y-89.336 Z0.000 F420.000
G1 X211.224 Y-88.903 Z0.000 F420.000
G1 X210.844 Y-88.471 Z0.000 F420.000
G1 X210.353 Y-88.025 Z0.000 F420.000
G1 X209.718 Y-87.552 Z0.000 F420.000
G1 X208.899 Y-87.034 Z0.000 F420.000
G1 X207.833 Y-86.450 Z0.000 F420.000
G1 X206.432 Y-85.768 Z0.000 F420.000
G1 X204.553 Y-84.935 Z0.000 F420.000
G1 X201.947 Y-83.861 Z0.000 F420.000
G1 X198.224 Y-82.400 Z0.000 F420.000
G1 X198.487 Y-80.609 Z0.000 F420.000
G1 X198.636 Y-79.123 Z0.000 F420.000
G1 X198.670 Y-78.519 Z0.000 F420.000
G1 X198.682 Y-77.981 Z0.000 F420.000
G1 X198.644 Y-77.272 Z0.000 F420.000
G1 X198.532 Y-76.588 Z0.000 F420.000
G1 X198.354 Y-75.968 Z0.000 F420.000
G1 X198.123 Y-75.432 Z0.000 F420.000
G1 X197.848 Y-74.983 Z0.000 F420.000
G1 X197.537 Y-74.618 Z0.000 F420.000
G1 X197.193 Y-74.330 Z0.000 F420.000
G1 X196.819 Y-74.114 Z0.000 F420.000
G1 X196.411 Y-73.965 Z0.000 F420.000
G1 X195.964 Y-73.882 Z0.000 F420.000
G1 X195.634 Y-73.866 Z0.000 F420.000
G1 X195.183 Y-73.901 Z0.000 F420.000
G1 X194.756 Y-74.005 Z0.000 F420.000
G1 X194.352 Y-74.177 Z0.000 F420.000
G1 X193.972 Y-74.416 Z0.000 F420.000
G1 X193.619 Y-74.722 Z0.000 F420.000
G1 X193.296 Y-75.097 Z0.000 F420.000
G1 X193.012 Y-75.537 Z0.000 F420.000
G1 X192.774 Y-76.037 Z0.000 F420.000
G1 X192.594 Y-76.586 Z0.000 F420.000
G1 X192.478 Y-77.169 Z0.000 F420.000
G1 X192.433 Y-77.828 Z0.000 F420.000
G1 X192.469 Y-78.477 Z0.000 F420.000
G1 X192.573 Y-79.090 Z0.000 F420.000
G1 X192.744 Y-79.674 Z0.000 F420.000
G1 X192.982 Y-80.235 Z0.000 F420.000
G1 X193.290 Y-80.779 Z0.000 F420.000
G1 X193.673 Y-81.313 Z0.000 F420.000
G1 X194.140 Y-81.842 Z0.000 F420.000
G1 X194.704 Y-82.375 Z0.000 F420.000
G1 X195.383 Y-82.921 Z0.000 F420.000
G1 X196.396 Y-83.619 Z0.000 F420.000
G0 Z12.000
G0 Z12.000
G0 X192.128 Y-107.089
G0 Z0.000
G1 X192.128 Y-107.089 Z0.000 F420.000
G1 X193.052 Y-103.797 Z0.000 F420.000
G1 X194.553 Y-98.172 Z0.000 F420.000
G1 X195.796 Y-93.346 Z0.000 F420.000
G1 X197.005 Y-88.496 Z0.000 F420.000
G1 X197.920 Y-84.381 Z0.000 F420.000
G1 X199.211 Y-85.107 Z0.000 F420.000
G1 X199.880 Y-85.478 Z0.000 F420.000
G1 X201.028 Y-86.153 Z0.000 F420.000
G1 X201.895 Y-86.738 Z0.000 F420.000
G1 X202.575 Y-87.284 Z0.000 F420.000
G1 X203.125 Y-87.822 Z0.000 F420.000
G1 X203.571 Y-88.363 Z0.000 F420.000
G1 X203.929 Y-88.918 Z0.000 F420.000
G1 X204.214 Y-89.496 Z0.000 F420.000
G1 X204.431 Y-90.107 Z0.000 F420.000
G1 X204.584 Y-90.761 Z0.000 F420.000
G1 X204.671 Y-91.467 Z0.000 F420.000
G1 X204.689 Y-92.235 Z0.000 F420.000
G1 X204.634 Y-93.076 Z0.000 F420.000
G1 X204.567 Y-93.593 Z0.000 F420.000
G1 X204.473 Y-94.135 Z0.000 F420.000
G1 X203.698 Y-98.380 Z0.000 F420.000
G1 X203.139 Y-101.838 Z0.000 F420.000
G1 X202.733 Y-104.804 Z0.000 F420.000
G1 X202.452 Y-107.414 Z0.000 F420.000
G1 X202.278 Y-109.731 Z0.000 F420.000
G1 X202.210 Y-111.248 Z0.000 F420.000
G1 X202.187 Y-112.728 Z0.000 F420.000
G1 X202.226 Y-114.345 Z0.000 F420.000
G1 X202.339 Y-115.855 Z0.000 F420.000
G1 X202.520 Y-117.240 Z0.000 F420.000
G1 X202.760 Y-118.499 Z0.000 F420.000
G1 X203.053 Y-119.637 Z0.000 F420.000
G1 X203.393 Y-120.659 Z0.000 F420.000
G1 X203.775 Y-121.573 Z0.000 F420.000
G1 X204.196 Y-122.386 Z0.000 F420.000
G1 X204.652 Y-123.106 Z0.000 F420.000
G1 X205.141 Y-123.740 Z0.000 F420.000
G1 X205.661 Y-124.295 Z0.000 F420.000
G1 X206.214 Y-124.775 Z0.000 F420.000
G1 X206.800 Y-125.187 Z0.000 F420.000
G1 X207.420 Y-125.532 Z0.000 F420.000
G1 X208.078 Y-125.813 Z0.000 F420.000
G1 X208.777 Y-126.031 Z0.000 F420.000
G1 X209.522 Y-126.184 Z0.000 F420.000
G1 X210.316 Y-126.273 Z0.000 F420.000
G1 X211.178 Y-126.291 Z0.000 F420.000
G1 X211.840 Y-126.243 Z0.000 F420.000
G1 X212.490 Y-126.124 Z0.000 F420.000
G1 X213.132 Y-125.933 Z0.000 F420.000
G1 X213.769 Y-125.669 Z0.000 F420.000
G1 X214.405 Y-125.327 Z0.000 F420.000
G1 X215.041 Y-124.903 Z0.000 F420.000
G1 X215.681 Y-124.390 Z0.000 F420.000
G1 X216.325 Y-123.781 Z0.000 F420.000
G1 X216.976 Y-123.067 Z0.000 F420.000
G1 X217.633 Y-122.240 Z0.000 F420.000
G1 X218.297 Y-121.287 Z0.000 F420.000
G1 X218.969 Y-120.200 Z0.000 F420.000
G1 X219.649 Y-118.965 Z0.000 F420.000
G1 X220.336 Y-117.569 Z0.000 F420.000
G1 X221.031 Y-115.998 Z0.000 F420.000
G1 X221.736 Y-114.233 Z0.000 F420.000
G1 X222.455 Y-112.250 Z0.000 F420.000
G1 X223.199 Y-110.007 Z0.000 F420.000
G1 X224.001 Y-107.397 Z0.000 F420.000
G1 X225.047 Y-103.889 Z0.000 F420.000
G0 Z12.000
G0 Z12.000
G0 X252.174 Y-121.567
G0 Z0.000
G1 X252.174 Y-121.567 Z0.000 F420.000
G1 X251.643 Y-121.531 Z0.000 F420.000
G1 X251.141 Y-121.425 Z0.000 F420.000
G1 X250.665 Y-121.252 Z0.000 F420.000
G1 X250.215 Y-121.011 Z0.000 F420.000
G1 X249.789 Y-120.702 Z0.000 F420.000
G1 X249.389 Y-120.321 Z0.000 F420.000
G1 X249.017 Y-119.866 Z0.000 F420.000
G1 X248.677 Y-119.334 Z0.000 F420.000
G1 X248.373 Y-118.723 Z0.000 F420.000
G1 X248.111 Y-118.031 Z0.000 F420.000
G1 X247.907 Y-117.300 Z0.000 F420.000
G1 X248.720 Y-115.921 Z0.000 F420.000
G1 X249.533 Y-114.402 Z0.000 F420.000
G1 X250.343 Y-112.734 Z0.000 F420.000
G1 X251.152 Y-110.904 Z0.000 F420.000
G1 X251.958 Y-108.901 Z0.000 F420.000
G1 X252.763 Y-106.711 Z0.000 F420.000
G1 X253.566 Y-104.318 Z0.000 F420.000
G1 X254.368 Y-101.703 Z0.000 F420.000
G1 X255.171 Y-98.843 Z0.000 F420.000
G1 X255.977 Y-95.710 Z0.000 F420.000
G1 X256.793 Y-92.260 Z0.000 F420.000
G1 X257.628 Y-88.429 Z0.000 F420.000
G1 X258.502 Y-84.102 Z0.000 F420.000
G1 X259.032 Y-81.333 Z0.000 F420.000
G0 Z12.000
G0 Z12.000
G0 X234.343 Y-84.839
G0 Z0.000
G1 X234.343 Y-84.839 Z0.000 F420.000
G1 X232.891 Y-84.875 Z0.000 F420.000
G1 X231.702 Y-84.975 Z0.000 F420.000
G1 X230.721 Y-85.129 Z0.000 F420.000
G1 X229.903 Y-85.328 Z0.000 F420.000
G1 X229.216 Y-85.568 Z0.000 F420.000
G1 X228.634 Y-85.846 Z0.000 F420.000
G1 X228.135 Y-86.163 Z0.000 F420.000
G1 X227.702 Y-86.521 Z0.000 F420.000
G1 X227.323 Y-86.929 Z0.000 F420.000
G1 X226.986 Y-87.395 Z0.000 F420.000
G1 X226.683 Y-87.938 Z0.000 F420.000
G1 X226.404 Y-88.583 Z0.000 F420.000
G1 X226.141 Y-89.370 Z0.000 F420.000
G1 X225.877 Y-90.381 Z0.000 F420.000
G1 X225.766 Y-90.876 Z0.000 F420.000
G1 X225.656 Y-91.392 Z0.000 F420.000
G1 X225.206 Y-93.637 Z0.000 F420.000
G1 X224.213 Y-98.401 Z0.000 F420.000
G1 X223.638 Y-101.460 Z0.000 F420.000
G1 X223.218 Y-104.082 Z0.000 F420.000
G1 X222.920 Y-106.413 Z0.000 F420.000
G1 X222.727 Y-108.522 Z0.000 F420.000
G1 X222.627 Y-110.436 Z0.000 F420.000
G1 X222.608 Y-111.661 Z0.000 F420.000
G1 X222.646 Y-113.268 Z0.000 F420.000
G1 X222.754 Y-114.735 Z0.000 F420.000
G1 X222.927 Y-116.074 Z0.000 F420.000
G1 X223.159 Y-117.295 Z0.000 F420.000
G1 X223.446 Y-118.409 Z0.000 F420.000
G1 X223.783 Y-119.423 Z0.000 F420.000
G1 X224.166 Y-120.347 Z0.000 F420.000
G1 X224.595 Y-121.186 Z0.000 F420.000
G1 X225.066 Y-121.948 Z0.000 F420.000
G1 X225.579 Y-122.639 Z0.000 F420.000
G1 X226.135 Y-123.263 Z0.000 F420.000
G1 X226.733 Y-123.825 Z0.000 F420.000
G1 X227.377 Y-124.328 Z0.000 F420.000
G1 X228.067 Y-124.773 Z0.000 F420.000
G1 X228.807 Y-125.163 Z0.000 F420.000
G1 X229.602 Y-125.498 Z0.000 F420.000
G1 X230.455 Y-125.777 Z0.000 F420.000
G1 X231.371 Y-125.999 Z0.000 F420.000
G1 X232.356 Y-126.161 Z0.000 F420.000
G1 X233.416 Y-126.260 Z0.000 F420.000
G1 X233.948 Y-126.283 Z0.000 F420.000
G1 X234.495 Y-126.291 Z0.000 F420.000
G1 X235.483 Y-126.255 Z0.000 F420.000
G1 X236.440 Y-126.148 Z0.000 F420.000
G1 X237.371 Y-125.971 Z0.000 F420.000
G1 X238.280 Y-125.725 Z0.000 F420.000
G1 X239.171 Y-125.409 Z0.000 F420.000
G1 X240.047 Y-125.022 Z0.000 F420.000
G1 X240.911 Y-124.560 Z0.000 F420.000
G1 X241.767 Y-124.021 Z0.000 F420.000
G1 X242.618 Y-123.399 Z0.000 F420.000
G1 X243.466 Y-122.689 Z0.000 F420.000
G1 X244.314 Y-121.885 Z0.000 F420.000
G1 X244.819 Y-121.358 Z0.000 F420.000
G1 X245.316 Y-120.805 Z0.000 F420.000
G1 X245.852 Y-121.340 Z0.000 F420.000
G1 X246.426 Y-121.811 Z0.000 F420.000
G1 X247.041 Y-122.220 Z0.000 F420.000
G1 X247.697 Y-122.569 Z0.000 F420.000
G1 X248.397 Y-122.859 Z0.000 F420.000
G1 X249.144 Y-123.088 Z0.000 F420.000
G1 X249.941 Y-123.256 Z0.000 F420.000
G1 X250.792 Y-123.359 Z0.000 F420.000
G1 X251.248 Y-123.387 Z0.000 F420.000
G1 X251.717 Y-123.396 Z0.000 F420.000
G1 X252.445 Y-123.346 Z0.000 F420.000
G1 X253.150 Y-123.227 Z0.000 F420.000
G1 X253.835 Y-123.038 Z0.000 F420.000
G1 X254.504 Y-122.780 Z0.000 F420.000
G1 X255.160 Y-122.449 Z0.000 F420.000
G1 X255.806 Y-122.043 Z0.000 F420.000
G1 X256.444 Y-121.558 Z0.000 F420.000
G1 X257.077 Y-120.986 Z0.000 F420.000
G1 X257.705 Y-120.321 Z0.000 F420.000
G1 X258.330 Y-119.556 Z0.000 F420.000
G1 X258.952 Y-118.681 Z0.000 F420.000
G1 X259.573 Y-117.686 Z0.000 F420.000
G1 X260.192 Y-116.559 Z0.000 F420.000
G1 X260.810 Y-115.285 Z0.000 F420.000
G1 X261.431 Y-113.849 Z0.000 F420.000
G1 X262.058 Y-112.224 Z0.000 F420.000
G1 X262.701 Y-110.372 Z0.000 F420.000
G1 X263.385 Y-108.206 Z0.000 F420.000
G1 X264.211 Y-105.418 Z0.000 F420.000
G1 X264.671 Y-103.889 Z0.000 F420.000
G0 Z12.000
G0 Z12.000
G0 X273.662 Y-84.839
G0 Z0.000
G1 X273.662 Y-84.839 Z0.000 F420.000
G1 X272.210 Y-84.875 Z0.000 F420.000
G1 X271.022 Y-84.975 Z0.000 F420.000
G1 X270.040 Y-85.129 Z0.000 F420.000
G1 X269.222 Y-85.328 Z0.000 F420.000
G1 X268.535 Y-85.568 Z0.000 F420.000
G1 X267.953 Y-85.846 Z0.000 F420.000
G1 X267.454 Y-86.163 Z0.000 F420.000
G1 X267.021 Y-86.521 Z0.000 F420.000
G1 X266.642 Y-86.929 Z0.000 F420.000
G1 X266.305 Y-87.395 Z0.000 F420.000
G1 X266.002 Y-87.938 Z0.000 F420.000
G1 X265.724 Y-88.583 Z0.000 F420.000
G1 X265.461 Y-89.370 Z0.000 F420.000
G1 X265.196 Y-90.381 Z0.000 F420.000
G1 X265.085 Y-90.876 Z0.000 F420.000
G1 X264.975 Y-91.392 Z0.000 F420.000
G1 X264.089 Y-96.160 Z0.000 F420.000
G1 X263.434 Y-100.046 Z0.000 F420.000
G1 X262.957 Y-103.313 Z0.000 F420.000
G1 X262.617 Y-106.151 Z0.000 F420.000
G1 X262.392 Y-108.654 Z0.000 F420.000
G1 X262.268 Y-110.868 Z0.000 F420.000
G1 X262.232 Y-112.728 Z0.000 F420.000
G1 X262.271 Y-114.345 Z0.000 F420.000
G1 X262.385 Y-115.855 Z0.000 F420.000
G1 X262.565 Y-117.240 Z0.000 F420.000
G1 X262.805 Y-118.499 Z0.000 F420.000
G1 X263.098 Y-119.637 Z0.000 F420.000
G1 X263.438 Y-120.659 Z0.000 F420.000
G1 X263.821 Y-121.573 Z0.000 F420.000
G1 X264.242 Y-122.386 Z0.000 F420.000
G1 X264.697 Y-123.106 Z0.000 F420.000
G1 X265.186 Y-123.740 Z0.000 F420.000
G1 X265.707 Y-124.295 Z0.000 F420.000
G1 X266.259 Y-124.775 Z0.000 F420.000
G1 X266.845 Y-125.187 Z0.000 F420.000
G1 X267.465 Y-125.532 Z0.000 F420.000
G1 X268.123 Y-125.813 Z0.000 F420.000
G1 X268.823 Y-126.031 Z0.000 F420.000
G1 X269.567 Y-126.184 Z0.000 F420.000
G1 X270.362 Y-126.273 Z0.000 F420.000
G1 X271.224 Y-126.291 Z0.000 F420.000
G1 X271.886 Y-126.243 Z0.000 F420.000
G1 X272.537 Y-126.124 Z0.000 F420.000
G1 X273.182 Y-125.933 Z0.000 F420.000
G1 X273.822 Y-125.668 Z0.000 F420.000
G1 X274.461 Y-125.325 Z0.000 F420.000
G1 X275.102 Y-124.900 Z0.000 F420.000
G1 X275.747 Y-124.386 Z0.000 F420.000
G1 X276.396 Y-123.776 Z0.000 F420.000
G1 X277.053 Y-123.060 Z0.000 F420.000
G1 X277.716 Y-122.231 Z0.000 F420.000
G1 X278.386 Y-121.279 Z0.000 F420.000
G1 X279.063 Y-120.192 Z0.000 F420.000
G1 X279.747 Y-118.960 Z0.000 F420.000
G1 X280.436 Y-117.572 Z0.000 F420.000
G1 X281.131 Y-116.015 Z0.000 F420.000
G1 X281.832 Y-114.275 Z0.000 F420.000
G1 X282.538 Y-112.338 Z0.000 F420.000
G1 X283.254 Y-110.181 Z0.000 F420.000
G1 X283.992 Y-107.756 Z0.000 F420.000
G1 X285.092 Y-103.889 Z0.000 F420.000
G0 Z12.000
G0 Z12.000
G0 X271.681 Y-81.181
G0 Z0.000
G1 X271.681 Y-81.181 Z0.000 F420.000
G1 X272.227 Y-81.145 Z0.000 F420.000
G1 X272.751 Y-81.040 Z0.000 F420.000
G1 X273.251 Y-80.868 Z0.000 F420.000
G1 X273.721 Y-80.630 Z0.000 F420.000
G1 X274.154 Y-80.330 Z0.000 F420.000
G1 X274.546 Y-79.973 Z0.000 F420.000
G1 X274.887 Y-79.563 Z0.000 F420.000
G1 X275.171 Y-79.108 Z0.000 F420.000
G1 X275.393 Y-78.617 Z0.000 F420.000
G1 X275.546 Y-78.098 Z0.000 F420.000
G1 X275.629 Y-77.561 Z0.000 F420.000
G1 X275.640 Y-77.391 Z0.000 F420.000
G1 X275.643 Y-77.219 Z0.000 F420.000
G1 X275.608 Y-76.649 Z0.000 F420.000
G1 X275.503 Y-76.108 Z0.000 F420.000
G1 X275.331 Y-75.599 Z0.000 F420.000
G1 X275.097 Y-75.128 Z0.000 F420.000
G1 X274.803 Y-74.699 Z0.000 F420.000
G1 X274.454 Y-74.316 Z0.000 F420.000
G1 X274.054 Y-73.986 Z0.000 F420.000
G1 X273.608 Y-73.712 Z0.000 F420.000
G1 X273.121 Y-73.499 Z0.000 F420.000
G1 X272.598 Y-73.351 Z0.000 F420.000
G1 X272.043 Y-73.270 Z0.000 F420.000
G1 X271.864 Y-73.260 Z0.000 F420.000
G1 X271.681 Y-73.256 Z0.000 F420.000
G1 X271.112 Y-73.292 Z0.000 F420.000
G1 X270.571 Y-73.397 Z0.000 F420.000
G1 X270.062 Y-73.568 Z0.000 F420.000
G1 X269.590 Y-73.803 Z0.000 F420.000
G1 X269.161 Y-74.097 Z0.000 F420.000
G1 X268.779 Y-74.446 Z0.000 F420.000
G1 X268.448 Y-74.845 Z0.000 F420.000
G1 X268.175 Y-75.291 Z0.000 F420.000
G1 X267.962 Y-75.778 Z0.000 F420.000
G1 X267.813 Y-76.302 Z0.000 F420.000
G1 X267.733 Y-76.856 Z0.000 F420.000
G1 X267.722 Y-77.036 Z0.000 F420.000
G1 X267.719 Y-77.219 Z0.000 F420.000
G1 X267.754 Y-77.755 Z0.000 F420.000
G1 X267.861 Y-78.280 Z0.000 F420.000
G1 X268.036 Y-78.786 Z0.000 F420.000
G1 X268.279 Y-79.264 Z0.000 F420.000
G1 X268.583 Y-79.705 Z0.000 F420.000
G1 X268.944 Y-80.100 Z0.000 F420.000
G1 X269.355 Y-80.442 Z0.000 F420.000
G1 X269.808 Y-80.724 Z0.000 F420.000
G1 X270.297 Y-80.941 Z0.000 F420.000
G1 X270.815 Y-81.090 Z0.000 F420.000
G1 X271.356 Y-81.168 Z0.000 F420.000
G1 X271.517 Y-81.178 Z0.000 F420.000
G1 X271.681 Y-81.181 Z0.000 F420.000
G0 Z12.000
G0 Z12.000
G0 X292.407 Y-94.135
G0 Z0.000
G1 X292.407 Y-94.135 Z0.000 F420.000
G1 X292.865 Y-91.392 Z0.000 F420.000
G1 X293.021 Y-90.426 Z0.000 F420.000
G1 X293.080 Y-89.606 Z0.000 F420.000
G1 X293.057 Y-88.895 Z0.000 F420.000
G1 X292.961 Y-88.273 Z0.000 F420.000
G1 X292.802 Y-87.730 Z0.000 F420.000
G1 X292.584 Y-87.250 Z0.000 F420.000
G1 X292.309 Y-86.825 Z0.000 F420.000
G1 X291.974 Y-86.447 Z0.000 F420.000
G1 X291.576 Y-86.111 Z0.000 F420.000
G1 X291.108 Y-85.815 Z0.000 F420.000
G1 X290.561 Y-85.558 Z0.000 F420.000
G1 X289.924 Y-85.343 Z0.000 F420.000
G1 X289.185 Y-85.173 Z0.000 F420.000
G1 X288.330 Y-85.055 Z0.000 F420.000
G1 X287.654 Y-85.007 Z0.000 F420.000
G1 X286.921 Y-84.991 Z0.000 F420.000
G1 X285.496 Y-92.403 Z0.000 F420.000
G1 X282.726 Y-107.117 Z0.000 F420.000
G1 X281.604 Y-113.036 Z0.000 F420.000
G1 X280.520 Y-118.671 Z0.000 F420.000
G1 X280.309 Y-120.043 Z0.000 F420.000
G1 X280.216 Y-121.101 Z0.000 F420.000
G1 X280.211 Y-121.962 Z0.000 F420.000
G1 X280.281 Y-122.685 Z0.000 F420.000
G1 X280.414 Y-123.299 Z0.000 F420.000
G1 X280.604 Y-123.826 Z0.000 F420.000
G1 X280.848 Y-124.283 Z0.000 F420.000
G1 X281.145 Y-124.683 Z0.000 F420.000
G1 X281.500 Y-125.035 Z0.000 F420.000
G1 X281.918 Y-125.345 Z0.000 F420.000
G1 X282.408 Y-125.616 Z0.000 F420.000
G1 X282.983 Y-125.846 Z0.000 F420.000
G1 X283.655 Y-126.034 Z0.000 F420.000
G1 X284.441 Y-126.176 Z0.000 F420.000
G1 X285.357 Y-126.264 Z0.000 F420.000
G1 X286.311 Y-126.291 Z0.000 F420.000
G1 X287.475 Y-120.322 Z0.000 F420.000
G1 X289.194 Y-111.214 Z0.000 F420.000
G1 X289.954 Y-107.238 Z0.000 F420.000
G1 X290.731 Y-103.279 Z0.000 F420.000
G1 X291.430 Y-100.913 Z0.000 F420.000
G1 X292.133 Y-98.795 Z0.000 F420.000
G1 X292.842 Y-96.902 Z0.000 F420.000
G1 X293.553 Y-95.217 Z0.000 F420.000
G1 X294.264 Y-93.727 Z0.000 F420.000
G1 X294.969 Y-92.424 Z0.000 F420.000
G1 X295.667 Y-91.291 Z0.000 F420.000
G1 X296.357 Y-90.311 Z0.000 F420.000
G1 X297.039 Y-89.472 Z0.000 F420.000
G1 X297.712 Y-88.760 Z0.000 F420.000
G1 X298.377 Y-88.164 Z0.000 F420.000
G1 X299.034 Y-87.673 Z0.000 F420.000
G1 X299.686 Y-87.278 Z0.000 F420.000
G1 X300.334 Y-86.971 Z0.000 F420.000
G1 X300.982 Y-86.746 Z0.000 F420.000
G1 X301.631 Y-86.598 Z0.000 F420.000
G1 X302.286 Y-86.524 Z0.000 F420.000
G1 X302.452 Y-86.517 Z0.000 F420.000
G1 X302.618 Y-86.515 Z0.000 F420.000
G1 X303.307 Y-86.551 Z0.000 F420.000
G1 X303.927 Y-86.653 Z0.000 F420.000
G1 X304.486 Y-86.818 Z0.000 F420.000
G1 X304.991 Y-87.040 Z0.000 F420.000
G1 X305.450 Y-87.320 Z0.000 F420.000
G1 X305.868 Y-87.658 Z0.000 F420.000
G1 X306.248 Y-88.058 Z0.000 F420.000
G1 X306.594 Y-88.526 Z0.000 F420.000
G1 X306.905 Y-89.069 Z0.000 F420.000
G1 X307.182 Y-89.695 Z0.000 F420.000
G1 X307.422 Y-90.417 Z0.000 F420.000
G1 X307.623 Y-91.248 Z0.000 F420.000
G1 X307.781 Y-92.202 Z0.000 F420.000
G1 X307.890 Y-93.299 Z0.000 F420.000
G1 X307.938 Y-94.240 Z0.000 F420.000
G1 X307.952 Y-95.202 Z0.000 F420.000
G1 X307.846 Y-96.705 Z0.000 F420.000
G1 X307.661 Y-98.351 Z0.000 F420.000
G1 X307.382 Y-100.212 Z0.000 F420.000
G1 X306.981 Y-102.460 Z0.000 F420.000
G1 X306.306 Y-105.942 Z0.000 F420.000
G1 X305.836 Y-108.548 Z0.000 F420.000
G1 X305.521 Y-110.664 Z0.000 F420.000
G1 X305.324 Y-112.489 Z0.000 F420.000
G1 X305.250 Y-113.522 Z0.000 F420.000
G1 X305.209 Y-114.556 Z0.000 F420.000
G1 X305.213 Y-116.026 Z0.000 F420.000
G1 X305.290 Y-117.347 Z0.000 F420.000
G1 X305.433 Y-118.536 Z0.000 F420.000
G1 X305.636 Y-119.605 Z0.000 F420.000
G1 X305.892 Y-120.564 Z0.000 F420.000
G1 X306.198 Y-121.424 Z0.000 F420.000
G1 X306.550 Y-122.194 Z0.000 F420.000
G1 X306.945 Y-122.883 Z0.000 F420.000
G1 X307.382 Y-123.497 Z0.000 F420.000
G1 X307.860 Y-124.042 Z0.000 F420.000
G1 X308.380 Y-124.524 Z0.000 F420.000
G1 X308.945 Y-124.947 Z0.000 F420.000
G1 X309.557 Y-125.312 Z0.000 F420.000
G1 X310.220 Y-125.622 Z0.000 F420.000
G1 X310.938 Y-125.876 Z0.000 F420.000
G1 X311.719 Y-126.073 Z0.000 F420.000
G1 X312.566 Y-126.210 Z0.000 F420.000
G1 X313.487 Y-126.283 Z0.000 F420.000
G1 X314.353 Y-126.291 Z0.000 F420.000
G1 X315.015 Y-126.243 Z0.000 F420.000
G1 X315.663 Y-126.124 Z0.000 F420.000
G1 X316.302 Y-125.933 Z0.000 F420.000
G1 X316.936 Y-125.670 Z0.000 F420.000
G1 X317.568 Y-125.329 Z0.000 F420.000
G1 X318.199 Y-124.906 Z0.000 F420.000
G1 X318.833 Y-124.395 Z0.000 F420.000
G1 X319.470 Y-123.788 Z0.000 F420.000
G1 X320.113 Y-123.077 Z0.000 F420.000
G1 X320.762 Y-122.253 Z0.000 F420.000
G1 X321.417 Y-121.304 Z0.000 F420.000
G1 X322.079 Y-120.219 Z0.000 F420.000
G1 X322.748 Y-118.988 Z0.000 F420.000
G1 X323.423 Y-117.594 Z0.000 F420.000
G1 X324.107 Y-116.025 Z0.000 F420.000
G1 X324.800 Y-114.259 Z0.000 F420.000
G1 X325.509 Y-112.270 Z0.000 F420.000
G1 X326.244 Y-110.009 Z0.000 F420.000
G1 X327.047 Y-107.348 Z0.000 F420.000
G1 X328.069 Y-103.889 Z0.000 F420.000
G0 Z12.000
G0 Z12.000
G0 X359.920 Y-124.615
G0 Z0.000
G1 X359.920 Y-124.615 Z0.000 F420.000
G1 X359.457 Y-124.552 Z0.000 F420.000
G1 X359.036 Y-124.422 Z0.000 F420.000
G1 X358.652 Y-124.229 Z0.000 F420.000
G1 X358.297 Y-123.970 Z0.000 F420.000
G1 X357.968 Y-123.640 Z0.000 F420.000
G1 X357.663 Y-123.231 Z0.000 F420.000
G1 X357.382 Y-122.731 Z0.000 F420.000
G1 X357.127 Y-122.129 Z0.000 F420.000
G1 X356.902 Y-121.409 Z0.000 F420.000
G1 X356.712 Y-120.555 Z0.000 F420.000
G1 X356.563 Y-119.548 Z0.000 F420.000
G1 X356.462 Y-118.370 Z0.000 F420.000
G1 X356.415 Y-116.690 Z0.000 F420.000
G1 X356.451 Y-115.409 Z0.000 F420.000
G1 X356.570 Y-113.755 Z0.000 F420.000
G1 X356.794 Y-111.662 Z0.000 F420.000
G1 X357.145 Y-109.066 Z0.000 F420.000
G1 X357.645 Y-105.906 Z0.000 F420.000
G1 X358.314 Y-102.128 Z0.000 F420.000
G1 X359.168 Y-97.702 Z0.000 F420.000
G1 X360.214 Y-92.644 Z0.000 F420.000
G1 X361.434 Y-87.063 Z0.000 F420.000
G1 X362.359 Y-83.010 Z0.000 F420.000
G1 X364.349 Y-81.639 Z0.000 F420.000
G1 X366.407 Y-80.130 Z0.000 F420.000
G1 X368.488 Y-78.511 Z0.000 F420.000
G1 X370.553 Y-76.810 Z0.000 F420.000
G1 X372.567 Y-75.055 Z0.000 F420.000
G1 X374.505 Y-73.267 Z0.000 F420.000
G1 X376.347 Y-71.467 Z0.000 F420.000
G1 X378.080 Y-69.669 Z0.000 F420.000
G1 X379.695 Y-67.887 Z0.000 F420.000
G1 X381.189 Y-66.129 Z0.000 F420.000
G1 X382.558 Y-64.404 Z0.000 F420.000
G1 X383.804 Y-62.715 Z0.000 F420.000
G1 X384.928 Y-61.068 Z0.000 F420.000
G1 X385.933 Y-59.464 Z0.000 F420.000
G1 X386.823 Y-57.905 Z0.000 F420.000
G1 X387.603 Y-56.391 Z0.000 F420.000
G1 X388.277 Y-54.924 Z0.000 F420.000
G1 X388.850 Y-53.501 Z0.000 F420.000
G1 X389.326 Y-52.122 Z0.000 F420.000
G1 X389.710 Y-50.786 Z0.000 F420.000
G1 X390.006 Y-49.491 Z0.000 F420.000
G1 X390.218 Y-48.235 Z0.000 F420.000
G1 X390.349 Y-47.016 Z0.000 F420.000
G1 X390.382 Y-46.496 Z0.000 F420.000
G1 X390.400 Y-45.977 Z0.000 F420.000
G1 X390.394 Y-44.945 Z0.000 F420.000
G1 X390.315 Y-43.932 Z0.000 F420.000
G1 X390.166 Y-42.953 Z0.000 F420.000
G1 X389.950 Y-42.020 Z0.000 F420.000
G1 X389.672 Y-41.143 Z0.000 F420.000
G1 X389.336 Y-40.328 Z0.000 F420.000
G1 X388.949 Y-39.579 Z0.000 F420.000
G1 X388.515 Y-38.899 Z0.000 F420.000
G1 X388.038 Y-38.288 Z0.000 F420.000
G1 X387.521 Y-37.745 Z0.000 F420.000
G1 X386.966 Y-37.269 Z0.000 F420.000
G1 X386.375 Y-36.859 Z0.000 F420.000
G1 X385.747 Y-36.514 Z0.000 F420.000
G1 X385.083 Y-36.233 Z0.000 F420.000
G1 X384.380 Y-36.016 Z0.000 F420.000
G1 X383.636 Y-35.864 Z0.000 F420.000
G1 X382.850 Y-35.780 Z0.000 F420.000
G1 X382.440 Y-35.764 Z0.000 F420.000
G1 X382.018 Y-35.766 Z0.000 F420.000
G1 X381.150 Y-35.826 Z0.000 F420.000
G1 X380.287 Y-35.958 Z0.000 F420.000
G1 X379.428 Y-36.163 Z0.000 F420.000
G1 X378.569 Y-36.442 Z0.000 F420.000
G1 X377.709 Y-36.798 Z0.000 F420.000
G1 X376.845 Y-37.233 Z0.000 F420.000
G1 X375.975 Y-37.753 Z0.000 F420.000
G1 X375.097 Y-38.362 Z0.000 F420.000
G1 X374.211 Y-39.065 Z0.000 F420.000
G1 X373.314 Y-39.869 Z0.000 F420.000
G1 X372.406 Y-40.780 Z0.000 F420.000
G1 X371.487 Y-41.806 Z0.000 F420.000
G1 X370.556 Y-42.953 Z0.000 F420.000
G1 X369.613 Y-44.230 Z0.000 F420.000
G1 X368.658 Y-45.644 Z0.000 F420.000
G1 X367.693 Y-47.205 Z0.000 F420.000
G1 X366.716 Y-48.919 Z0.000 F420.000
G1 X365.731 Y-50.795 Z0.000 F420.000
G1 X364.737 Y-52.842 Z0.000 F420.000
G1 X363.736 Y-55.066 Z0.000 F420.000
G1 X362.731 Y-57.476 Z0.000 F420.000
G1 X361.723 Y-60.076 Z0.000 F420.000
G1 X360.716 Y-62.874 Z0.000 F420.000
G1 X359.712 Y-65.870 Z0.000 F420.000
G1 X358.715 Y-69.067 Z0.000 F420.000
G1 X357.729 Y-72.462 Z0.000 F420.000
G1 X356.761 Y-76.046 Z0.000 F420.000
G1 X355.817 Y-79.804 Z0.000 F420.000
G1 X354.907 Y-83.707 Z0.000 F420.000
G1 X354.042 Y-87.706 Z0.000 F420.000
G1 X353.215 Y-91.849 Z0.000 F420.000
G1 X352.905 Y-90.919 Z0.000 F420.000
G1 X352.540 Y-90.056 Z0.000 F420.000
G1 X352.125 Y-89.265 Z0.000 F420.000
G1 X351.664 Y-88.544 Z0.000 F420.000
G1 X351.160 Y-87.894 Z0.000 F420.000
G1 X350.617 Y-87.313 Z0.000 F420.000
G1 X350.035 Y-86.799 Z0.000 F420.000
G1 X349.415 Y-86.350 Z0.000 F420.000
G1 X348.757 Y-85.965 Z0.000 F420.000
G1 X348.060 Y-85.642 Z0.000 F420.000
G1 X347.321 Y-85.382 Z0.000 F420.000
G1 X346.538 Y-85.186 Z0.000 F420.000
G1 X345.709 Y-85.055 Z0.000 F420.000
G1 X344.833 Y-84.991 Z0.000 F420.000
G1 X343.820 Y-85.027 Z0.000 F420.000
G1 X342.823 Y-85.134 Z0.000 F420.000
G1 X341.838 Y-85.312 Z0.000 F420.000
G1 X340.867 Y-85.561 Z0.000 F420.000
G1 X339.907 Y-85.881 Z0.000 F420.000
G1 X338.959 Y-86.273 Z0.000 F420.000
G1 X338.021 Y-86.739 Z0.000 F420.000
G1 X337.095 Y-87.280 Z0.000 F420.000
G1 X336.180 Y-87.897 Z0.000 F420.000
G1 X335.278 Y-88.593 Z0.000 F420.000
G1 X334.390 Y-89.369 Z0.000 F420.000
G1 X333.519 Y-90.226 Z0.000 F420.000
G1 X332.668 Y-91.166 Z0.000 F420.000
G1 X331.839 Y-92.187 Z0.000 F420.000
G1 X331.037 Y-93.291 Z0.000 F420.000
G1 X330.267 Y-94.475 Z0.000 F420.000
G1 X329.532 Y-95.735 Z0.000 F420.000
G1 X328.839 Y-97.067 Z0.000 F420.000
G1 X328.194 Y-98.464 Z0.000 F420.000
G1 X327.602 Y-99.919 Z0.000 F420.000
G1 X327.068 Y-101.420 Z0.000 F420.000
G1 X326.599 Y-102.957 Z0.000 F420.000
G1 X326.199 Y-104.514 Z0.000 F420.000
G1 X325.872 Y-106.079 Z0.000 F420.000
G1 X325.621 Y-107.636 Z0.000 F420.000
G1 X325.446 Y-109.171 Z0.000 F420.000
G1 X325.349 Y-110.668 Z0.000 F420.000
G1 X325.326 Y-111.813 Z0.000 F420.000
G1 X325.362 Y-113.132 Z0.000 F420.000
G1 X325.468 Y-114.391 Z0.000 F420.000
G1 X325.641 Y-115.591 Z0.000 F420.000
G1 X325.878 Y-116.727 Z0.000 F420.000
G1 X326.175 Y-117.800 Z0.000 F420.000
G1 X326.529 Y-118.809 Z0.000 F420.000
G1 X326.937 Y-119.752 Z0.000 F420.000
G1 X327.395 Y-120.631 Z0.000 F420.000
G1 X327.901 Y-121.446 Z0.000 F420.000
G1 X328.453 Y-122.196 Z0.000 F420.000
G1 X329.047 Y-122.882 Z0.000 F420.000
G1 X329.684 Y-123.506 Z0.000 F420.000
G1 X330.360 Y-124.067 Z0.000 F420.000
G1 X331.076 Y-124.566 Z0.000 F420.000
G1 X331.831 Y-125.003 Z0.000 F420.000
G1 X332.624 Y-125.379 Z0.000 F420.000
G1 X333.457 Y-125.691 Z0.000 F420.000
G1 X334.328 Y-125.941 Z0.000 F420.000
G1 X335.240 Y-126.125 Z0.000 F420.000
G1 X336.192 Y-126.242 Z0.000 F420.000
G1 X336.772 Y-126.279 Z0.000 F420.000
G1 X337.365 Y-126.291 Z0.000 F420.000
G1 X338.206 Y-126.255 Z0.000 F420.000
G1 X339.019 Y-126.149 Z0.000 F420.000
G1 X339.808 Y-125.974 Z0.000 F420.000
G1 X340.577 Y-125.730 Z0.000 F420.000
G1 X341.329 Y-125.417 Z0.000 F420.000
G1 X342.066 Y-125.032 Z0.000 F420.000
G1 X342.790 Y-124.572 Z0.000 F420.000
G1 X343.503 Y-124.035 Z0.000 F420.000
G1 X344.207 Y-123.414 Z0.000 F420.000
G1 X344.903 Y-122.705 Z0.000 F420.000
G1 X345.590 Y-121.902 Z0.000 F420.000
G1 X346.271 Y-120.998 Z0.000 F420.000
G1 X346.943 Y-119.985 Z0.000 F420.000
G1 X347.608 Y-118.855 Z0.000 F420.000
G1 X348.263 Y-117.601 Z0.000 F420.000
G1 X348.910 Y-116.211 Z0.000 F420.000
G1 X349.548 Y-114.676 Z0.000 F420.000
G1 X350.176 Y-112.982 Z0.000 F420.000
G1 X350.472 Y-112.118 Z0.000 F420.000
G1 X350.472 Y-112.728 Z0.000 F420.000
G1 X350.511 Y-114.345 Z0.000 F420.000
G1 X350.624 Y-115.855 Z0.000 F420.000
G1 X350.804 Y-117.240 Z0.000 F420.000
G1 X351.044 Y-118.499 Z0.000 F420.000
G1 X351.337 Y-119.637 Z0.000 F420.000
G1 X351.678 Y-120.659 Z0.000 F420.000
G1 X352.060 Y-121.573 Z0.000 F420.000
G1 X352.481 Y-122.386 Z0.000 F420.000
G1 X352.937 Y-123.106 Z0.000 F420.000
G1 X353.426 Y-123.740 Z0.000 F420.000
G1 X353.946 Y-124.295 Z0.000 F420.000
G1 X354.499 Y-124.775 Z0.000 F420.000
G1 X355.084 Y-125.187 Z0.000 F420.000
G1 X355.705 Y-125.532 Z0.000 F420.000
G1 X356.363 Y-125.813 Z0.000 F420.000
G1 X357.062 Y-126.031 Z0.000 F420.000
G1 X357.807 Y-126.184 Z0.000 F420.000
G1 X358.601 Y-126.273 Z0.000 F420.000
G1 X359.463 Y-126.291 Z0.000 F420.000
G1 X360.125 Y-126.243 Z0.000 F420.000
G1 X360.775 Y-126.124 Z0.000 F420.000
G1 X361.417 Y-125.933 Z0.000 F420.000
G1 X362.054 Y-125.669 Z0.000 F420.000
G1 X362.690 Y-125.327 Z0.000 F420.000
G1 X363.326 Y-124.903 Z0.000 F420.000
G1 X363.966 Y-124.390 Z0.000 F420.000
G1 X364.610 Y-123.781 Z0.000 F420.000
G1 X365.261 Y-123.067 Z0.000 F420.000
G1 X365.918 Y-122.240 Z0.000 F420.000
G1 X366.582 Y-121.287 Z0.000 F420.000
G1 X367.254 Y-120.200 Z0.000 F420.000
G1 X367.933 Y-118.965 Z0.000 F420.000
G1 X368.620 Y-117.569 Z0.000 F420.000
G1 X369.316 Y-115.998 Z0.000 F420.000
G1 X370.021 Y-114.233 Z0.000 F420.000
G1 X370.740 Y-112.250 Z0.000 F420.000
G1 X371.484 Y-110.007 Z0.000 F420.000
G1 X372.286 Y-107.397 Z0.000 F420.000
G1 X373.332 Y-103.889 Z0.000 F420.000
G0 Z12.000
G0 Z12.000
G0 X222.508 Y-268.507
G0 Z0.000
G1 X222.508 Y-268.507 Z0.000 F420.000
G1 X223.159 Y-270.313 Z0.000 F420.000
G1 X223.884 Y-272.105 Z0.000 F420.000
G1 X224.673 Y-273.858 Z0.000 F420.000
G1 X225.517 Y-275.550 Z0.000 F420.000
G1 X226.405 Y-277.166 Z0.000 F420.000
G1 X227.331 Y-278.695 Z0.000 F420.000
G1 X228.286 Y-280.130 Z0.000 F420.000
G1 X229.266 Y-281.469 Z0.000 F420.000
G1 X230.265 Y-282.709 Z0.000 F420.000
G1 X231.280 Y-283.850 Z0.000 F420.000
G1 X232.306 Y-284.894 Z0.000 F420.000
G1 X233.343 Y-285.843 Z0.000 F420.000
G1 X234.387 Y-286.700 Z0.000 F420.000
G1 X235.438 Y-287.466 Z0.000 F420.000
G1 X236.495 Y-288.147 Z0.000 F420.000
G1 X237.558 Y-288.743 Z0.000 F420.000
G1 X238.626 Y-289.258 Z0.000 F420.000
G1 X239.701 Y-289.695 Z0.000 F420.000
G1 X240.783 Y-290.055 Z0.000 F420.000
G1 X241.874 Y-290.341 Z0.000 F420.000
G1 X242.974 Y-290.552 Z0.000 F420.000
G1 X244.085 Y-290.691 Z0.000 F420.000
G1 X245.216 Y-290.758 Z0.000 F420.000
G1 X246.431 Y-290.747 Z0.000 F420.000
G1 X247.664 Y-290.664 Z0.000 F420.000
G1 X248.918 Y-290.506 Z0.000 F420.000
G1 X250.196 Y-290.273 Z0.000 F420.000
G1 X251.500 Y-289.961 Z0.000 F420.000
G1 X252.832 Y-289.568 Z0.000 F420.000
G1 X254.195 Y-289.091 Z0.000 F420.000
G1 X255.590 Y-288.525 Z0.000 F420.000
G1 X257.021 Y-287.866 Z0.000 F420.000
G1 X258.490 Y-287.110 Z0.000 F420.000
G1 X259.999 Y-286.252 Z0.000 F420.000
G1 X261.550 Y-285.287 Z0.000 F420.000
G1 X263.146 Y-284.208 Z0.000 F420.000
G1 X264.790 Y-283.010 Z0.000 F420.000
G1 X266.053 Y-282.031 Z0.000 F420.000
G1 X267.314 Y-281.004 Z0.000 F420.000
G1 X268.345 Y-281.034 Z0.000 F420.000
G1 X269.985 Y-281.129 Z0.000 F420.000
G1 X270.478 Y-281.149 Z0.000 F420.000
G1 X270.971 Y-281.156 Z0.000 F420.000
G1 X272.716 Y-281.120 Z0.000 F420.000
G1 X274.473 Y-281.011 Z0.000 F420.000
G1 X276.238 Y-280.829 Z0.000 F420.000
G1 X278.007 Y-280.574 Z0.000 F420.000
G1 X279.776 Y-280.246 Z0.000 F420.000
G1 X281.541 Y-279.844 Z0.000 F420.000
G1 X283.296 Y-279.370 Z0.000 F420.000
G1 X285.037 Y-278.825 Z0.000 F420.000
G1 X286.759 Y-278.210 Z0.000 F420.000
G1 X288.457 Y-277.526 Z0.000 F420.000
G1 X290.125 Y-276.776 Z0.000 F420.000
G1 X291.760 Y-275.961 Z0.000 F420.000
G1 X293.356 Y-275.084 Z0.000 F420.000
G1 X294.909 Y-274.148 Z0.000 F420.000
G1 X296.414 Y-273.156 Z0.000 F420.000
G1 X297.869 Y-272.110 Z0.000 F420.000
G1 X299.268 Y-271.013 Z0.000 F420.000
G1 X300.610 Y-269.870 Z0.000 F420.000
G1 X301.891 Y-268.682 Z0.000 F420.000
G1 X303.109 Y-267.453 Z0.000 F420.000
G1 X304.262 Y-266.187 Z0.000 F420.000
G1 X305.349 Y-264.885 Z0.000 F420.000
G1 X306.367 Y-263.551 Z0.000 F420.000
G1 X307.316 Y-262.187 Z0.000 F420.000
G1 X308.195 Y-260.795 Z0.000 F420.000
G1 X309.003 Y-259.379 Z0.000 F420.000
G1 X309.741 Y-257.939 Z0.000 F420.000
G1 X310.407 Y-256.478 Z0.000 F420.000
G1 X311.002 Y-254.997 Z0.000 F420.000
G1 X311.526 Y-253.497 Z0.000 F420.000
G1 X311.978 Y-251.980 Z0.000 F420.000
G1 X312.359 Y-250.446 Z0.000 F420.000
G1 X312.668 Y-248.896 Z0.000 F420.000
G1 X312.905 Y-247.331 Z0.000 F420.000
G1 X313.071 Y-245.752 Z0.000 F420.000
G1 X313.164 Y-244.158 Z0.000 F420.000
G1 X313.186 Y-242.904 Z0.000 F420.000
G1 X313.150 Y-241.408 Z0.000 F420.000
G1 X313.042 Y-239.881 Z0.000 F420.000
G1 X312.860 Y-238.316 Z0.000 F420.000
G1 X312.600 Y-236.707 Z0.000 F420.000
G1 X312.259 Y-235.045 Z0.000 F420.000
G1 X311.833 Y-233.319 Z0.000 F420.000
G1 X311.314 Y-231.517 Z0.000 F420.000
G1 X310.695 Y-229.622 Z0.000 F420.000
G1 X309.963 Y-227.607 Z0.000 F420.000
G1 X309.100 Y-225.437 Z0.000 F420.000
G1 X308.076 Y-223.048 Z0.000 F420.000
G1 X307.364 Y-221.468 Z0.000 F420.000
G1 X306.633 Y-219.892 Z0.000 F420.000
G1 X307.901 Y-216.430 Z0.000 F420.000
G1 X309.070 Y-213.029 Z0.000 F420.000
G1 X310.135 Y-209.708 Z0.000 F420.000
G1 X311.093 Y-206.482 Z0.000 F420.000
G1 X311.944 Y-203.366 Z0.000 F420.000
G1 X312.686 Y-200.372 Z0.000 F420.000
G1 X313.321 Y-197.510 Z0.000 F420.000
G1 X313.850 Y-194.789 Z0.000 F420.000
G1 X314.277 Y-192.214 Z0.000 F420.000
G1 X314.606 Y-189.789 Z0.000 F420.000
G1 X314.842 Y-187.516 Z0.000 F420.000
G1 X314.989 Y-185.394 Z0.000 F420.000
G1 X315.054 Y-183.421 Z0.000 F420.000
G1 X315.015 Y-180.877 Z0.000 F420.000
G1 X314.881 Y-179.214 Z0.000 F420.000
G1 X314.696 Y-177.821 Z0.000 F420.000
G1 X314.463 Y-176.623 Z0.000 F420.000
G1 X314.183 Y-175.581 Z0.000 F420.000
G1 X313.863 Y-174.675 Z0.000 F420.000
G1 X313.504 Y-173.885 Z0.000 F420.000
G1 X313.110 Y-173.196 Z0.000 F420.000
G1 X312.681 Y-172.596 Z0.000 F420.000
G1 X312.217 Y-172.074 Z0.000 F420.000
G1 X311.717 Y-171.623 Z0.000 F420.000
G1 X311.179 Y-171.238 Z0.000 F420.000
G1 X310.599 Y-170.914 Z0.000 F420.000
G1 X309.974 Y-170.650 Z0.000 F420.000
G1 X309.297 Y-170.446 Z0.000 F420.000
G1 X308.563 Y-170.302 Z0.000 F420.000
G1 X307.766 Y-170.222 Z0.000 F420.000
G1 X306.938 Y-170.209 Z0.000 F420.000
G1 X305.639 Y-170.244 Z0.000 F420.000
G1 X304.368 Y-170.345 Z0.000 F420.000
G1 X302.999 Y-170.521 Z0.000 F420.000
G1 X301.200 Y-170.814 Z0.000 F420.000
G1 X299.564 Y-171.084 Z0.000 F420.000
G1 X297.417 Y-171.388 Z0.000 F420.000
G1 X295.263 Y-171.613 Z0.000 F420.000
G1 X292.967 Y-171.770 Z0.000 F420.000
G1 X290.458 Y-171.862 Z0.000 F420.000
G1 X288.193 Y-171.886 Z0.000 F420.000
G0 Z12.000
G0 Z12.000
G0 X265.790 Y-144.149
G0 Z0.000
G1 X265.790 Y-144.149 Z0.000 F420.000
G1 X267.300 Y-143.837 Z0.000 F420.000
G1 X268.731 Y-143.613 Z0.000 F420.000
G1 X270.087 Y-143.474 Z0.000 F420.000
G1 X271.371 Y-143.414 Z0.000 F420.000
G1 X272.587 Y-143.429 Z0.000 F420.000
G1 X273.739 Y-143.515 Z0.000 F420.000
G1 X274.830 Y-143.668 Z0.000 F420.000
G1 X275.863 Y-143.885 Z0.000 F420.000
G1 X276.843 Y-144.165 Z0.000 F420.000
G1 X277.771 Y-144.505 Z0.000 F420.000
G1 X278.652 Y-144.903 Z0.000 F420.000
G1 X279.487 Y-145.361 Z0.000 F420.000
G1 X280.278 Y-145.877 Z0.000 F420.000
G1 X281.029 Y-146.452 Z0.000 F420.000
G1 X281.739 Y-147.088 Z0.000 F420.000
G1 X282.410 Y-147.786 Z0.000 F420.000
G1 X283.043 Y-148.549 Z0.000 F420.000
G1 X283.637 Y-149.380 Z0.000 F420.000
G1 X284.191 Y-150.280 Z0.000 F420.000
G1 X284.706 Y-151.254 Z0.000 F420.000
G1 X285.178 Y-152.305 Z0.000 F420.000
G1 X285.607 Y-153.436 Z0.000 F420.000
G1 X285.990 Y-154.651 Z0.000 F420.000
G1 X286.324 Y-155.953 Z0.000 F420.000
G1 X286.605 Y-157.346 Z0.000 F420.000
G1 X286.831 Y-158.832 Z0.000 F420.000
G1 X286.997 Y-160.414 Z0.000 F420.000
G1 X287.080 Y-161.639 Z0.000 F420.000
G1 X287.126 Y-162.894 Z0.000 F420.000
G1 X287.166 Y-164.309 Z0.000 F420.000
G1 X287.141 Y-165.887 Z0.000 F420.000
G1 X287.044 Y-167.701 Z0.000 F420.000
G1 X286.861 Y-169.913 Z0.000 F420.000
G1 X286.669 Y-171.886 Z0.000 F420.000
G1 X283.976 Y-171.828 Z0.000 F420.000
G1 X281.171 Y-171.697 Z0.000 F420.000
G1 X278.221 Y-171.489 Z0.000 F420.000
G1 X275.071 Y-171.197 Z0.000 F420.000
G1 X271.635 Y-170.809 Z0.000 F420.000
G1 X267.736 Y-170.302 Z0.000 F420.000
G1 X262.913 Y-169.612 Z0.000 F420.000
G1 X254.772 Y-168.426 Z0.000 F420.000
G1 X250.390 Y-167.851 Z0.000 F420.000
G1 X246.730 Y-167.444 Z0.000 F420.000
G1 X243.480 Y-167.157 Z0.000 F420.000
G1 X240.514 Y-166.972 Z0.000 F420.000
G1 X237.761 Y-166.876 Z0.000 F420.000
G1 X235.919 Y-166.857 Z0.000 F420.000
G1 X233.678 Y-166.870 Z0.000 F420.000
G1 X231.497 Y-166.955 Z0.000 F420.000
G1 X229.375 Y-167.110 Z0.000 F420.000
G1 X227.312 Y-167.332 Z0.000 F420.000
G1 X225.307 Y-167.620 Z0.000 F420.000
G1 X223.360 Y-167.973 Z0.000 F420.000
G1 X221.469 Y-168.388 Z0.000 F420.000
G1 X219.635 Y-168.865 Z0.000 F420.000
G1 X217.856 Y-169.401 Z0.000 F420.000
G1 X216.133 Y-169.995 Z0.000 F420.000
G1 X214.464 Y-170.647 Z0.000 F420.000
G1 X212.850 Y-171.355 Z0.000 F420.000
G1 X211.290 Y-172.117 Z0.000 F420.000
G1 X209.785 Y-172.933 Z0.000 F420.000
G1 X208.334 Y-173.801 Z0.000 F420.000
G1 X206.937 Y-174.721 Z0.000 F420.000
G1 X205.594 Y-175.691 Z0.000 F420.000
G1 X204.306 Y-176.711 Z0.000 F420.000
G1 X203.072 Y-177.779 Z0.000 F420.000
G1 X201.895 Y-178.894 Z0.000 F420.000
G1 X200.773 Y-180.056 Z0.000 F420.000
G1 X199.708 Y-181.262 Z0.000 F420.000
G1 X198.701 Y-182.512 Z0.000 F420.000
G1 X197.752 Y-183.805 Z0.000 F420.000
G1 X196.863 Y-185.138 Z0.000 F420.000
G1 X196.035 Y-186.510 Z0.000 F420.000
G1 X195.268 Y-187.920 Z0.000 F420.000
G1 X194.565 Y-189.364 Z0.000 F420.000
G1 X193.926 Y-190.841 Z0.000 F420.000
G1 X193.354 Y-192.348 Z0.000 F420.000
G1 X192.848 Y-193.883 Z0.000 F420.000
G1 X192.410 Y-195.441 Z0.000 F420.000
G1 X192.042 Y-197.021 Z0.000 F420.000
G1 X191.744 Y-198.617 Z0.000 F420.000
G1 X191.517 Y-200.228 Z0.000 F420.000
G1 X191.362 Y-201.848 Z0.000 F420.000
G1 X191.280 Y-203.473 Z0.000 F420.000
G1 X191.266 Y-204.804 Z0.000 F420.000
G1 X191.315 Y-206.487 Z0.000 F420.000
G1 X191.436 Y-208.136 Z0.000 F420.000
G1 X191.626 Y-209.752 Z0.000 F420.000
G1 X191.884 Y-211.333 Z0.000 F420.000
G1 X192.210 Y-212.880 Z0.000 F420.000
G1 X192.602 Y-214.392 Z0.000 F420.000
G1 X193.060 Y-215.868 Z0.000 F420.000
G1 X193.582 Y-217.307 Z0.000 F420.000
G1 X194.167 Y-218.708 Z0.000 F420.000
G1 X194.815 Y-220.072 Z0.000 F420.000
G1 X195.524 Y-221.396 Z0.000 F420.000
G1 X196.293 Y-222.680 Z0.000 F420.000
G1 X197.123 Y-223.924 Z0.000 F420.000
G1 X198.011 Y-225.124 Z0.000 F420.000
G1 X198.957 Y-226.282 Z0.000 F420.000
G1 X199.961 Y-227.394 Z0.000 F420.000
G1 X201.020 Y-228.461 Z0.000 F420.000
G1 X202.135 Y-229.480 Z0.000 F420.000
G1 X203.304 Y-230.450 Z0.000 F420.000
G1 X204.526 Y-231.369 Z0.000 F420.000
G1 X205.799 Y-232.236 Z0.000 F420.000
G1 X207.123 Y-233.049 Z0.000 F420.000
G1 X208.495 Y-233.807 Z0.000 F420.000
G1 X209.915 Y-234.508 Z0.000 F420.000
G1 X211.381 Y-235.150 Z0.000 F420.000
G1 X212.890 Y-235.732 Z0.000 F420.000
G1 X214.442 Y-236.252 Z0.000 F420.000
G1 X216.034 Y-236.708 Z0.000 F420.000
G1 X217.664 Y-237.099 Z0.000 F420.000
G1 X219.331 Y-237.424 Z0.000 F420.000
G1 X221.031 Y-237.681 Z0.000 F420.000
G1 X222.764 Y-237.869 Z0.000 F420.000
G1 X224.526 Y-237.986 Z0.000 F420.000
G1 X225.861 Y-238.027 Z0.000 F420.000
G1 X227.562 Y-237.992 Z0.000 F420.000
G1 X229.280 Y-237.884 Z0.000 F420.000
G1 X231.028 Y-237.703 Z0.000 F420.000
G1 X232.821 Y-237.446 Z0.000 F420.000
G1 X234.678 Y-237.107 Z0.000 F420.000
G1 X235.375 Y-236.962 Z0.000 F420.000
G1 X236.072 Y-236.808 Z0.000 F420.000
G1 X235.621 Y-238.208 Z0.000 F420.000
G1 X235.238 Y-239.636 Z0.000 F420.000
G1 X234.925 Y-241.086 Z0.000 F420.000
G1 X234.684 Y-242.553 Z0.000 F420.000
G1 X234.515 Y-244.032 Z0.000 F420.000
G1 X234.419 Y-245.518 Z0.000 F420.000
G1 X234.395 Y-246.714 Z0.000 F420.000
G1 X234.418 Y-248.280 Z0.000 F420.000
G1 X234.511 Y-249.828 Z0.000 F420.000
G1 X234.676 Y-251.357 Z0.000 F420.000
G1 X234.912 Y-252.867 Z0.000 F420.000
G1 X235.217 Y-254.358 Z0.000 F420.000
G1 X235.591 Y-255.828 Z0.000 F420.000
G1 X236.035 Y-257.277 Z0.000 F420.000
G1 X236.547 Y-258.703 Z0.000 F420.000
G1 X237.128 Y-260.105 Z0.000 F420.000
G1 X237.776 Y-261.482 Z0.000 F420.000
G1 X238.491 Y-262.833 Z0.000 F420.000
G1 X239.273 Y-264.154 Z0.000 F420.000
G1 X240.121 Y-265.445 Z0.000 F420.000
G1 X241.034 Y-266.703 Z0.000 F420.000
G1 X242.010 Y-267.926 Z0.000 F420.000
G1 X243.049 Y-269.110 Z0.000 F420.000
G1 X244.149 Y-270.255 Z0.000 F420.000
G1 X245.309 Y-271.357 Z0.000 F420.000
G1 X246.525 Y-272.412 Z0.000 F420.000
G1 X247.796 Y-273.419 Z0.000 F420.000
G1 X249.118 Y-274.374 Z0.000 F420.000
G1 X250.489 Y-275.275 Z0.000 F420.000
G1 X251.906 Y-276.119 Z0.000 F420.000
G1 X253.364 Y-276.902 Z0.000 F420.000
G1 X254.860 Y-277.624 Z0.000 F420.000
G1 X256.389 Y-278.281 Z0.000 F420.000
G1 X257.949 Y-278.872 Z0.000 F420.000
G1 X259.533 Y-279.394 Z0.000 F420.000
G1 X261.139 Y-279.847 Z0.000 F420.000
G1 X261.635 Y-279.972 Z0.000 F420.000
G1 X262.132 Y-280.090 Z0.000 F420.000
G0 Z12.000
G0 Z12.000
G0 X286.364 Y-173.410
G0 Z0.000
G1 X286.364 Y-173.410 Z0.000 F420.000
G1 X285.977 Y-175.583 Z0.000 F420.000
G1 X285.509 Y-177.794 Z0.000 F420.000
G1 X284.960 Y-180.039 Z0.000 F420.000
G1 X284.329 Y-182.311 Z0.000 F420.000
G1 X283.617 Y-184.606 Z0.000 F420.000
G1 X282.823 Y-186.916 Z0.000 F420.000
G1 X281.950 Y-189.235 Z0.000 F420.000
G1 X280.998 Y-191.556 Z0.000 F420.000
G1 X279.970 Y-193.871 Z0.000 F420.000
G1 X278.868 Y-196.173 Z0.000 F420.000
G1 X277.696 Y-198.454 Z0.000 F420.000
G1 X276.456 Y-200.707 Z0.000 F420.000
G1 X275.153 Y-202.924 Z0.000 F420.000
G1 X273.790 Y-205.098 Z0.000 F420.000
G1 X272.373 Y-207.223 Z0.000 F420.000
G1 X270.905 Y-209.292 Z0.000 F420.000
G1 X269.392 Y-211.299 Z0.000 F420.000
G1 X267.837 Y-213.240 Z0.000 F420.000
G1 X266.857 Y-214.405 Z0.000 F420.000
G1 X265.204 Y-214.532 Z0.000 F420.000
G1 X263.568 Y-214.730 Z0.000 F420.000
G1 X261.950 Y-214.999 Z0.000 F420.000
G1 X260.353 Y-215.337 Z0.000 F420.000
G1 X258.779 Y-215.745 Z0.000 F420.000
G1 X257.232 Y-216.220 Z0.000 F420.000
G1 X255.713 Y-216.762 Z0.000 F420.000
G1 X254.225 Y-217.369 Z0.000 F420.000
G1 X252.772 Y-218.041 Z0.000 F420.000
G1 X251.357 Y-218.775 Z0.000 F420.000
G1 X249.981 Y-219.570 Z0.000 F420.000
G1 X248.649 Y-220.424 Z0.000 F420.000
G1 X247.363 Y-221.334 Z0.000 F420.000
G1 X246.126 Y-222.299 Z0.000 F420.000
G1 X244.940 Y-223.315 Z0.000 F420.000
G1 X243.808 Y-224.382 Z0.000 F420.000
G1 X242.732 Y-225.494 Z0.000 F420.000
G1 X241.715 Y-226.652 Z0.000 F420.000
G1 X240.758 Y-227.850 Z0.000 F420.000
G1 X239.864 Y-229.087 Z0.000 F420.000
G1 X239.033 Y-230.360 Z0.000 F420.000
G1 X238.268 Y-231.667 Z0.000 F420.000
G1 X237.569 Y-233.004 Z0.000 F420.000
G1 X237.108 Y-233.983 Z0.000 F420.000
G1 X236.681 Y-234.979 Z0.000 F420.000
G0 Z12.000
G0 Z12.000
G0 X287.888 Y-173.410
G0 Z0.000
G1 X287.888 Y-173.410 Z0.000 F420.000
G1 X290.442 Y-173.375 Z0.000 F420.000
G1 X293.146 Y-173.267 Z0.000 F420.000
G1 X296.059 Y-173.080 Z0.000 F420.000
G1 X298.438 Y-172.882 Z0.000 F420.000
G1 X300.842 Y-172.648 Z0.000 F420.000
G1 X300.138 Y-173.238 Z0.000 F420.000
G1 X299.464 Y-173.900 Z0.000 F420.000
G1 X298.821 Y-174.635 Z0.000 F420.000
G1 X298.215 Y-175.440 Z0.000 F420.000
G1 X297.649 Y-176.316 Z0.000 F420.000
G1 X297.126 Y-177.260 Z0.000 F420.000
G1 X296.651 Y-178.274 Z0.000 F420.000
G1 X296.225 Y-179.355 Z0.000 F420.000
G1 X295.853 Y-180.504 Z0.000 F420.000
G1 X295.538 Y-181.719 Z0.000 F420.000
G1 X295.282 Y-183.001 Z0.000 F420.000
G1 X295.088 Y-184.349 Z0.000 F420.000
G1 X294.961 Y-185.763 Z0.000 F420.000
G1 X294.898 Y-187.735 Z0.000 F420.000
G1 X294.934 Y-189.556 Z0.000 F420.000
G1 X295.043 Y-191.511 Z0.000 F420.000
G1 X295.232 Y-193.605 Z0.000 F420.000
G1 X295.505 Y-195.844 Z0.000 F420.000
G1 X295.868 Y-198.233 Z0.000 F420.000
G1 X296.324 Y-200.776 Z0.000 F420.000
G1 X296.880 Y-203.476 Z0.000 F420.000
G1 X297.539 Y-206.333 Z0.000 F420.000
G1 X298.304 Y-209.350 Z0.000 F420.000
G1 X299.178 Y-212.525 Z0.000 F420.000
G1 X300.162 Y-215.865 Z0.000 F420.000
G1 X301.267 Y-219.417 Z0.000 F420.000
G1 X301.756 Y-220.959 Z0.000 F420.000
G0 Z12.000
G0 Z12.000
G0 X294.898 Y-234.827
G0 Z0.000
G1 X294.898 Y-234.827 Z0.000 F420.000
G1 X292.760 Y-238.729 Z0.000 F420.000
G1 X290.584 Y-242.546 Z0.000 F420.000
G1 X288.385 Y-246.258 Z0.000 F420.000
G1 X286.174 Y-249.845 Z0.000 F420.000
G1 X283.964 Y-253.291 Z0.000 F420.000
G1 X281.764 Y-256.585 Z0.000 F420.000
G1 X279.585 Y-259.718 Z0.000 F420.000
G1 X276.610 Y-263.783 Z0.000 F420.000
G1 X274.742 Y-266.257 Z0.000 F420.000
G1 X272.845 Y-268.652 Z0.000 F420.000
G1 X270.927 Y-270.958 Z0.000 F420.000
G1 X268.996 Y-273.167 Z0.000 F420.000
G1 X267.063 Y-275.270 Z0.000 F420.000
G1 X265.137 Y-277.259 Z0.000 F420.000
G1 X263.656 Y-278.718 Z0.000 F420.000
G0 Z12.000
G0 Z12.000
G0 X301.756 Y-220.959
G0 Z0.000
G1 X301.756 Y-220.959 Z0.000 F420.000
G1 X299.694 Y-225.340 Z0.000 F420.000
G1 X297.861 Y-229.064 Z0.000 F420.000
G1 X296.849 Y-231.039 Z0.000 F420.000
G1 X295.813 Y-232.998 Z0.000 F420.000
G1 X295.361 Y-231.719 Z0.000 F420.000
G1 X294.838 Y-230.456 Z0.000 F420.000
G1 X294.245 Y-229.215 Z0.000 F420.000
G1 X293.583 Y-228.000 Z0.000 F420.000
G1 X292.856 Y-226.817 Z0.000 F420.000
G1 X292.066 Y-225.671 Z0.000 F420.000
G1 X291.214 Y-224.565 Z0.000 F420.000
G1 X290.304 Y-223.503 Z0.000 F420.000
G1 X289.339 Y-222.490 Z0.000 F420.000
G1 X288.321 Y-221.527 Z0.000 F420.000
G1 X287.253 Y-220.618 Z0.000 F420.000
G1 X286.137 Y-219.764 Z0.000 F420.000
G1 X284.976 Y-218.969 Z0.000 F420.000
G1 X283.772 Y-218.233 Z0.000 F420.000
G1 X282.527 Y-217.558 Z0.000 F420.000
G1 X281.243 Y-216.945 Z0.000 F420.000
G1 X279.921 Y-216.396 Z0.000 F420.000
G1 X278.563 Y-215.911 Z0.000 F420.000
G1 X277.169 Y-215.492 Z0.000 F420.000
G1 X275.742 Y-215.140 Z0.000 F420.000
G1 X274.280 Y-214.855 Z0.000 F420.000
G1 X272.786 Y-214.638 Z0.000 F420.000
G1 X271.260 Y-214.492 Z0.000 F420.000
G1 X269.701 Y-214.416 Z0.000 F420.000
G1 X268.838 Y-214.405 Z0.000 F420.000
G0 Z12.000
G0 Z12.000
G0 X331.931 Y-231.169
G0 Z0.000
G1 X331.931 Y-231.169 Z0.000 F420.000
G1 X333.021 Y-225.656 Z0.000 F420.000
G1 X334.370 Y-219.435 Z0.000 F420.000
G1 X336.325 Y-218.104 Z0.000 F420.000
G1 X338.349 Y-216.636 Z0.000 F420.000
G1 X340.401 Y-215.057 Z0.000 F420.000
G1 X342.442 Y-213.391 Z0.000 F420.000
G1 X344.441 Y-211.664 Z0.000 F420.000
G1 X346.371 Y-209.898 Z0.000 F420.000
G1 X348.212 Y-208.113 Z0.000 F420.000
G1 X349.951 Y-206.324 Z0.000 F420.000
G1 X351.577 Y-204.545 Z0.000 F420.000
G1 X353.085 Y-202.785 Z0.000 F420.000
G1 X354.471 Y-201.054 Z0.000 F420.000
G1 X355.736 Y-199.357 Z0.000 F420.000
G1 X356.881 Y-197.699 Z0.000 F420.000
G1 X357.907 Y-196.082 Z0.000 F420.000
G1 X358.819 Y-194.509 Z0.000 F420.000
G1 X359.620 Y-192.980 Z0.000 F420.000
G1 X360.314 Y-191.496 Z0.000 F420.000
G1 X360.907 Y-190.058 Z0.000 F420.000
G1 X361.403 Y-188.663 Z0.000 F420.000
G1 X361.805 Y-187.311 Z0.000 F420.000
G1 X362.119 Y-186.000 Z0.000 F420.000
G1 X362.348 Y-184.729 Z0.000 F420.000
G1 X362.497 Y-183.496 Z0.000 F420.000
G1 X362.538 Y-182.948 Z0.000 F420.000
G1 X362.564 Y-182.401 Z0.000 F420.000
G1 X362.557 Y-181.397 Z0.000 F420.000
G1 X362.477 Y-180.407 Z0.000 F420.000
G1 X362.327 Y-179.445 Z0.000 F420.000
G1 X362.109 Y-178.523 Z0.000 F420.000
G1 X361.828 Y-177.651 Z0.000 F420.000
G1 X361.489 Y-176.836 Z0.000 F420.000
G1 X361.097 Y-176.085 Z0.000 F420.000
G1 X360.657 Y-175.399 Z0.000 F420.000
G1 X360.172 Y-174.780 Z0.000 F420.000
G1 X359.647 Y-174.229 Z0.000 F420.000
G1 X359.084 Y-173.745 Z0.000 F420.000
G1 X358.485 Y-173.326 Z0.000 F420.000
G1 X357.850 Y-172.972 Z0.000 F420.000
G1 X357.179 Y-172.683 Z0.000 F420.000
G1 X356.471 Y-172.459 Z0.000 F420.000
G1 X355.724 Y-172.301 Z0.000 F420.000
G1 X354.937 Y-172.210 Z0.000 F420.000
G1 X354.490 Y-172.190 Z0.000 F420.000
G1 X354.029 Y-172.191 Z0.000 F420.000
G1 X353.124 Y-172.253 Z0.000 F420.000
G1 X352.230 Y-172.387 Z0.000 F420.000
G1 X351.344 Y-172.592 Z0.000 F420.000
G1 X350.463 Y-172.871 Z0.000 F420.000
G1 X349.586 Y-173.224 Z0.000 F420.000
G1 X348.709 Y-173.656 Z0.000 F420.000
G1 X347.831 Y-174.169 Z0.000 F420.000
G1 X346.949 Y-174.768 Z0.000 F420.000
G1 X346.062 Y-175.458 Z0.000 F420.000
G1 X345.170 Y-176.245 Z0.000 F420.000
G1 X344.270 Y-177.135 Z0.000 F420.000
G1 X343.363 Y-178.136 Z0.000 F420.000
G1 X342.447 Y-179.253 Z0.000 F420.000
G1 X341.522 Y-180.496 Z0.000 F420.000
G1 X340.588 Y-181.873 Z0.000 F420.000
G1 X339.646 Y-183.392 Z0.000 F420.000
G1 X338.695 Y-185.062 Z0.000 F420.000
G1 X337.736 Y-186.893 Z0.000 F420.000
G1 X336.768 Y-188.896 Z0.000 F420.000
G1 X335.794 Y-191.079 Z0.000 F420.000
G1 X334.812 Y-193.455 Z0.000 F420.000
G1 X333.824 Y-196.035 Z0.000 F420.000
G1 X332.831 Y-198.830 Z0.000 F420.000
G1 X331.832 Y-201.853 Z0.000 F420.000
G1 X330.829 Y-205.119 Z0.000 F420.000
G1 X329.821 Y-208.643 Z0.000 F420.000
G1 X328.807 Y-212.442 Z0.000 F420.000
G1 X327.788 Y-216.538 Z0.000 F420.000
G1 X326.759 Y-220.958 Z0.000 F420.000
G1 X325.717 Y-225.744 Z0.000 F420.000
G1 X324.650 Y-230.961 Z0.000 F420.000
G1 X323.536 Y-236.736 Z0.000 F420.000
G1 X322.312 Y-243.405 Z0.000 F420.000
G1 X321.188 Y-249.682 Z0.000 F420.000
G1 X320.196 Y-255.096 Z0.000 F420.000
G1 X319.985 Y-256.468 Z0.000 F420.000
G1 X319.892 Y-257.526 Z0.000 F420.000
G1 X319.887 Y-258.387 Z0.000 F420.000
G1 X319.957 Y-259.110 Z0.000 F420.000
G1 X320.090 Y-259.724 Z0.000 F420.000
G1 X320.280 Y-260.251 Z0.000 F420.000
G1 X320.524 Y-260.708 Z0.000 F420.000
G1 X320.821 Y-261.108 Z0.000 F420.000
G1 X321.176 Y-261.460 Z0.000 F420.000
G1 X321.594 Y-261.770 Z0.000 F420.000
G1 X322.085 Y-262.040 Z0.000 F420.000
G1 X322.659 Y-262.271 Z0.000 F420.000
G1 X323.331 Y-262.459 Z0.000 F420.000
G1 X324.117 Y-262.601 Z0.000 F420.000
G1 X325.033 Y-262.689 Z0.000 F420.000
G1 X325.988 Y-262.716 Z0.000 F420.000
G1 X327.129 Y-256.732 Z0.000 F420.000
G1 X328.936 Y-247.054 Z0.000 F420.000
G1 X329.438 Y-244.439 Z0.000 F420.000
G1 X329.950 Y-241.837 Z0.000 F420.000
G1 X330.263 Y-240.731 Z0.000 F420.000
G1 X331.035 Y-238.133 Z0.000 F420.000
G1 X331.791 Y-235.825 Z0.000 F420.000
G1 X332.529 Y-233.810 Z0.000 F420.000
G1 X333.258 Y-232.039 Z0.000 F420.000
G1 X333.980 Y-230.482 Z0.000 F420.000
G1 X334.694 Y-229.121 Z0.000 F420.000
G1 X335.397 Y-227.941 Z0.000 F420.000
G1 X336.091 Y-226.923 Z0.000 F420.000
G1 X336.773 Y-226.052 Z0.000 F420.000
G1 X337.446 Y-225.314 Z0.000 F420.000
G1 X338.110 Y-224.694 Z0.000 F420.000
G1 X338.766 Y-224.183 Z0.000 F420.000
G1 X339.415 Y-223.770 Z0.000 F420.000
G1 X340.059 Y-223.446 Z0.000 F420.000
G1 X340.702 Y-223.206 Z0.000 F420.000
G1 X341.346 Y-223.044 Z0.000 F420.000
G1 X341.996 Y-222.957 Z0.000 F420.000
G1 X342.447 Y-222.940 Z0.000 F420.000
G1 X343.137 Y-222.976 Z0.000 F420.000
G1 X343.761 Y-223.079 Z0.000 F420.000
G1 X344.327 Y-223.243 Z0.000 F420.000
G1 X344.840 Y-223.467 Z0.000 F420.000
G1 X345.308 Y-223.749 Z0.000 F420.000
G1 X345.734 Y-224.088 Z0.000 F420.000
G1 X346.123 Y-224.490 Z0.000 F420.000
G1 X346.475 Y-224.957 Z0.000 F420.000
G1 X346.792 Y-225.497 Z0.000 F420.000
G1 X347.072 Y-226.116 Z0.000 F420.000
G1 X347.312 Y-226.824 Z0.000 F420.000
G1 X347.510 Y-227.628 Z0.000 F420.000
G1 X347.660 Y-228.540 Z0.000 F420.000
G1 X347.757 Y-229.567 Z0.000 F420.000
G1 X347.794 Y-230.720 Z0.000 F420.000
G1 X347.781 Y-231.627 Z0.000 F420.000
G1 X347.675 Y-233.129 Z0.000 F420.000
G1 X347.489 Y-234.775 Z0.000 F420.000
G1 X347.211 Y-236.637 Z0.000 F420.000
G1 X346.810 Y-238.884 Z0.000 F420.000
G1 X346.135 Y-242.367 Z0.000 F420.000
G1 X345.664 Y-244.973 Z0.000 F420.000
G1 X345.349 Y-247.089 Z0.000 F420.000
G1 X345.152 Y-248.914 Z0.000 F420.000
G1 X345.079 Y-249.947 Z0.000 F420.000
G1 X345.038 Y-250.981 Z0.000 F420.000
G1 X345.041 Y-252.450 Z0.000 F420.000
G1 X345.118 Y-253.772 Z0.000 F420.000
G1 X345.261 Y-254.961 Z0.000 F420.000
G1 X345.464 Y-256.029 Z0.000 F420.000
G1 X345.721 Y-256.989 Z0.000 F420.000
G1 X346.027 Y-257.849 Z0.000 F420.000
G1 X346.378 Y-258.619 Z0.000 F420.000
G1 X346.773 Y-259.308 Z0.000 F420.000
G1 X347.210 Y-259.922 Z0.000 F420.000
G1 X347.688 Y-260.467 Z0.000 F420.000
G1 X348.209 Y-260.949 Z0.000 F420.000
G1 X348.773 Y-261.372 Z0.000 F420.000
G1 X349.385 Y-261.737 Z0.000 F420.000
G1 X350.048 Y-262.047 Z0.000 F420.000
G1 X350.767 Y-262.301 Z0.000 F420.000
G1 X351.547 Y-262.498 Z0.000 F420.000
G1 X352.394 Y-262.634 Z0.000 F420.000
G1 X353.316 Y-262.708 Z0.000 F420.000
G1 X354.182 Y-262.716 Z0.000 F420.000
G1 X354.843 Y-262.668 Z0.000 F420.000
G1 X355.492 Y-262.549 Z0.000 F420.000
G1 X356.131 Y-262.358 Z0.000 F420.000
G1 X356.765 Y-262.094 Z0.000 F420.000
G1 X357.396 Y-261.754 Z0.000 F420.000
G1 X358.028 Y-261.331 Z0.000 F420.000
G1 X358.661 Y-260.820 Z0.000 F420.000
G1 X359.299 Y-260.213 Z0.000 F420.000
G1 X359.942 Y-259.502 Z0.000 F420.000
G1 X360.590 Y-258.677 Z0.000 F420.000
G1 X361.246 Y-257.729 Z0.000 F420.000
G1 X361.907 Y-256.644 Z0.000 F420.000
G1 X362.576 Y-255.412 Z0.000 F420.000
G1 X363.252 Y-254.019 Z0.000 F420.000
G1 X363.935 Y-252.449 Z0.000 F420.000
G1 X364.629 Y-250.684 Z0.000 F420.000
G1 X365.337 Y-248.695 Z0.000 F420.000
G1 X366.073 Y-246.433 Z0.000 F420.000
G1 X366.876 Y-243.773 Z0.000 F420.000
G1 X367.897 Y-240.313 Z0.000 F420.000
G0 Z12.000
G0 Z12.000
G0 X399.749 Y-261.040
G0 Z0.000
G1 X399.749 Y-261.040 Z0.000 F420.000
G1 X399.286 Y-260.976 Z0.000 F420.000
G1 X398.865 Y-260.847 Z0.000 F420.000
G1 X398.480 Y-260.654 Z0.000 F420.000
G1 X398.125 Y-260.395 Z0.000 F420.000
G1 X397.796 Y-260.065 Z0.000 F420.000
G1 X397.492 Y-259.656 Z0.000 F420.000
G1 X397.211 Y-259.156 Z0.000 F420.000
G1 X396.956 Y-258.554 Z0.000 F420.000
G1 X396.731 Y-257.834 Z0.000 F420.000
G1 X396.541 Y-256.979 Z0.000 F420.000
G1 X396.391 Y-255.973 Z0.000 F420.000
G1 X396.290 Y-254.795 Z0.000 F420.000
G1 X396.244 Y-253.115 Z0.000 F420.000
G1 X396.279 Y-251.470 Z0.000 F420.000
G1 X396.391 Y-249.592 Z0.000 F420.000
G1 X396.590 Y-247.461 Z0.000 F420.000
G1 X396.885 Y-245.057 Z0.000 F420.000
G1 X397.287 Y-242.360 Z0.000 F420.000
G1 X397.805 Y-239.349 Z0.000 F420.000
G1 X398.450 Y-236.004 Z0.000 F420.000
G1 X399.231 Y-232.296 Z0.000 F420.000
G1 X400.163 Y-228.162 Z0.000 F420.000
G1 X401.348 Y-223.076 Z0.000 F420.000
G1 X401.730 Y-221.263 Z0.000 F420.000
G1 X400.308 Y-221.300 Z0.000 F420.000
G1 X399.144 Y-221.401 Z0.000 F420.000
G1 X398.182 Y-221.555 Z0.000 F420.000
G1 X397.378 Y-221.756 Z0.000 F420.000
G1 X396.699 Y-221.998 Z0.000 F420.000
G1 X396.120 Y-222.280 Z0.000 F420.000
G1 X395.620 Y-222.603 Z0.000 F420.000
G1 X395.184 Y-222.969 Z0.000 F420.000
G1 X394.799 Y-223.386 Z0.000 F420.000
G1 X394.455 Y-223.865 Z0.000 F420.000
G1 X394.144 Y-224.422 Z0.000 F420.000
G1 X393.859 Y-225.080 Z0.000 F420.000
G1 X393.592 Y-225.877 Z0.000 F420.000
G1 X393.332 Y-226.875 Z0.000 F420.000
G1 X393.184 Y-227.553 Z0.000 F420.000
G1 X393.044 Y-228.274 Z0.000 F420.000
G1 X392.734 Y-227.344 Z0.000 F420.000
G1 X392.368 Y-226.481 Z0.000 F420.000
G1 X391.953 Y-225.690 Z0.000 F420.000
G1 X391.492 Y-224.969 Z0.000 F420.000
G1 X390.989 Y-224.319 Z0.000 F420.000
G1 X390.446 Y-223.738 Z0.000 F420.000
G1 X389.864 Y-223.224 Z0.000 F420.000
G1 X389.244 Y-222.775 Z0.000 F420.000
G1 X388.586 Y-222.389 Z0.000 F420.000
G1 X387.888 Y-222.067 Z0.000 F420.000
G1 X387.150 Y-221.807 Z0.000 F420.000
G1 X386.367 Y-221.611 Z0.000 F420.000
G1 X385.537 Y-221.479 Z0.000 F420.000
G1 X384.662 Y-221.416 Z0.000 F420.000
G1 X383.649 Y-221.452 Z0.000 F420.000
G1 X382.651 Y-221.559 Z0.000 F420.000
G1 X381.667 Y-221.737 Z0.000 F420.000
G1 X380.696 Y-221.986 Z0.000 F420.000
G1 X379.736 Y-222.306 Z0.000 F420.000
G1 X378.787 Y-222.698 Z0.000 F420.000
G1 X377.850 Y-223.164 Z0.000 F420.000
G1 X376.923 Y-223.705 Z0.000 F420.000
G1 X376.008 Y-224.322 Z0.000 F420.000
G1 X375.106 Y-225.018 Z0.000 F420.000
G1 X374.219 Y-225.794 Z0.000 F420.000
G1 X373.348 Y-226.651 Z0.000 F420.000
G1 X372.497 Y-227.590 Z0.000 F420.000
G1 X371.668 Y-228.612 Z0.000 F420.000
G1 X370.866 Y-229.716 Z0.000 F420.000
G1 X370.095 Y-230.899 Z0.000 F420.000
G1 X369.361 Y-232.160 Z0.000 F420.000
G1 X368.668 Y-233.492 Z0.000 F420.000
G1 X368.022 Y-234.889 Z0.000 F420.000
G1 X367.430 Y-236.344 Z0.000 F420.000
G1 X366.897 Y-237.845 Z0.000 F420.000
G1 X366.428 Y-239.381 Z0.000 F420.000
G1 X366.028 Y-240.939 Z0.000 F420.000
G1 X365.701 Y-242.504 Z0.000 F420.000
G1 X365.449 Y-244.061 Z0.000 F420.000
G1 X365.275 Y-245.595 Z0.000 F420.000
G1 X365.178 Y-247.093 Z0.000 F420.000
G1 X365.154 Y-248.238 Z0.000 F420.000
G1 X365.191 Y-249.557 Z0.000 F420.000
G1 X365.297 Y-250.816 Z0.000 F420.000
G1 X365.470 Y-252.015 Z0.000 F420.000
G1 X365.707 Y-253.152 Z0.000 F420.000
G1 X366.004 Y-254.225 Z0.000 F420.000
G1 X366.358 Y-255.234 Z0.000 F420.000
G1 X366.766 Y-256.177 Z0.000 F420.000
G1 X367.224 Y-257.056 Z0.000 F420.000
G1 X367.730 Y-257.870 Z0.000 F420.000
G1 X368.281 Y-258.620 Z0.000 F420.000
G1 X368.876 Y-259.307 Z0.000 F420.000
G1 X369.512 Y-259.931 Z0.000 F420.000
G1 X370.189 Y-260.492 Z0.000 F420.000
G1 X370.905 Y-260.991 Z0.000 F420.000
G1 X371.659 Y-261.428 Z0.000 F420.000
G1 X372.453 Y-261.804 Z0.000 F420.000
G1 X373.285 Y-262.116 Z0.000 F420.000
G1 X374.157 Y-262.365 Z0.000 F420.000
G1 X375.069 Y-262.550 Z0.000 F420.000
G1 X376.021 Y-262.667 Z0.000 F420.000
G1 X376.601 Y-262.704 Z0.000 F420.000
G1 X377.194 Y-262.716 Z0.000 F420.000
G1 X378.034 Y-262.680 Z0.000 F420.000
G1 X378.847 Y-262.574 Z0.000 F420.000
G1 X379.637 Y-262.399 Z0.000 F420.000
G1 X380.406 Y-262.155 Z0.000 F420.000
G1 X381.157 Y-261.842 Z0.000 F420.000
G1 X381.894 Y-261.457 Z0.000 F420.000
G1 X382.618 Y-260.997 Z0.000 F420.000
G1 X383.332 Y-260.459 Z0.000 F420.000
G1 X384.036 Y-259.839 Z0.000 F420.000
G1 X384.731 Y-259.130 Z0.000 F420.000
G1 X385.419 Y-258.327 Z0.000 F420.000
G1 X386.099 Y-257.422 Z0.000 F420.000
G1 X386.772 Y-256.409 Z0.000 F420.000
G1 X387.436 Y-255.280 Z0.000 F420.000
G1 X388.092 Y-254.025 Z0.000 F420.000
G1 X388.739 Y-252.636 Z0.000 F420.000
G1 X389.376 Y-251.101 Z0.000 F420.000
G1 X390.005 Y-249.407 Z0.000 F420.000
G1 X390.300 Y-248.543 Z0.000 F420.000
G0 Z12.000
G0 Z12.000
G0 X390.300 Y-249.153
G0 Z0.000
G1 X390.300 Y-249.153 Z0.000 F420.000
G1 X390.339 Y-250.770 Z0.000 F420.000
G1 X390.453 Y-252.280 Z0.000 F420.000
G1 X390.633 Y-253.665 Z0.000 F420.000
G1 X390.873 Y-254.924 Z0.000 F420.000
G1 X391.166 Y-256.062 Z0.000 F420.000
G1 X391.506 Y-257.084 Z0.000 F420.000
G1 X391.889 Y-257.997 Z0.000 F420.000
G1 X392.310 Y-258.811 Z0.000 F420.000
G1 X392.765 Y-259.531 Z0.000 F420.000
G1 X393.254 Y-260.165 Z0.000 F420.000
G1 X393.775 Y-260.720 Z0.000 F420.000
G1 X394.328 Y-261.200 Z0.000 F420.000
G1 X394.913 Y-261.611 Z0.000 F420.000
G1 X395.534 Y-261.956 Z0.000 F420.000
G1 X396.192 Y-262.238 Z0.000 F420.000
G1 X396.891 Y-262.455 Z0.000 F420.000
G1 X397.635 Y-262.609 Z0.000 F420.000
G1 X398.430 Y-262.697 Z0.000 F420.000
G1 X399.292 Y-262.716 Z0.000 F420.000
G1 X399.954 Y-262.668 Z0.000 F420.000
G1 X400.604 Y-262.549 Z0.000 F420.000
G1 X401.246 Y-262.358 Z0.000 F420.000
G1 X401.883 Y-262.093 Z0.000 F420.000
G1 X402.518 Y-261.752 Z0.000 F420.000
G1 X403.155 Y-261.328 Z0.000 F420.000
G1 X403.794 Y-260.815 Z0.000 F420.000
G1 X404.439 Y-260.206 Z0.000 F420.000
G1 X405.089 Y-259.492 Z0.000 F420.000
G1 X405.746 Y-258.664 Z0.000 F420.000
G1 X406.411 Y-257.712 Z0.000 F420.000
G1 X407.083 Y-256.625 Z0.000 F420.000
G1 X407.762 Y-255.389 Z0.000 F420.000
G1 X408.449 Y-253.994 Z0.000 F420.000
G1 X409.144 Y-252.422 Z0.000 F420.000
G1 X409.850 Y-250.658 Z0.000 F420.000
G1 X410.569 Y-248.675 Z0.000 F420.000
G1 X411.313 Y-246.432 Z0.000 F420.000
G1 X412.115 Y-243.821 Z0.000 F420.000
G1 X413.160 Y-240.313 Z0.000 F420.000
G0 Z12.000
G0 Z12.000
G0 X418.342 Y-218.825
G0 Z0.000
G1 X418.342 Y-218.825 Z0.000 F420.000
G1 X418.605 Y-217.034 Z0.000 F420.000
G1 X418.754 Y-215.548 Z0.000 F420.000
G1 X418.788 Y-214.944 Z0.000 F420.000
G1 X418.799 Y-214.405 Z0.000 F420.000
G1 X418.761 Y-213.697 Z0.000 F420.000
G1 X418.649 Y-213.013 Z0.000 F420.000
G1 X418.472 Y-212.393 Z0.000 F420.000
G1 X418.240 Y-211.857 Z0.000 F420.000
G1 X417.965 Y-211.408 Z0.000 F420.000
G1 X417.654 Y-211.043 Z0.000 F420.000
G1 X417.311 Y-210.755 Z0.000 F420.000
G1 X416.936 Y-210.538 Z0.000 F420.000
G1 X416.528 Y-210.390 Z0.000 F420.000
G1 X416.082 Y-210.307 Z0.000 F420.000
G1 X415.751 Y-210.291 Z0.000 F420.000
G1 X415.300 Y-210.326 Z0.000 F420.000
G1 X414.874 Y-210.430 Z0.000 F420.000
G1 X414.470 Y-210.602 Z0.000 F420.000
G1 X414.090 Y-210.841 Z0.000 F420.000
G1 X413.736 Y-211.147 Z0.000 F420.000
G1 X413.414 Y-211.521 Z0.000 F420.000
G1 X413.129 Y-211.962 Z0.000 F420.000
G1 X412.892 Y-212.462 Z0.000 F420.000
G1 X412.711 Y-213.011 Z0.000 F420.000
G1 X412.596 Y-213.594 Z0.000 F420.000
G1 X412.551 Y-214.253 Z0.000 F420.000
G1 X412.586 Y-214.902 Z0.000 F420.000
G1 X412.691 Y-215.515 Z0.000 F420.000
G1 X412.861 Y-216.099 Z0.000 F420.000
G1 X413.099 Y-216.660 Z0.000 F420.000
G1 X413.407 Y-217.204 Z0.000 F420.000
G1 X413.790 Y-217.737 Z0.000 F420.000
G1 X414.258 Y-218.267 Z0.000 F420.000
G1 X414.821 Y-218.799 Z0.000 F420.000
G1 X415.501 Y-219.346 Z0.000 F420.000
G1 X416.513 Y-220.044 Z0.000 F420.000
G0 Z12.000
G0 Z12.000
G0 X412.246 Y-243.514
G0 Z0.000
G1 X412.246 Y-243.514 Z0.000 F420.000
G1 X413.170 Y-240.221 Z0.000 F420.000
G1 X414.671 Y-234.597 Z0.000 F420.000
G1 X415.914 Y-229.771 Z0.000 F420.000
G1 X417.123 Y-224.921 Z0.000 F420.000
G1 X418.037 Y-220.806 Z0.000 F420.000
G1 X419.328 Y-221.532 Z0.000 F420.000
G1 X419.997 Y-221.903 Z0.000 F420.000
G1 X421.146 Y-222.578 Z0.000 F420.000
G1 X422.013 Y-223.163 Z0.000 F420.000
G1 X422.693 Y-223.709 Z0.000 F420.000
G1 X423.243 Y-224.247 Z0.000 F420.000
G1 X423.688 Y-224.788 Z0.000 F420.000
G1 X424.047 Y-225.342 Z0.000 F420.000
G1 X424.332 Y-225.921 Z0.000 F420.000
G1 X424.549 Y-226.532 Z0.000 F420.000
G1 X424.701 Y-227.186 Z0.000 F420.000
G1 X424.788 Y-227.892 Z0.000 F420.000
G1 X424.807 Y-228.660 Z0.000 F420.000
G1 X424.752 Y-229.501 Z0.000 F420.000
G1 X424.685 Y-230.018 Z0.000 F420.000
G1 X424.590 Y-230.560 Z0.000 F420.000
G1 X423.816 Y-234.805 Z0.000 F420.000
G1 X423.256 Y-238.263 Z0.000 F420.000
G1 X422.851 Y-241.229 Z0.000 F420.000
G1 X422.570 Y-243.838 Z0.000 F420.000
G1 X422.395 Y-246.156 Z0.000 F420.000
G1 X422.328 Y-247.673 Z0.000 F420.000
G1 X422.304 Y-249.153 Z0.000 F420.000
G1 X422.343 Y-250.770 Z0.000 F420.000
G1 X422.457 Y-252.280 Z0.000 F420.000
G1 X422.637 Y-253.665 Z0.000 F420.000
G1 X422.877 Y-254.924 Z0.000 F420.000
G1 X423.170 Y-256.062 Z0.000 F420.000
G1 X423.510 Y-257.084 Z0.000 F420.000
G1 X423.893 Y-257.997 Z0.000 F420.000
G1 X424.314 Y-258.811 Z0.000 F420.000
G1 X424.769 Y-259.531 Z0.000 F420.000
G1 X425.258 Y-260.165 Z0.000 F420.000
G1 X425.779 Y-260.720 Z0.000 F420.000
G1 X426.332 Y-261.200 Z0.000 F420.000
G1 X426.917 Y-261.611 Z0.000 F420.000
G1 X427.538 Y-261.956 Z0.000 F420.000
G1 X428.196 Y-262.238 Z0.000 F420.000
G1 X428.895 Y-262.455 Z0.000 F420.000
G1 X429.639 Y-262.609 Z0.000 F420.000
G1 X430.434 Y-262.697 Z0.000 F420.000
G1 X431.296 Y-262.716 Z0.000 F420.000
G1 X431.958 Y-262.668 Z0.000 F420.000
G1 X432.608 Y-262.549 Z0.000 F420.000
G1 X433.250 Y-262.358 Z0.000 F420.000
G1 X433.887 Y-262.093 Z0.000 F420.000
G1 X434.522 Y-261.752 Z0.000 F420.000
G1 X435.159 Y-261.328 Z0.000 F420.000
G1 X435.798 Y-260.815 Z0.000 F420.000
G1 X436.443 Y-260.206 Z0.000 F420.000
G1 X437.093 Y-259.492 Z0.000 F420.000
G1 X437.750 Y-258.664 Z0.000 F420.000
G1 X438.415 Y-257.712 Z0.000 F420.000
G1 X439.087 Y-256.625 Z0.000 F420.000
G1 X439.766 Y-255.389 Z0.000 F420.000
G1 X440.453 Y-253.994 Z0.000 F420.000
G1 X441.148 Y-252.422 Z0.000 F420.000
G1 X441.854 Y-250.658 Z0.000 F420.000
G1 X442.573 Y-248.675 Z0.000 F420.000
G1 X443.317 Y-246.432 Z0.000 F420.000
G1 X444.119 Y-243.821 Z0.000 F420.000
G1 X445.164 Y-240.313 Z0.000 F420.000
G0 Z12.000
G0 Z12.000
G0 X452.937 Y-227.817
G0 Z0.000
G1 X452.937 Y-227.817 Z0.000 F420.000
G1 X453.092 Y-226.851 Z0.000 F420.000
G1 X453.151 Y-226.031 Z0.000 F420.000
G1 X453.128 Y-225.320 Z0.000 F420.000
G1 X453.033 Y-224.698 Z0.000 F420.000
G1 X452.874 Y-224.154 Z0.000 F420.000
G1 X452.656 Y-223.675 Z0.000 F420.000
G1 X452.381 Y-223.250 Z0.000 F420.000
G1 X452.046 Y-222.872 Z0.000 F420.000
G1 X451.648 Y-222.536 Z0.000 F420.000
G1 X451.180 Y-222.240 Z0.000 F420.000
G1 X450.633 Y-221.983 Z0.000 F420.000
G1 X449.996 Y-221.768 Z0.000 F420.000
G1 X449.257 Y-221.598 Z0.000 F420.000
G1 X448.402 Y-221.480 Z0.000 F420.000
G1 X447.726 Y-221.432 Z0.000 F420.000
G1 X446.993 Y-221.416 Z0.000 F420.000
G1 X445.568 Y-228.828 Z0.000 F420.000
G1 X442.798 Y-243.542 Z0.000 F420.000
G1 X441.676 Y-249.461 Z0.000 F420.000
G1 X440.592 Y-255.096 Z0.000 F420.000
G1 X440.381 Y-256.468 Z0.000 F420.000
G1 X440.287 Y-257.526 Z0.000 F420.000
G1 X440.283 Y-258.387 Z0.000 F420.000
G1 X440.353 Y-259.110 Z0.000 F420.000
G1 X440.486 Y-259.724 Z0.000 F420.000
G1 X440.676 Y-260.251 Z0.000 F420.000
G1 X440.920 Y-260.708 Z0.000 F420.000
G1 X441.217 Y-261.108 Z0.000 F420.000
G1 X441.572 Y-261.460 Z0.000 F420.000
G1 X441.990 Y-261.770 Z0.000 F420.000
G1 X442.480 Y-262.040 Z0.000 F420.000
G1 X443.055 Y-262.271 Z0.000 F420.000
G1 X443.727 Y-262.459 Z0.000 F420.000
G1 X444.512 Y-262.601 Z0.000 F420.000
G1 X445.429 Y-262.689 Z0.000 F420.000
G1 X446.383 Y-262.716 Z0.000 F420.000
G1 X447.546 Y-256.747 Z0.000 F420.000
G1 X449.266 Y-247.639 Z0.000 F420.000
G1 X450.026 Y-243.662 Z0.000 F420.000
G1 X450.803 Y-239.704 Z0.000 F420.000
G1 X451.502 Y-237.338 Z0.000 F420.000
G1 X452.205 Y-235.220 Z0.000 F420.000
G1 X452.914 Y-233.327 Z0.000 F420.000
G1 X453.625 Y-231.642 Z0.000 F420.000
G1 X454.336 Y-230.152 Z0.000 F420.000
G1 X455.041 Y-228.849 Z0.000 F420.000
G1 X455.739 Y-227.715 Z0.000 F420.000
G1 X456.429 Y-226.736 Z0.000 F420.000
G1 X457.111 Y-225.897 Z0.000 F420.000
G1 X457.784 Y-225.185 Z0.000 F420.000
G1 X458.449 Y-224.589 Z0.000 F420.000
G1 X459.106 Y-224.098 Z0.000 F420.000
G1 X459.758 Y-223.703 Z0.000 F420.000
G1 X460.406 Y-223.396 Z0.000 F420.000
G1 X461.054 Y-223.170 Z0.000 F420.000
G1 X461.703 Y-223.022 Z0.000 F420.000
G1 X462.358 Y-222.949 Z0.000 F420.000
G1 X462.524 Y-222.942 Z0.000 F420.000
G1 X462.690 Y-222.940 Z0.000 F420.000
G1 X463.324 Y-222.975 Z0.000 F420.000
G1 X463.914 Y-223.079 Z0.000 F420.000
G1 X464.466 Y-223.248 Z0.000 F420.000
G1 X464.982 Y-223.481 Z0.000 F420.000
G1 X465.468 Y-223.777 Z0.000 F420.000
G1 X465.927 Y-224.141 Z0.000 F420.000
G1 X466.359 Y-224.575 Z0.000 F420.000
G1 X466.766 Y-225.084 Z0.000 F420.000
G1 X467.146 Y-225.675 Z0.000 F420.000
G1 X467.498 Y-226.353 Z0.000 F420.000
G1 X467.819 Y-227.125 Z0.000 F420.000
G1 X468.104 Y-227.994 Z0.000 F420.000
G1 X468.347 Y-228.964 Z0.000 F420.000
G1 X468.544 Y-230.030 Z0.000 F420.000
G1 X468.686 Y-231.182 Z0.000 F420.000
G1 X468.768 Y-232.394 Z0.000 F420.000
G1 X468.786 Y-233.303 Z0.000 F420.000
G1 X468.751 Y-234.745 Z0.000 F420.000
G1 X468.639 Y-236.404 Z0.000 F420.000
G1 X468.440 Y-238.310 Z0.000 F420.000
G1 X468.140 Y-240.499 Z0.000 F420.000
G1 X467.725 Y-243.025 Z0.000 F420.000
G1 X467.171 Y-245.984 Z0.000 F420.000
G1 X466.429 Y-249.610 Z0.000 F420.000
G1 X465.281 Y-255.096 Z0.000 F420.000
G1 X465.070 Y-256.468 Z0.000 F420.000
G1 X464.976 Y-257.526 Z0.000 F420.000
G1 X464.972 Y-258.387 Z0.000 F420.000
G1 X465.041 Y-259.110 Z0.000 F420.000
G1 X465.175 Y-259.724 Z0.000 F420.000
G1 X465.365 Y-260.251 Z0.000 F420.000
G1 X465.608 Y-260.708 Z0.000 F420.000
G1 X465.906 Y-261.108 Z0.000 F420.000
G1 X466.260 Y-261.460 Z0.000 F420.000
G1 X466.679 Y-261.770 Z0.000 F420.000
G1 X467.169 Y-262.040 Z0.000 F420.000
G1 X467.744 Y-262.271 Z0.000 F420.000
G1 X468.416 Y-262.459 Z0.000 F420.000
G1 X469.201 Y-262.601 Z0.000 F420.000
G1 X470.118 Y-262.689 Z0.000 F420.000
G1 X471.072 Y-262.716 Z0.000 F420.000
G1 X471.749 Y-259.484 Z0.000 F420.000
G1 X473.085 Y-253.308 Z0.000 F420.000
G1 X473.950 Y-249.074 Z0.000 F420.000
G1 X474.574 Y-245.680 Z0.000 F420.000
G1 X475.019 Y-242.859 Z0.000 F420.000
G1 X475.193 Y-241.569 Z0.000 F420.000
G1 X475.339 Y-240.313 Z0.000 F420.000
G1 X476.100 Y-237.771 Z0.000 F420.000
G1 X476.839 Y-235.549 Z0.000 F420.000
G1 X477.569 Y-233.594 Z0.000 F420.000
G1 X478.293 Y-231.867 Z0.000 F420.000
G1 X479.013 Y-230.346 Z0.000 F420.000
G1 X479.726 Y-229.015 Z0.000 F420.000
G1 X480.430 Y-227.859 Z0.000 F420.000
G1 X481.125 Y-226.861 Z0.000 F420.000
G1 X481.811 Y-226.005 Z0.000 F420.000
G1 X482.488 Y-225.278 Z0.000 F420.000
G1 X483.157 Y-224.667 Z0.000 F420.000
G1 X483.819 Y-224.163 Z0.000 F420.000
G1 X484.475 Y-223.755 Z0.000 F420.000
G1 X485.128 Y-223.436 Z0.000 F420.000
G1 X485.780 Y-223.199 Z0.000 F420.000
G1 X486.434 Y-223.040 Z0.000 F420.000
G1 X487.095 Y-222.955 Z0.000 F420.000
G1 X487.312 Y-222.944 Z0.000 F420.000
G1 X487.531 Y-222.940 Z0.000 F420.000
G1 X488.220 Y-222.976 Z0.000 F420.000
G1 X488.840 Y-223.078 Z0.000 F420.000
G1 X489.398 Y-223.242 Z0.000 F420.000
G1 X489.902 Y-223.465 Z0.000 F420.000
G1 X490.359 Y-223.744 Z0.000 F420.000
G1 X490.774 Y-224.081 Z0.000 F420.000
G1 X491.150 Y-224.479 Z0.000 F420.000
G1 X491.489 Y-224.943 Z0.000 F420.000
G1 X491.794 Y-225.480 Z0.000 F420.000
G1 X492.061 Y-226.099 Z0.000 F420.000
G1 X492.290 Y-226.809 Z0.000 F420.000
G1 X492.476 Y-227.621 Z0.000 F420.000
G1 X492.614 Y-228.549 Z0.000 F420.000
G1 X492.701 Y-229.605 Z0.000 F420.000
G1 X492.728 Y-230.807 Z0.000 F420.000
G1 X492.713 Y-231.627 Z0.000 F420.000
G1 X492.644 Y-233.074 Z0.000 F420.000
G1 X492.499 Y-234.648 Z0.000 F420.000
G1 X492.269 Y-236.405 Z0.000 F420.000
G1 X491.932 Y-238.467 Z0.000 F420.000
G1 X491.423 Y-241.217 Z0.000 F420.000
G1 X491.020 Y-243.377 Z0.000 F420.000
G1 X490.608 Y-245.834 Z0.000 F420.000
G1 X490.343 Y-247.839 Z0.000 F420.000
G1 X490.185 Y-249.592 Z0.000 F420.000
G1 X490.122 Y-250.981 Z0.000 F420.000
G1 X490.095 Y-252.364 Z0.000 F420.000
G1 X490.144 Y-253.633 Z0.000 F420.000
G1 X490.262 Y-254.790 Z0.000 F420.000
G1 X490.442 Y-255.844 Z0.000 F420.000
G1 X490.680 Y-256.799 Z0.000 F420.000
G1 X490.971 Y-257.662 Z0.000 F420.000
G1 X491.310 Y-258.441 Z0.000 F420.000
G1 X491.695 Y-259.141 Z0.000 F420.000
G1 X492.123 Y-259.768 Z0.000 F420.000
G1 X492.595 Y-260.328 Z0.000 F420.000
G1 X493.109 Y-260.825 Z0.000 F420.000
G1 X493.668 Y-261.263 Z0.000 F420.000
G1 X494.275 Y-261.644 Z0.000 F420.000
G1 X494.931 Y-261.970 Z0.000 F420.000
G1 X495.642 Y-262.239 Z0.000 F420.000
G1 X496.412 Y-262.452 Z0.000 F420.000
G1 X497.247 Y-262.605 Z0.000 F420.000
G1 X498.153 Y-262.695 Z0.000 F420.000
G1 X499.266 Y-262.716 Z0.000 F420.000
G1 X499.928 Y-262.668 Z0.000 F420.000
G1 X500.576 Y-262.549 Z0.000 F420.000
G1 X501.216 Y-262.358 Z0.000 F420.000
G1 X501.849 Y-262.094 Z0.000 F420.000
G1 X502.481 Y-261.754 Z0.000 F420.000
G1 X503.112 Y-261.331 Z0.000 F420.000
G1 X503.746 Y-260.820 Z0.000 F420.000
G1 X504.383 Y-260.213 Z0.000 F420.000
G1 X505.026 Y-259.502 Z0.000 F420.000
G1 X505.675 Y-258.677 Z0.000 F420.000
G1 X506.330 Y-257.729 Z0.000 F420.000
G1 X506.992 Y-256.644 Z0.000 F420.000
G1 X507.661 Y-255.412 Z0.000 F420.000
G1 X508.336 Y-254.019 Z0.000 F420.000
G1 X509.020 Y-252.449 Z0.000 F420.000
G1 X509.713 Y-250.684 Z0.000 F420.000
G1 X510.422 Y-248.695 Z0.000 F420.000
G1 X511.158 Y-246.433 Z0.000 F420.000
G1 X511.960 Y-243.773 Z0.000 F420.000
G1 X512.982 Y-240.313 Z0.000 F420.000
G0 Z12.000
G0 Z12.000
G0 X541.328 Y-253.115
G0 Z0.000
G1 X541.328 Y-253.115 Z0.000 F420.000
G1 X541.364 Y-251.470 Z0.000 F420.000
G1 X541.476 Y-249.592 Z0.000 F420.000
G1 X541.674 Y-247.461 Z0.000 F420.000
G1 X541.969 Y-245.057 Z0.000 F420.000
G1 X542.371 Y-242.360 Z0.000 F420.000
G1 X542.890 Y-239.349 Z0.000 F420.000
G1 X543.534 Y-236.004 Z0.000 F420.000
G1 X544.315 Y-232.296 Z0.000 F420.000
G1 X545.248 Y-228.162 Z0.000 F420.000
G1 X546.432 Y-223.077 Z0.000 F420.000
G1 X546.815 Y-221.263 Z0.000 F420.000
G1 X545.392 Y-221.300 Z0.000 F420.000
G1 X544.229 Y-221.401 Z0.000 F420.000
G1 X543.267 Y-221.555 Z0.000 F420.000
G1 X542.462 Y-221.756 Z0.000 F420.000
G1 X541.783 Y-221.998 Z0.000 F420.000
G1 X541.204 Y-222.280 Z0.000 F420.000
G1 X540.705 Y-222.603 Z0.000 F420.000
G1 X540.269 Y-222.969 Z0.000 F420.000
G1 X539.884 Y-223.386 Z0.000 F420.000
G1 X539.540 Y-223.865 Z0.000 F420.000
G1 X539.229 Y-224.422 Z0.000 F420.000
G1 X538.943 Y-225.080 Z0.000 F420.000
G1 X538.676 Y-225.877 Z0.000 F420.000
G1 X538.416 Y-226.875 Z0.000 F420.000
G1 X538.269 Y-227.553 Z0.000 F420.000
G1 X538.128 Y-228.274 Z0.000 F420.000
G1 X537.818 Y-227.344 Z0.000 F420.000
G1 X537.453 Y-226.481 Z0.000 F420.000
G1 X537.038 Y-225.690 Z0.000 F420.000
G1 X536.577 Y-224.969 Z0.000 F420.000
G1 X536.073 Y-224.319 Z0.000 F420.000
G1 X535.530 Y-223.738 Z0.000 F420.000
G1 X534.948 Y-223.224 Z0.000 F420.000
G1 X534.328 Y-222.775 Z0.000 F420.000
G1 X533.670 Y-222.389 Z0.000 F420.000
G1 X532.973 Y-222.067 Z0.000 F420.000
G1 X532.234 Y-221.807 Z0.000 F420.000
G1 X531.451 Y-221.611 Z0.000 F420.000
G1 X530.622 Y-221.479 Z0.000 F420.000
G1 X529.746 Y-221.416 Z0.000 F420.000
G1 X528.733 Y-221.452 Z0.000 F420.000
G1 X527.736 Y-221.559 Z0.000 F420.000
G1 X526.752 Y-221.737 Z0.000 F420.000
G1 X525.780 Y-221.986 Z0.000 F420.000
G1 X524.820 Y-222.306 Z0.000 F420.000
G1 X523.872 Y-222.698 Z0.000 F420.000
G1 X522.934 Y-223.164 Z0.000 F420.000
G1 X522.008 Y-223.705 Z0.000 F420.000
G1 X521.093 Y-224.322 Z0.000 F420.000
G1 X520.191 Y-225.018 Z0.000 F420.000
G1 X519.303 Y-225.794 Z0.000 F420.000
G1 X518.432 Y-226.651 Z0.000 F420.000
G1 X517.581 Y-227.590 Z0.000 F420.000
G1 X516.752 Y-228.612 Z0.000 F420.000
G1 X515.950 Y-229.716 Z0.000 F420.000
G1 X515.180 Y-230.899 Z0.000 F420.000
G1 X514.445 Y-232.160 Z0.000 F420.000
G1 X513.752 Y-233.492 Z0.000 F420.000
G1 X513.107 Y-234.889 Z0.000 F420.000
G1 X512.515 Y-236.344 Z0.000 F420.000
G1 X511.981 Y-237.845 Z0.000 F420.000
G1 X511.512 Y-239.381 Z0.000 F420.000
G1 X511.113 Y-240.939 Z0.000 F420.000
G1 X510.785 Y-242.504 Z0.000 F420.000
G1 X510.534 Y-244.061 Z0.000 F420.000
G1 X510.359 Y-245.595 Z0.000 F420.000
G1 X510.262 Y-247.093 Z0.000 F420.000
G1 X510.239 Y-248.238 Z0.000 F420.000
G1 X510.275 Y-249.557 Z0.000 F420.000
G1 X510.381 Y-250.816 Z0.000 F420.000
G1 X510.555 Y-252.015 Z0.000 F420.000
G1 X510.791 Y-253.152 Z0.000 F420.000
G1 X511.089 Y-254.225 Z0.000 F420.000
G1 X511.443 Y-255.234 Z0.000 F420.000
G1 X511.850 Y-256.177 Z0.000 F420.000
G1 X512.308 Y-257.056 Z0.000 F420.000
G1 X512.814 Y-257.870 Z0.000 F420.000
G1 X513.366 Y-258.620 Z0.000 F420.000
G1 X513.961 Y-259.307 Z0.000 F420.000
G1 X514.597 Y-259.931 Z0.000 F420.000
G1 X515.273 Y-260.492 Z0.000 F420.000
G1 X515.989 Y-260.991 Z0.000 F420.000
G1 X516.744 Y-261.428 Z0.000 F420.000
G1 X517.537 Y-261.804 Z0.000 F420.000
G1 X518.370 Y-262.116 Z0.000 F420.000
G1 X519.241 Y-262.365 Z0.000 F420.000
G1 X520.153 Y-262.550 Z0.000 F420.000
G1 X521.105 Y-262.667 Z0.000 F420.000
G1 X521.686 Y-262.704 Z0.000 F420.000
G1 X522.278 Y-262.716 Z0.000 F420.000
G1 X523.119 Y-262.680 Z0.000 F420.000
G1 X523.932 Y-262.574 Z0.000 F420.000
G1 X524.721 Y-262.399 Z0.000 F420.000
G1 X525.490 Y-262.155 Z0.000 F420.000
G1 X526.242 Y-261.842 Z0.000 F420.000
G1 X526.979 Y-261.457 Z0.000 F420.000
G1 X527.703 Y-260.997 Z0.000 F420.000
G1 X528.416 Y-260.459 Z0.000 F420.000
G1 X529.120 Y-259.839 Z0.000 F420.000
G1 X529.816 Y-259.130 Z0.000 F420.000
G1 X530.503 Y-258.327 Z0.000 F420.000
G1 X531.184 Y-257.422 Z0.000 F420.000
G1 X531.856 Y-256.409 Z0.000 F420.000
G1 X532.521 Y-255.280 Z0.000 F420.000
G1 X533.176 Y-254.025 Z0.000 F420.000
G1 X533.823 Y-252.636 Z0.000 F420.000
G1 X534.461 Y-251.101 Z0.000 F420.000
G1 X535.089 Y-249.407 Z0.000 F420.000
G1 X535.385 Y-248.543 Z0.000 F420.000
G1 X535.385 Y-249.153 Z0.000 F420.000
G1 X535.424 Y-250.770 Z0.000 F420.000
G1 X535.537 Y-252.280 Z0.000 F420.000
G1 X535.717 Y-253.665 Z0.000 F420.000
G1 X535.957 Y-254.924 Z0.000 F420.000
G1 X536.251 Y-256.062 Z0.000 F420.000
G1 X536.591 Y-257.084 Z0.000 F420.000
G1 X536.973 Y-257.997 Z0.000 F420.000
G1 X537.394 Y-258.811 Z0.000 F420.000
G1 X537.850 Y-259.531 Z0.000 F420.000
G1 X538.339 Y-260.165 Z0.000 F420.000
G1 X538.859 Y-260.720 Z0.000 F420.000
G1 X539.412 Y-261.200 Z0.000 F420.000
G1 X539.998 Y-261.611 Z0.000 F420.000
G1 X540.618 Y-261.956 Z0.000 F420.000
G1 X541.276 Y-262.238 Z0.000 F420.000
G1 X541.975 Y-262.455 Z0.000 F420.000
G1 X542.720 Y-262.609 Z0.000 F420.000
G1 X543.514 Y-262.697 Z0.000 F420.000
G1 X544.376 Y-262.716 Z0.000 F420.000
G1 X545.038 Y-262.668 Z0.000 F420.000
G1 X545.688 Y-262.549 Z0.000 F420.000
G1 X546.330 Y-262.358 Z0.000 F420.000
G1 X546.967 Y-262.093 Z0.000 F420.000
G1 X547.603 Y-261.752 Z0.000 F420.000
G1 X548.239 Y-261.328 Z0.000 F420.000
G1 X548.879 Y-260.815 Z0.000 F420.000
G1 X549.523 Y-260.206 Z0.000 F420.000
G1 X550.174 Y-259.492 Z0.000 F420.000
G1 X550.831 Y-258.664 Z0.000 F420.000
G1 X551.495 Y-257.712 Z0.000 F420.000
G1 X552.167 Y-256.625 Z0.000 F420.000
G1 X552.846 Y-255.389 Z0.000 F420.000
G1 X553.534 Y-253.994 Z0.000 F420.000
G1 X554.229 Y-252.422 Z0.000 F420.000
G1 X554.934 Y-250.658 Z0.000 F420.000
G1 X555.653 Y-248.675 Z0.000 F420.000
G1 X556.397 Y-246.432 Z0.000 F420.000
G1 X557.199 Y-243.821 Z0.000 F420.000
G1 X558.245 Y-240.313 Z0.000 F420.000
G0 Z12.000
(Finish operation: Engrave)
(Begin postamble)
M5
G17 G90
M2
