%
(Header)
(Generated by gcodetools from Inkscape.)
(Using default header. To add your own header create file "header" in the output dir.)
M3
(Header end.)
G21 (All units in mm)

(Start cutting path id: path10)
(Change tool to Default tool)

G00 Z10.000000
G00 X11.339697 Y4.073169

G01 Z-1.250000 F100.0(Penetrate)
G02 X11.015237 Y4.112871 Z-1.250000 I0.000000 J1.345659 F400.000000
G02 X10.840503 Y4.197192 Z-1.250000 I0.114302 J0.460068
G02 X10.721324 Y4.340168 Z-1.250000 I0.274468 J0.349946
G02 X10.682373 Y4.497949 Z-1.250000 I0.300093 J0.157781
G02 X10.710461 Y4.618646 Z-1.250000 I0.273371 J0.000000
G02 X10.778493 Y4.693286 Z-1.250000 I0.162909 J-0.080163
G02 X10.878869 Y4.740847 Z-1.250000 I0.231441 J-0.358751
G02 X10.970729 Y4.755296 Z-1.250000 I0.091860 J-0.284772
G02 X11.020909 Y4.747152 Z-1.250000 I-0.000000 J-0.158670
G02 X11.073049 Y4.721186 Z-1.250000 I-0.065876 J-0.197610
G02 X11.110547 Y4.678801 Z-1.250000 I-0.057191 J-0.088377
G02 X11.125759 Y4.612666 Z-1.250000 I-0.136159 J-0.066135
G02 X11.113434 Y4.559081 Z-1.250000 I-0.122647 J-0.000000
G02 X11.073049 Y4.504145 Z-1.250000 I-0.169646 J0.082399
G02 X11.018667 Y4.469703 Z-1.250000 I-0.117417 J0.125243
G02 X10.955226 Y4.457635 Z-1.250000 I-0.063441 J0.160713
G02 X10.915034 Y4.459178 Z-1.250000 I-0.000000 J0.524104
G02 X10.874616 Y4.463835 Z-1.250000 I0.041124 J0.534681
G02 X10.839005 Y4.473948 Z-1.250000 I0.027321 J0.163969
G02 X10.806406 Y4.491735 Z-1.250000 I0.063329 J0.154827
G01 X10.806406 Y4.473135 Z-1.250000
G03 X10.838370 Y4.353482 Z-1.250000 I0.239932 J-0.000000
G03 X10.936631 Y4.246792 Z-1.250000 I0.285243 J0.164113
G03 X11.077722 Y4.186129 Z-1.250000 I0.246031 J0.377817
G03 X11.299399 Y4.159972 Z-1.250000 I0.221677 J0.926254
G03 X11.500666 Y4.178190 Z-1.250000 I-0.000000 J1.120865
G03 X11.690073 Y4.231282 Z-1.250000 I-0.190689 J1.044693
G03 X11.864638 Y4.321308 Z-1.250000 I-0.319903 J0.834570
G03 X12.096250 Y4.501033 Z-1.250000 I-1.101606 J1.658740
G03 X12.309081 Y4.712457 Z-1.250000 I-2.106571 J2.333431
G03 X12.629551 Y5.083943 Z-1.250000 I-6.203385 J5.675441
G03 X12.933136 Y5.470291 Z-1.250000 I-11.476728 J9.330657
G03 X13.392295 Y6.088533 Z-1.250000 I-28.937349 J21.970943
G02 X13.919659 Y6.754945 Z-1.250000 I7.031579 J-5.022561
G02 X14.387583 Y7.226448 Z-1.250000 I3.974015 J-3.475909
G02 X14.900701 Y7.651734 Z-1.250000 I6.474618 J-7.289597
G02 X15.410776 Y8.017097 Z-1.250000 I5.283817 J-6.837881
G02 X15.441927 Y8.035457 Z-1.250000 I1.197214 J-1.995678
G02 X15.469686 Y8.051204 Z-1.250000 I0.908430 J-1.569051
G02 X15.501022 Y8.069213 Z-1.250000 I0.495854 J-0.826556
G02 X15.531696 Y8.085310 Z-1.250000 I0.426727 J-0.775856
G03 X15.333056 Y8.190137 Z-1.250000 I-0.591004 J-0.879300
G03 X15.057306 Y8.274446 Z-1.250000 I-0.646696 J-1.622042
G03 X14.773302 Y8.319415 Z-1.250000 I-0.520674 J-2.369052
G03 X14.424787 Y8.336458 Z-1.250000 I-0.348515 J-3.554836
G03 X13.893081 Y8.291664 Z-1.250000 I0.000000 J-3.178058
G03 X13.401594 Y8.162825 Z-1.250000 I0.482109 J-2.840997
G03 X12.935049 Y7.957306 Z-1.250000 I1.226257 J-3.416005
G03 X12.548933 Y7.713240 Z-1.250000 I1.359010 J-2.577434
G03 X12.206813 Y7.412140 Z-1.250000 I1.717282 J-2.296144
G03 X11.972224 Y7.117927 Z-1.250000 I1.403886 J-1.360014
G03 X11.815936 Y6.788224 Z-1.250000 I1.166770 J-0.754972
G03 X11.776887 Y6.510212 Z-1.250000 I0.783274 J-0.251767
G03 X11.804391 Y6.350560 Z-1.250000 I0.607748 J0.022505
G03 X11.860597 Y6.243562 Z-1.250000 I0.322953 J0.101385
G03 X11.950458 Y6.156898 Z-1.250000 I0.400794 J0.325660
G03 X12.049733 Y6.100935 Z-1.250000 I0.259096 J0.343584
G03 X12.163215 Y6.067444 Z-1.250000 I0.255801 J0.657747
G03 X12.260573 Y6.057525 Z-1.250000 I0.097358 J0.472863
G03 X12.474969 Y6.089338 Z-1.250000 I0.000000 J0.738344
G03 X12.710158 Y6.193951 Z-1.250000 I-0.302386 J0.996499
G03 X12.925246 Y6.347395 Z-1.250000 I-1.031687 J1.673632
G03 X13.141139 Y6.547418 Z-1.250000 I-1.547029 J1.886287
G03 X13.339272 Y6.772231 Z-1.250000 I-2.634143 J2.521260
G03 X13.513210 Y7.006304 Z-1.250000 I-2.682379 J2.174910
G03 X13.669270 Y7.255971 Z-1.250000 I-3.789915 J2.542593
G03 X13.779860 Y7.465191 Z-1.250000 I-2.549237 J1.481310
G03 X13.867888 Y7.683095 Z-1.250000 I-1.706016 J0.815920
G03 X13.894582 Y7.809356 Z-1.250000 I-0.540985 J0.180329
G02 X13.919498 Y7.900701 Z-1.250000 I0.316284 J-0.037203
G01 X13.941092 Y7.914776 Z-1.250000
G01 X13.958964 Y7.901638 Z-1.250000
G02 X13.972102 Y7.815556 Z-1.250000 I-0.275428 J-0.086082
G02 X13.953001 Y7.547155 Z-1.250000 I-1.281520 J-0.043680
G02 X13.866683 Y7.223344 Z-1.250000 I-1.958093 J0.348558
G02 X13.727269 Y6.920876 Z-1.250000 I-1.867752 J0.677519
G02 X13.525618 Y6.621831 Z-1.250000 I-2.026985 J1.149324
G02 X13.278641 Y6.364318 Z-1.250000 I-1.400729 J1.096221
G02 X12.979915 Y6.156743 Z-1.250000 I-1.199187 J1.407046
G02 X12.645053 Y6.024605 Z-1.250000 I-0.661705 J1.186506
G02 X12.254378 Y5.976909 Z-1.250000 I-0.390675 J1.576173
G02 X12.063704 Y6.009937 Z-1.250000 I0.000000 J0.566916
G02 X11.863704 Y6.116435 Z-1.250000 I0.261422 J0.731985
G02 X11.725072 Y6.283231 Z-1.250000 I0.297994 J0.388688
G02 X11.671468 Y6.494707 Z-1.250000 I0.441783 J0.224512
G02 X11.704346 Y6.791251 Z-1.250000 I1.063230 J0.032213
G02 X11.823396 Y7.086918 Z-1.250000 I1.175883 J-0.301665
G02 X12.008915 Y7.355281 Z-1.250000 I1.500502 J-0.838992
G02 X12.269881 Y7.617119 Z-1.250000 I1.688431 J-1.421837
G02 X12.568130 Y7.839204 Z-1.250000 I1.904486 J-2.246325
G02 X12.917903 Y8.038799 Z-1.250000 I1.883924 J-2.895149
G02 X13.291613 Y8.200478 Z-1.250000 I1.646444 J-3.292886
G02 X13.683748 Y8.320952 Z-1.250000 I1.291808 J-3.506338
G02 X14.086855 Y8.398402 Z-1.250000 I0.839560 J-3.281918
G02 X14.471297 Y8.423271 Z-1.250000 I0.384442 J-2.959041
G02 X15.159844 Y8.339610 Z-1.250000 I0.000000 J-2.875271
G02 X15.627815 Y8.138018 Z-1.250000 I-0.371592 J-1.506563
G02 X15.869815 Y8.251020 Z-1.250000 I1.887789 J-3.727174
G02 X16.040193 Y8.314751 Z-1.250000 I0.763452 J-1.781389
G02 X16.215244 Y8.361514 Z-1.250000 I0.555217 J-1.727362
G02 X16.300642 Y8.370561 Z-1.250000 I0.085398 J-0.398526
G02 X16.349182 Y8.359102 Z-1.250000 I0.000000 J-0.108535
G01 X16.362652 Y8.339555 Z-1.250000
G01 X16.348289 Y8.314805 Z-1.250000
G02 X16.275832 Y8.289946 Z-1.250000 I-0.101343 J0.177359
G03 X16.046282 Y8.217180 Z-1.250000 I0.240341 J-1.156649
G03 X15.739430 Y8.057402 Z-1.250000 I0.969852 J-2.237126
G02 X16.010601 Y7.721517 Z-1.250000 I-0.650105 J-0.802258
G02 X16.117702 Y7.310161 Z-1.250000 I-0.893255 J-0.452188
G02 X16.089904 Y7.059860 Z-1.250000 I-0.798486 J-0.038016
G02 X15.975075 Y6.792363 Z-1.250000 I-1.029720 J0.283635
G02 X15.795932 Y6.560559 Z-1.250000 I-1.135270 J0.692237
G02 X15.528591 Y6.330375 Z-1.250000 I-1.386494 J1.339964
G02 X15.226601 Y6.153681 Z-1.250000 I-1.154650 J1.627016
G02 X14.846462 Y6.007915 Z-1.250000 I-1.154488 J2.442193
G02 X14.912219 Y5.904831 Z-1.250000 I-0.220558 J-0.213207
G02 X14.939482 Y5.766069 Z-1.250000 I-0.382990 J-0.147308
G02 X14.936516 Y5.627829 Z-1.250000 I-0.784815 J-0.052311
G02 X14.908472 Y5.483916 Z-1.250000 I-0.879101 J0.096617
G02 X14.854308 Y5.351134 Z-1.250000 I-0.650682 J0.187985
G02 X14.731739 Y5.155253 Z-1.250000 I-1.548731 J0.832804
G02 X14.586876 Y4.976456 Z-1.250000 I-1.926289 J1.412615
G02 X14.316260 Y4.690166 Z-1.250000 I-5.220965 J4.664076
G03 X14.219634 Y4.593477 Z-1.250000 I0.558465 J-0.654724
G03 X14.173634 Y4.522734 Z-1.250000 I0.249641 J-0.212656
G03 X14.145407 Y4.446439 Z-1.250000 I0.333356 J-0.166700
G03 X14.139524 Y4.386308 Z-1.250000 I0.199447 J-0.049867
G03 X14.156929 Y4.300497 Z-1.250000 I0.220238 J-0.000000
G03 X14.207734 Y4.225078 Z-1.250000 I0.218783 J0.092558
G03 X14.284933 Y4.182404 Z-1.250000 I0.119730 J0.125431
G03 X14.465083 Y4.159968 Z-1.250000 I0.180150 J0.712047
G03 X14.700722 Y4.200369 Z-1.250000 I0.000000 J0.707376
G03 X14.982880 Y4.342903 Z-1.250000 I-0.411967 J1.166073
G03 X15.234289 Y4.548270 Z-1.250000 I-0.959729 J1.431459
G03 X15.491377 Y4.845198 Z-1.250000 I-1.772890 J1.794780
G03 X15.698808 Y5.179283 Z-1.250000 I-1.978606 J1.459940
G03 X15.863447 Y5.567634 Z-1.250000 I-2.515164 J1.295363
G02 X15.894361 Y5.652696 Z-1.250000 I0.497284 J-0.132581
G01 X15.906857 Y5.660654 Z-1.250000
G01 X15.942718 Y5.640705 Z-1.250000
G02 X15.962667 Y5.570734 Z-1.250000 I-0.112736 J-0.069971
G02 X15.929431 Y5.310214 Z-1.250000 I-0.951901 J-0.010939
G02 X15.816939 Y5.034333 Z-1.250000 I-1.182240 J0.321188
G02 X15.649021 Y4.785915 Z-1.250000 I-1.626687 J0.918598
G02 X15.432466 Y4.553742 Z-1.250000 I-1.635507 J1.308407
G02 X15.184718 Y4.354155 Z-1.250000 I-1.629688 J1.769372
G02 X14.933272 Y4.203376 Z-1.250000 I-1.173660 J1.672205
G02 X14.666064 Y4.101783 Z-1.250000 I-0.638214 J1.276423
G02 X14.449581 Y4.073151 Z-1.250000 I-0.216483 J0.804076
G02 X14.209385 Y4.105235 Z-1.250000 I0.000000 J0.915160
G02 X14.062007 Y4.178571 Z-1.250000 I0.110840 J0.407501
G02 X13.958956 Y4.303957 Z-1.250000 I0.241323 J0.303377
G02 X13.919380 Y4.454523 Z-1.250000 I0.316857 J0.163769
G02 X13.936447 Y4.679394 Z-1.250000 I1.098753 J0.029690
G02 X13.993790 Y4.866901 Z-1.250000 I0.817713 J-0.147549
G02 X14.086331 Y5.042430 Z-1.250000 I1.296501 J-0.571372
G02 X14.201529 Y5.201764 Z-1.250000 I1.182058 J-0.733313
G02 X14.331348 Y5.351256 Z-1.250000 I4.140104 J-3.464161
G02 X14.455777 Y5.483918 Z-1.250000 I3.384268 J-3.049552
G03 X14.609369 Y5.628985 Z-1.250000 I-1.055298 J1.271162
G03 X14.666617 Y5.710260 Z-1.250000 I-0.267668 J0.249336
G03 X14.701362 Y5.802821 Z-1.250000 I-0.372202 J0.192517
G03 X14.710027 Y5.886994 Z-1.250000 I-0.298095 J0.073219
G03 X14.705213 Y5.929268 Z-1.250000 I-0.188022 J0.000000
G03 X14.691427 Y5.967604 Z-1.250000 I-0.167977 J-0.038759
G02 X14.613554 Y5.950970 Z-1.250000 I-0.370648 J1.544566
G02 X14.542599 Y5.939694 Z-1.250000 I-0.238329 J1.270873
G02 X14.471227 Y5.934934 Z-1.250000 I-0.153918 J1.770310
G02 X14.409274 Y5.933494 Z-1.250000 I-0.061953 J1.332229
G02 X14.278542 Y5.944479 Z-1.250000 I0.000000 J0.783409
G02 X14.207736 Y5.967604 Z-1.250000 I0.042143 J0.249001
G02 X14.152069 Y6.012836 Z-1.250000 I0.094408 J0.173061
G02 X14.136426 Y6.051324 Z-1.250000 I0.050351 J0.042887
G01 X14.145628 Y6.082107 Z-1.250000
G02 X14.192236 Y6.122634 Z-1.250000 I0.128101 J-0.100257
G02 X14.257495 Y6.148115 Z-1.250000 I0.107652 J-0.179400
G02 X14.372070 Y6.159844 Z-1.250000 I0.114575 J-0.553734
G02 X14.473932 Y6.155081 Z-1.250000 I0.000000 J-1.091503
G02 X14.570508 Y6.141244 Z-1.250000 I-0.093239 J-0.994739
G02 X14.666984 Y6.117803 Z-1.250000 I-0.091988 J-0.588841
G02 X14.747241 Y6.082334 Z-1.250000 I-0.147208 J-0.441632
G03 X14.951069 Y6.188605 Z-1.250000 I-0.539016 J1.282440
G03 X15.159619 Y6.342783 Z-1.250000 I-0.945641 J1.497266
G03 X15.346735 Y6.523735 Z-1.250000 I-1.444986 J1.681436
G03 X15.513086 Y6.727255 Z-1.250000 I-1.664309 J1.530094
G03 X15.656908 Y6.949126 Z-1.250000 I-1.733116 J1.280997
G03 X15.758032 Y7.161338 Z-1.250000 I-1.483590 J0.837166
G03 X15.826064 Y7.385406 Z-1.250000 I-1.167105 J0.476722
G03 X15.841752 Y7.570615 Z-1.250000 I-0.778200 J0.159185
G03 X15.787415 Y7.798320 Z-1.250000 I-0.598282 J-0.022431
G03 X15.646415 Y7.995395 Z-1.250000 I-0.582835 J-0.268019
G03 X15.296145 Y7.722487 Z-1.250000 I1.945574 J-2.858320
G03 X14.871268 Y7.307065 Z-1.250000 I4.111489 J-4.630058
G03 X14.483918 Y6.857856 Z-1.250000 I5.333938 J-4.991033
G03 X14.071317 Y6.299375 Z-1.250000 I7.840342 J-6.224027
G02 X13.442072 Y5.479717 Z-1.250000 I-11.960808 J8.530854
G02 X12.973710 Y4.969223 Z-1.250000 I-5.093499 J4.203023
G02 X12.455942 Y4.516812 Z-1.250000 I-3.966493 J4.017020
G02 X12.077640 Y4.277793 Z-1.250000 I-1.460743 J1.893074
G02 X11.664002 Y4.117288 Z-1.250000 I-1.009622 J1.988645
G02 X11.339701 Y4.073154 Z-1.250000 I-0.324301 J1.169448
G01 X11.339697 Y4.073169 Z-1.250000
G00 Z10.000000

(End cutting path id: path10)


(Start cutting path id: path10)
(Change tool to Default tool)

G00 Z10.000000
G00 X14.393774 Y6.004834

G01 Z-1.250000 F100.0(Penetrate)
G03 X14.501154 Y6.012880 Z-1.250000 I-0.000000 J0.720584 F400.000000
G03 X14.620117 Y6.038944 Z-1.250000 I-0.137352 J0.911421
G03 X14.529166 Y6.072998 Z-1.250000 I-0.150406 J-0.263218
G03 X14.372070 Y6.088554 Z-1.250000 I-0.157096 J-0.785471
G03 X14.261643 Y6.074958 Z-1.250000 I-0.000000 J-0.455243
G01 X14.248047 Y6.057544 Z-1.250000
G01 X14.252402 Y6.047645 Z-1.250000
G03 X14.285257 Y6.023434 Z-1.250000 I0.129236 J0.140981
G03 X14.323871 Y6.010782 Z-1.250000 I0.062063 J0.124159
G03 X14.393777 Y6.004834 Z-1.250000 I0.069906 J0.407862
G01 X14.393774 Y6.004834 Z-1.250000
G00 Z10.000000

(End cutting path id: path10)


(Start cutting path id: path10)
(Change tool to Default tool)

G00 Z10.000000
G00 X16.334738 Y4.166189

G01 Z-1.250000 F100.0(Penetrate)
G03 X16.520827 Y4.205145 Z-1.250000 I0.000000 J0.463943 F400.000000
G03 X16.858737 Y4.395632 Z-1.250000 I-0.774637 J1.769106
G03 X17.162718 Y4.651584 Z-1.250000 I-1.452752 J2.033849
G03 X17.640084 Y5.167678 Z-1.250000 I-5.498062 J5.564298
G03 X17.714151 Y5.257877 Z-1.250000 I-11.859860 J9.814192
G03 X17.776510 Y5.335109 Z-1.250000 I-8.632478 J7.033909
G02 X17.841870 Y5.412416 Z-1.250000 I11.926606 J-10.017303
G02 X17.900533 Y5.480837 Z-1.250000 I9.401178 J-8.000949
G03 X17.967901 Y5.591572 Z-1.250000 I-1.556200 J1.022600
G03 X18.027657 Y5.707180 Z-1.250000 I-1.636654 J0.919216
G03 X18.073977 Y5.827974 Z-1.250000 I-0.594517 J0.297253
G03 X18.086567 Y5.921120 Z-1.250000 I-0.338273 J0.093146
G03 X18.066835 Y6.006409 Z-1.250000 I-0.194194 J-0.000000
G03 X18.018357 Y6.060647 Z-1.250000 I-0.120474 J-0.058896
G03 X17.946522 Y6.095407 Z-1.250000 I-0.152667 J-0.223896
G03 X17.869529 Y6.107157 Z-1.250000 I-0.076993 J-0.246372
G03 X17.726578 Y6.076690 Z-1.250000 I-0.000000 J-0.350597
G03 X17.376535 Y5.887016 Z-1.250000 I1.060645 J-2.375257
G03 X17.062717 Y5.642446 Z-1.250000 I1.181123 J-1.839172
G03 X16.632395 Y5.189384 Z-1.250000 I3.687306 J-3.933123
G03 X16.415355 Y4.900445 Z-1.250000 I2.750146 J-2.291787
G03 X16.297532 Y4.693290 Z-1.250000 I1.290452 J-0.871054
G03 X16.215023 Y4.471813 Z-1.250000 I1.275241 J-0.601189
G03 X16.195212 Y4.327421 Z-1.250000 I0.516309 J-0.144392
G03 X16.238980 Y4.209959 Z-1.250000 I0.179501 J0.000000
G03 X16.334739 Y4.166191 Z-1.250000 I0.095759 J0.082869
G01 X16.334738 Y4.166189 Z-1.250000
G00 Z10.000000

(End cutting path id: path10)


(Start cutting path id: path10)
(Change tool to Default tool)

G00 Z10.000000
G00 X16.322338 Y4.073169

G01 Z-1.250000 F100.0(Penetrate)
G02 X16.139083 Y4.106178 Z-1.250000 I0.000000 J0.525182 F400.000000
G02 X16.030883 Y4.181689 Z-1.250000 I0.092014 J0.247124
G02 X15.967495 Y4.299774 Z-1.250000 I0.260652 J0.215975
G02 X15.940963 Y4.479346 Z-1.250000 I0.594428 J0.179572
G02 X15.960768 Y4.683553 Z-1.250000 I1.062675 J-0.000000
G02 X16.027783 Y4.922730 Z-1.250000 I1.528577 J-0.299314
G02 X16.139009 Y5.145513 Z-1.250000 I1.182648 J-0.451290
G02 X16.322338 Y5.390918 Z-1.250000 I1.621442 J-1.020111
G02 X16.773404 Y5.834023 Z-1.250000 I2.853595 J-2.453727
G02 X17.103686 Y6.038940 Z-1.250000 I0.907867 J-1.094654
G02 X17.477446 Y6.166445 Z-1.250000 I0.867560 J-1.931548
G02 X17.788915 Y6.203271 Z-1.250000 I0.311469 J-1.298768
G02 X17.944749 Y6.184088 Z-1.250000 I-0.000000 J-0.642545
G02 X18.061767 Y6.135061 Z-1.250000 I-0.101754 J-0.407032
G02 X18.145140 Y6.051008 Z-1.250000 I-0.129363 J-0.211694
G02 X18.173388 Y5.949025 Z-1.250000 I-0.169973 J-0.101983
G02 X18.164508 Y5.860815 Z-1.250000 I-0.442542 J-0.000000
G02 X18.136178 Y5.766091 Z-1.250000 I-0.539347 J0.109707
G03 X18.234551 Y5.884602 Z-1.250000 I-8.313928 J7.001307
G03 X18.303610 Y5.970730 Z-1.250000 I-4.321796 J3.536017
G02 X18.375111 Y6.060497 Z-1.250000 I21.121431 J-16.750103
G02 X18.440035 Y6.141262 Z-1.250000 I17.162259 J-13.729747
G03 X18.521697 Y6.123381 Z-1.250000 I0.148324 J0.481978
G03 X18.626071 Y6.116452 Z-1.250000 I0.104374 J0.782640
G03 X18.669469 Y6.117023 Z-1.250000 I0.000000 J1.650007
G03 X18.743893 Y6.119552 Z-1.250000 I-0.127756 J4.855619
G03 X18.818161 Y6.124108 Z-1.250000 I-0.078910 J1.894104
G03 X18.858614 Y6.128852 Z-1.250000 I-0.045898 J0.566177
G01 X17.813720 Y4.870020 Z-1.250000
G03 X17.623045 Y4.628904 Z-1.250000 I3.819491 J-3.216399
G03 X17.528466 Y4.485547 Z-1.250000 I1.251776 J-0.928737
G03 X17.455852 Y4.335908 Z-1.250000 I0.836476 J-0.498345
G03 X17.441646 Y4.259204 Z-1.250000 I0.199970 J-0.076704
G03 X17.470244 Y4.188582 Z-1.250000 I0.101498 J0.000000
G03 X17.537766 Y4.159984 Z-1.250000 I0.067522 J0.065412
G03 X17.699688 Y4.181980 Z-1.250000 I0.000000 J0.606994
G03 X17.885031 Y4.256104 Z-1.250000 I-0.241624 J0.872944
G03 X18.058164 Y4.364882 Z-1.250000 I-0.870095 J1.577028
G03 X18.238498 Y4.507251 Z-1.250000 I-1.317263 J1.853931
G03 X18.408302 Y4.666176 Z-1.250000 I-3.301013 J3.697145
G03 X18.564060 Y4.826611 Z-1.250000 I-3.208334 J3.270641
G03 X18.714137 Y4.995643 Z-1.250000 I-7.732169 J7.016226
G03 X18.830710 Y5.133569 Z-1.250000 I-5.031079 J4.370426
G02 X18.949633 Y5.275241 Z-1.250000 I9.052310 J-7.477975
G02 X19.010544 Y5.344409 Z-1.250000 I2.217890 J-1.891728
G01 X19.072554 Y5.291699 Z-1.250000
G03 X19.004764 Y5.213826 Z-1.250000 I7.206946 J-6.342224
G03 X18.880318 Y5.068457 Z-1.250000 I24.990442 J-21.519528
G02 X18.754244 Y4.924569 Z-1.250000 I-5.061972 J4.308097
G02 X18.595064 Y4.752197 Z-1.250000 I-7.424467 J6.696575
G02 X18.431692 Y4.587192 Z-1.250000 I-2.600394 J2.411280
G02 X18.250899 Y4.426636 Z-1.250000 I-2.642561 J2.793569
G02 X18.060573 Y4.282729 Z-1.250000 I-1.387466 J1.637206
G02 X17.872627 Y4.172388 Z-1.250000 I-0.998760 J1.485963
G02 X17.674691 Y4.096639 Z-1.250000 I-0.438854 J0.850267
G02 X17.491255 Y4.073168 Z-1.250000 I-0.183436 J0.705073
G02 X17.249935 Y4.141907 Z-1.250000 I0.000000 J0.457966
G02 X17.181196 Y4.265404 Z-1.250000 I0.076568 J0.123497
G02 X17.187263 Y4.335689 Z-1.250000 I0.410118 J0.000000
G02 X17.206006 Y4.408031 Z-1.250000 I0.453407 J-0.078870
G02 X17.239611 Y4.479435 Z-1.250000 I0.456421 J-0.171196
G02 X17.314527 Y4.597167 Z-1.250000 I1.322068 J-0.758566
G02 X17.398421 Y4.712518 Z-1.250000 I2.044546 J-1.398812
G02 X17.556372 Y4.910326 Z-1.250000 I6.175340 J-4.769063
G01 X17.525372 Y4.922726 Z-1.250000
G02 X17.120595 Y4.488302 Z-1.250000 I-3.426677 J2.787033
G02 X16.824639 Y4.265401 Z-1.250000 I-1.176593 J1.254292
G02 X16.496347 Y4.105324 Z-1.250000 I-1.069626 J1.776961
G02 X16.322344 Y4.073165 Z-1.250000 I-0.174003 J0.454653
G01 X16.322338 Y4.073169 Z-1.250000
G00 Z10.000000

(End cutting path id: path10)


(Start cutting path id: path10)
(Change tool to Default tool)

G00 Z10.000000
G00 X15.373555 Y1.722931

G01 Z-1.250000 F100.0(Penetrate)
G03 X15.538767 Y1.736604 Z-1.250000 I0.000000 J1.004955 F400.000000
G03 X15.708418 Y1.778741 Z-1.250000 I-0.183697 J1.102194
G03 X15.864887 Y1.846711 Z-1.250000 I-0.262483 J0.818327
G03 X16.080488 Y1.986481 Z-1.250000 I-0.950403 J1.702207
G03 X16.279371 Y2.148582 Z-1.250000 I-1.445791 J1.976915
G03 X16.576582 Y2.436066 Z-1.250000 I-4.271671 J4.713569
G03 X16.855080 Y2.739742 Z-1.250000 I-6.777433 J6.495048
G03 X17.264912 Y3.220514 Z-1.250000 I-16.586433 J14.554106
G03 X16.526598 Y2.892031 Z-1.250000 I9.440405 J-22.212713
G03 X16.064985 Y2.662408 Z-1.250000 I4.143343 J-8.908181
G03 X15.620307 Y2.397664 Z-1.250000 I2.610469 J-4.890497
G03 X15.398359 Y2.222125 Z-1.250000 I0.913424 J-1.383002
G03 X15.232416 Y2.008718 Z-1.250000 I0.598882 J-0.636905
G03 X15.190620 Y1.846954 Z-1.250000 I0.292141 J-0.161764
G03 X15.198653 Y1.816172 Z-1.250000 I0.062995 J-0.000000
G03 X15.234030 Y1.769444 Z-1.250000 I0.186547 J0.104477
G03 X15.281185 Y1.737924 Z-1.250000 I0.081088 J0.070279
G03 X15.373557 Y1.722934 Z-1.250000 I0.092372 J0.277111
G01 X15.373555 Y1.722931 Z-1.250000
G00 Z10.000000

(End cutting path id: path10)


(Start cutting path id: path10)
(Change tool to Default tool)

G00 Z10.000000
G00 X15.364255 Y1.639211

G01 Z-1.250000 F100.0(Penetrate)
G02 X15.239080 Y1.659523 Z-1.250000 I0.000000 J0.395853 F400.000000
G02 X15.159616 Y1.707421 Z-1.250000 I0.067009 J0.201037
G02 X15.103873 Y1.782283 Z-1.250000 I0.193411 J0.202201
G02 X15.088306 Y1.846947 Z-1.250000 I0.126523 J0.064664
G02 X15.111002 Y1.966675 Z-1.250000 I0.327149 J-0.000000
G02 X15.196826 Y2.122899 Z-1.250000 I0.651381 J-0.256160
G02 X15.315688 Y2.254964 Z-1.250000 I0.676700 J-0.489527
G02 X15.559595 Y2.448461 Z-1.250000 I1.712820 J-1.908571
G02 X15.823547 Y2.614028 Z-1.250000 I2.123071 J-3.091489
G02 X16.260327 Y2.848437 Z-1.250000 I4.705560 J-8.243835
G02 X16.704812 Y3.059396 Z-1.250000 I5.363681 J-10.727387
G02 X17.370337 Y3.347631 Z-1.250000 I10.689053 J-23.768225
G03 X17.515368 Y3.524930 Z-1.250000 I-22.536357 J18.582711
G03 X17.677295 Y3.725902 Z-1.250000 I-28.794326 J23.365917
G03 X17.837990 Y3.927864 Z-1.250000 I-38.123851 J30.499005
G03 X18.018359 Y4.156884 Z-1.250000 I-48.843706 J38.653191
G03 X18.126647 Y4.293494 Z-1.250000 I-40.106339 J31.902864
G03 X18.309815 Y4.525854 Z-1.250000 I-115.847470 J91.509986
G03 X18.492004 Y4.758976 Z-1.250000 I-36.473038 J28.692151
G03 X18.697388 Y5.025048 Z-1.250000 I-47.307068 J36.729092
G03 X18.904303 Y5.295425 Z-1.250000 I-44.389393 J34.184889
G03 X19.091162 Y5.542846 Z-1.250000 I-36.984792 J28.126121
G03 X19.275404 Y5.792189 Z-1.250000 I-17.385266 J13.038932
G03 X19.398120 Y5.964525 Z-1.250000 I-8.181597 J5.955731
G03 X19.510566 Y6.141181 Z-1.250000 I-2.072032 J1.443023
G03 X19.522144 Y6.178466 Z-1.250000 I-0.075930 J0.044017
G03 X19.556304 Y6.176218 Z-1.250000 I0.062166 J0.684025
G03 X19.674072 Y6.172266 Z-1.250000 I0.331807 J8.130773
G01 X19.853906 Y6.172266 Z-1.250000
G03 X19.949918 Y6.174224 Z-1.250000 I-0.000000 J2.354691
G03 X20.005835 Y6.178466 Z-1.250000 I-0.032740 J0.802290
G03 X19.792431 Y5.905197 Z-1.250000 I69.602130 J-54.574201
G03 X19.550049 Y5.592455 Z-1.250000 I90.919368 J-70.715012
G03 X19.311470 Y5.282268 Z-1.250000 I289.357622 J-222.805052
G03 X18.964038 Y4.829711 Z-1.250000 I615.588715 J-472.952338
G02 X18.683556 Y4.464952 Z-1.250000 I-46.515758 J35.478168
G02 X18.440039 Y4.153783 Z-1.250000 I-34.094776 J26.431260
G02 X18.191334 Y3.847362 Z-1.250000 I-71.351484 J57.657795
G02 X17.974951 Y3.583275 Z-1.250000 I-53.214015 J43.380986
G03 X18.359095 Y3.775801 Z-1.250000 I-5.446139 J11.346093
G03 X18.657080 Y3.939843 Z-1.250000 I-3.653684 J6.989646
G03 X18.948396 Y4.119848 Z-1.250000 I-2.563334 J4.474186
G03 X19.202783 Y4.302611 Z-1.250000 I-2.388431 J3.592857
G03 X19.442862 Y4.503718 Z-1.250000 I-2.526143 J3.259529
G03 X19.689575 Y4.742895 Z-1.250000 I-3.330044 J3.681803
G03 X19.921756 Y4.999743 Z-1.250000 I-5.001841 J4.754843
G03 X20.201172 Y5.338207 Z-1.250000 I-8.410409 J7.227706
G01 X20.263182 Y5.285497 Z-1.250000
G02 X19.961238 Y4.926182 Z-1.250000 I-8.696396 J7.001347
G02 X19.711277 Y4.656078 Z-1.250000 I-5.161301 J4.525678
G02 X19.445260 Y4.405602 Z-1.250000 I-3.603692 J3.560785
G02 X19.187278 Y4.197191 Z-1.250000 I-2.749816 J3.139991
G02 X18.914295 Y4.008578 Z-1.250000 I-2.818118 J3.786849
G02 X18.601268 Y3.822021 Z-1.250000 I-3.069785 J4.794958
G02 X18.278473 Y3.648843 Z-1.250000 I-4.398290 J7.810772
G02 X17.860228 Y3.443749 Z-1.250000 I-6.590410 J12.910703
G02 X17.363095 Y2.867166 Z-1.250000 I-15.946659 J13.246690
G02 X17.016868 Y2.501171 Z-1.250000 I-6.765996 J6.053791
G02 X16.648062 Y2.156210 Z-1.250000 I-4.754301 J4.713311
G02 X16.387449 Y1.955468 Z-1.250000 I-1.860989 J2.146483
G02 X16.101682 Y1.790942 Z-1.250000 I-1.303095 J1.932925
G02 X15.869651 Y1.704320 Z-1.250000 I-0.573936 J1.183298
G02 X15.622540 Y1.655779 Z-1.250000 I-0.491647 J1.849592
G02 X15.364256 Y1.639210 Z-1.250000 I-0.258284 J2.004848
G01 X15.364255 Y1.639211 Z-1.250000
G00 Z10.000000

(End cutting path id: path10)


(Start cutting path id: path10)
(Change tool to Default tool)

G00 Z10.000000
G00 X20.250778 Y6.795485

G01 Z-1.250000 F100.0(Penetrate)
G02 X20.173061 Y6.809977 Z-1.250000 I0.000000 J0.215640 F400.000000
G02 X20.114353 Y6.848195 Z-1.250000 I0.061021 J0.157936
G02 X20.075894 Y6.909671 Z-1.250000 I0.134124 J0.126674
G02 X20.061643 Y6.987722 Z-1.250000 I0.206606 J0.078051
G02 X20.083729 Y7.086873 Z-1.250000 I0.233603 J-0.000000
G02 X20.154663 Y7.186159 Z-1.250000 I0.305203 J-0.143068
G02 X20.257525 Y7.255418 Z-1.250000 I0.228810 J-0.228810
G02 X20.374805 Y7.279179 Z-1.250000 I0.117280 J-0.277556
G02 X20.454009 Y7.262809 Z-1.250000 I-0.000000 J-0.199793
G02 X20.511231 Y7.220269 Z-1.250000 I-0.061559 J-0.142562
G02 X20.547530 Y7.159398 Z-1.250000 I-0.141015 J-0.125349
G02 X20.560841 Y7.083843 Z-1.250000 I-0.207774 J-0.075555
G02 X20.536684 Y6.980083 Z-1.250000 I-0.234917 J0.000000
G02 X20.461621 Y6.882305 Z-1.250000 I-0.282164 J0.138913
G02 X20.357386 Y6.816575 Z-1.250000 I-0.241314 J0.267163
G02 X20.250781 Y6.795485 Z-1.250000 I-0.106605 J0.258888
G01 X20.250778 Y6.795485 Z-1.250000
G00 Z10.000000

(End cutting path id: path10)


(Start cutting path id: path5)
(Change tool to Default tool)

G00 Z10.000000
G00 X17.432346 Y12.010669

G01 Z-1.250000 F100.0(Penetrate)
G02 X17.249091 Y12.043679 Z-1.250000 I0.000000 J0.525179 F400.000000
G02 X17.140891 Y12.119190 Z-1.250000 I0.092014 J0.247124
G02 X17.077503 Y12.237274 Z-1.250000 I0.260650 J0.215974
G02 X17.050971 Y12.416846 Z-1.250000 I0.594425 J0.179572
G02 X17.070776 Y12.621053 Z-1.250000 I1.062676 J0.000000
G02 X17.137791 Y12.860230 Z-1.250000 I1.528568 J-0.299312
G02 X17.249017 Y13.083013 Z-1.250000 I1.182649 J-0.451289
G02 X17.432346 Y13.328418 Z-1.250000 I1.621437 J-1.020107
G02 X17.883412 Y13.771523 Z-1.250000 I2.853601 J-2.453733
G02 X18.213694 Y13.976441 Z-1.250000 I0.907871 J-1.094658
G02 X18.587454 Y14.103946 Z-1.250000 I0.867560 J-1.931547
G02 X18.898923 Y14.140772 Z-1.250000 I0.311469 J-1.298767
G02 X19.054756 Y14.121588 Z-1.250000 I-0.000000 J-0.642517
G02 X19.171775 Y14.072559 Z-1.250000 I-0.101756 J-0.407023
G02 X19.255149 Y13.988504 Z-1.250000 I-0.129375 J-0.211704
G02 X19.283396 Y13.886523 Z-1.250000 I-0.169967 J-0.101980
G02 X19.274516 Y13.798317 Z-1.250000 I-0.442529 J0.000000
G02 X19.246186 Y13.703589 Z-1.250000 I-0.539404 J0.109718
G03 X19.344559 Y13.822100 Z-1.250000 I-8.315107 J7.002282
G03 X19.413618 Y13.908228 Z-1.250000 I-4.322352 J3.536477
G02 X19.485118 Y13.997992 Z-1.250000 I21.186616 J-16.802357
G02 X19.550044 Y14.078760 Z-1.250000 I17.217146 J-13.773741
G03 X19.631696 Y14.060883 Z-1.250000 I0.148291 J0.481907
G03 X19.736079 Y14.053955 Z-1.250000 I0.104383 J0.782863
G03 X19.779477 Y14.054526 Z-1.250000 I0.000000 J1.650007
G03 X19.853901 Y14.057055 Z-1.250000 I-0.127756 J4.855619
G03 X19.928169 Y14.061610 Z-1.250000 I-0.078912 J1.894138
G03 X19.968623 Y14.066355 Z-1.250000 I-0.045900 J0.566214
G01 X18.923730 Y12.807519 Z-1.250000
G03 X18.733055 Y12.566403 Z-1.250000 I3.819448 J-3.216370
G03 X18.638476 Y12.423047 Z-1.250000 I1.251767 J-0.928731
G03 X18.565862 Y12.273408 Z-1.250000 I0.836469 J-0.498342
G03 X18.551656 Y12.196704 Z-1.250000 I0.199970 J-0.076704
G03 X18.580254 Y12.126083 Z-1.250000 I0.101496 J0.000000
G03 X18.647776 Y12.097485 Z-1.250000 I0.067522 J0.065413
G03 X18.809699 Y12.119480 Z-1.250000 I-0.000000 J0.607008
G03 X18.995042 Y12.193603 Z-1.250000 I-0.241624 J0.872966
G03 X19.168174 Y12.302380 Z-1.250000 I-0.870036 J1.576936
G03 X19.348508 Y12.444751 Z-1.250000 I-1.317197 J1.853829
G03 X19.518312 Y12.603676 Z-1.250000 I-3.301054 J3.697184
G03 X19.674070 Y12.764111 Z-1.250000 I-3.208367 J3.270671
G03 X19.824147 Y12.933143 Z-1.250000 I-7.731836 J7.015937
G03 X19.940720 Y13.071069 Z-1.250000 I-5.030889 J4.370261
G02 X20.059644 Y13.212742 Z-1.250000 I9.054571 J-7.479907
G02 X20.120554 Y13.281909 Z-1.250000 I2.218400 J-1.892164
G01 X20.182564 Y13.229199 Z-1.250000
G03 X20.114773 Y13.151321 Z-1.250000 I7.228616 J-6.360884
G03 X19.990328 Y13.005956 Z-1.250000 I25.062107 J-21.581221
G02 X19.864254 Y12.862068 Z-1.250000 I-5.061608 J4.307772
G02 X19.705074 Y12.689697 Z-1.250000 I-7.423853 J6.696028
G02 X19.541702 Y12.524692 Z-1.250000 I-2.600401 J2.411281
G02 X19.360909 Y12.364135 Z-1.250000 I-2.642567 J2.793570
G02 X19.170583 Y12.220229 Z-1.250000 I-1.387488 J1.637239
G02 X18.982637 Y12.109887 Z-1.250000 I-0.998785 J1.486000
G02 X18.784701 Y12.034139 Z-1.250000 I-0.438853 J0.850273
G02 X18.601265 Y12.010668 Z-1.250000 I-0.183436 J0.705081
G02 X18.359946 Y12.079407 Z-1.250000 I-0.000000 J0.457962
G02 X18.291207 Y12.202905 Z-1.250000 I0.076568 J0.123497
G02 X18.297272 Y12.273193 Z-1.250000 I0.410300 J0.000000
G02 X18.316007 Y12.345531 Z-1.250000 I0.453499 J-0.078855
G02 X18.349613 Y12.416939 Z-1.250000 I0.456394 J-0.171177
G02 X18.424528 Y12.534667 Z-1.250000 I1.321792 J-0.758408
G02 X18.508429 Y12.650020 Z-1.250000 I2.046513 J-1.400329
G02 X18.666374 Y12.847826 Z-1.250000 I6.180720 J-4.773237
G01 X18.635364 Y12.860228 Z-1.250000
G02 X18.230587 Y12.425804 Z-1.250000 I-3.426663 J2.787023
G02 X17.934631 Y12.202904 Z-1.250000 I-1.176586 J1.254286
G02 X17.606339 Y12.042827 Z-1.250000 I-1.069627 J1.776959
G02 X17.432336 Y12.010668 Z-1.250000 I-0.174003 J0.454652
G01 X17.432346 Y12.010669 Z-1.250000
G00 Z10.000000

(End cutting path id: path5)


(Start cutting path id: path5)
(Change tool to Default tool)

G00 Z10.000000
G00 X17.444746 Y12.103687

G01 Z-1.250000 F100.0(Penetrate)
G03 X17.630835 Y12.142643 Z-1.250000 I-0.000000 J0.463943 F400.000000
G03 X17.968745 Y12.333131 Z-1.250000 I-0.774638 J1.769105
G03 X18.272726 Y12.589082 Z-1.250000 I-1.452750 J2.033847
G03 X18.750092 Y13.105176 Z-1.250000 I-5.498058 J5.564295
G03 X18.824158 Y13.195373 Z-1.250000 I-11.831152 J9.790763
G03 X18.886518 Y13.272608 Z-1.250000 I-8.612541 J7.017639
G02 X18.951877 Y13.349911 Z-1.250000 I11.973908 J-10.057681
G02 X19.010542 Y13.418336 Z-1.250000 I9.440234 J-8.034281
G03 X19.077910 Y13.529071 Z-1.250000 I-1.556273 J1.022643
G03 X19.137666 Y13.644678 Z-1.250000 I-1.636698 J0.919241
G03 X19.183986 Y13.765473 Z-1.250000 I-0.594520 J0.297254
G03 X19.196576 Y13.858619 Z-1.250000 I-0.338274 J0.093146
G03 X19.176845 Y13.943906 Z-1.250000 I-0.194189 J-0.000000
G03 X19.128366 Y13.998145 Z-1.250000 I-0.120479 J-0.058898
G03 X19.056531 Y14.032904 Z-1.250000 I-0.152666 J-0.223899
G03 X18.979538 Y14.044654 Z-1.250000 I-0.076993 J-0.246377
G03 X18.836588 Y14.014187 Z-1.250000 I-0.000000 J-0.350595
G03 X18.486545 Y13.824513 Z-1.250000 I1.060642 J-2.375239
G03 X18.172726 Y13.579942 Z-1.250000 I1.181119 J-1.839172
G03 X17.742404 Y13.126881 Z-1.250000 I3.687283 J-3.933104
G03 X17.525364 Y12.837942 Z-1.250000 I2.750140 J-2.291783
G03 X17.407541 Y12.630787 Z-1.250000 I1.290451 J-0.871053
G03 X17.325032 Y12.409310 Z-1.250000 I1.275241 J-0.601189
G03 X17.305221 Y12.264918 Z-1.250000 I0.516309 J-0.144393
G03 X17.348989 Y12.147456 Z-1.250000 I0.179502 J0.000000
G03 X17.444748 Y12.103687 Z-1.250000 I0.095759 J0.082868
G01 X17.444746 Y12.103687 Z-1.250000
G00 Z10.000000

(End cutting path id: path5)


(Start cutting path id: path5)
(Change tool to Default tool)

G00 Z10.000000
G00 X14.641821 Y14.732983

G01 Z-1.250000 F100.0(Penetrate)
G02 X14.561106 Y14.747721 Z-1.250000 I0.000000 J0.228396 F400.000000
G02 X14.502294 Y14.785693 Z-1.250000 I0.058757 J0.155535
G02 X14.466235 Y14.846657 Z-1.250000 I0.138346 J0.122974
G02 X14.452684 Y14.925220 Z-1.250000 I0.220956 J0.078563
G02 X14.474199 Y15.024828 Z-1.250000 I0.241333 J-0.000000
G02 X14.542604 Y15.123657 Z-1.250000 I0.305793 J-0.138567
G02 X14.645466 Y15.192915 Z-1.250000 I0.228807 J-0.228812
G02 X14.762746 Y15.216675 Z-1.250000 I0.117280 J-0.277562
G02 X14.841950 Y15.200305 Z-1.250000 I0.000000 J-0.199788
G02 X14.899171 Y15.157764 Z-1.250000 I-0.061559 J-0.142558
G02 X14.937887 Y15.096389 Z-1.250000 I-0.136780 J-0.129180
G02 X14.951881 Y15.021338 Z-1.250000 I-0.194249 J-0.075051
G02 X14.927724 Y14.917578 Z-1.250000 I-0.234917 J-0.000000
G02 X14.852661 Y14.819800 Z-1.250000 I-0.282167 J0.138915
G02 X14.748427 Y14.754074 Z-1.250000 I-0.241308 J0.267169
G02 X14.641821 Y14.732984 Z-1.250000 I-0.106606 J0.258901
G01 X14.641821 Y14.732983 Z-1.250000
G00 Z10.000000

(End cutting path id: path5)


(Start cutting path id: path5)
(Change tool to Default tool)

G00 Z10.000000
G00 X13.057421 Y12.010669

G01 Z-1.250000 F100.0(Penetrate)
G02 X12.873879 Y12.031017 Z-1.250000 I-0.000000 J0.837944 F400.000000
G02 X12.753564 Y12.078882 Z-1.250000 I0.090241 J0.401981
G02 X12.664761 Y12.166551 Z-1.250000 I0.138928 J0.229534
G02 X12.635742 Y12.268018 Z-1.250000 I0.162881 J0.101466
G02 X12.645541 Y12.359216 Z-1.250000 I0.429301 J0.000000
G02 X12.682252 Y12.481958 Z-1.250000 I0.818407 J-0.177919
G02 X12.737592 Y12.601438 Z-1.250000 I0.822987 J-0.308628
G02 X12.862085 Y12.804419 Z-1.250000 I2.510391 J-1.400018
G02 X12.997786 Y12.998898 Z-1.250000 I3.482656 J-2.285500
G02 X13.243458 Y13.319116 Z-1.250000 I9.694751 J-7.183477
G02 X13.501225 Y13.635568 Z-1.250000 I14.274645 J-11.364280
G02 X13.910084 Y14.119067 Z-1.250000 I33.735832 J-28.113194
G03 X13.938057 Y14.116866 Z-1.250000 I0.048296 J0.434816
G03 X14.043409 Y14.112867 Z-1.250000 I0.286900 J6.169498
G03 X14.148837 Y14.110323 Z-1.250000 I0.294224 J10.005499
G03 X14.207740 Y14.109767 Z-1.250000 I0.058903 J3.122439
G01 X14.285250 Y14.109767 Z-1.250000
G03 X14.313149 Y14.112958 Z-1.250000 I-0.479214 J4.314468
G03 X14.337960 Y14.115968 Z-1.250000 I-0.401694 J3.415048
G03 X13.885947 Y13.582100 Z-1.250000 I212.278721 J-180.189851
G03 X13.596920 Y13.238502 Z-1.250000 I87.641722 J-74.015445
G03 X13.314461 Y12.892121 Z-1.250000 I21.565610 J-17.874202
G03 X13.156637 Y12.689698 Z-1.250000 I7.205708 J-5.780848
G03 X13.006899 Y12.481647 Z-1.250000 I4.170925 J-3.159786
G03 X12.942697 Y12.376539 Z-1.250000 I0.997501 J-0.681460
G03 X12.894100 Y12.265400 Z-1.250000 I0.626953 J-0.340339
G03 X12.883787 Y12.202906 Z-1.250000 I0.184195 J-0.062494
G03 X12.907468 Y12.142829 Z-1.250000 I0.088046 J0.000000
G03 X12.970607 Y12.109888 Z-1.250000 I0.078284 J0.073067
G03 X13.057593 Y12.099816 Z-1.250000 I0.232643 J1.628611
G03 X13.110133 Y12.097486 Z-1.250000 I0.052540 J0.591094
G03 X13.271269 Y12.121519 Z-1.250000 I0.000000 J0.552203
G03 X13.476002 Y12.209107 Z-1.250000 I-0.301036 J0.986731
G03 X13.667973 Y12.332957 Z-1.250000 I-1.172502 J2.028117
G03 X13.869777 Y12.491260 Z-1.250000 I-1.719852 J2.400236
G03 X14.064178 Y12.666067 Z-1.250000 I-3.793016 J4.413681
G03 X14.235646 Y12.835425 Z-1.250000 I-3.388543 J3.602234
G03 X14.404104 Y13.010981 Z-1.250000 I-7.470452 J7.337042
G03 X14.514699 Y13.133082 Z-1.250000 I-3.502124 J3.283245
G02 X14.623877 Y13.259598 Z-1.250000 I11.867594 J-10.130819
G02 X14.641823 Y13.278809 Z-1.250000 I0.291009 J-0.253859
G01 X14.703833 Y13.222998 Z-1.250000
G03 X14.670184 Y13.185381 Z-1.250000 I1.521290 J-1.394662
G03 X14.555004 Y13.052466 Z-1.250000 I18.882668 J-16.479519
G02 X14.438124 Y12.921109 Z-1.250000 I-4.012195 J3.452333
G02 X14.269750 Y12.742407 Z-1.250000 I-7.595624 J6.987976
G02 X14.094573 Y12.573861 Z-1.250000 I-3.065104 J3.010366
G02 X13.894580 Y12.401343 Z-1.250000 I-3.411470 J3.752609
G02 X13.685432 Y12.245424 Z-1.250000 I-1.585023 J1.907897
G02 X13.476000 Y12.122290 Z-1.250000 I-1.193302 J1.789956
G02 X13.255690 Y12.036651 Z-1.250000 I-0.497346 J0.953246
G02 X13.057421 Y12.010669 Z-1.250000 I-0.198269 J0.743508
G01 X13.057421 Y12.010669 Z-1.250000
G00 Z10.000000

(End cutting path id: path5)


(Start cutting path id: path5)
(Change tool to Default tool)

G00 Z10.000000
G00 X12.852781 Y9.660425

G01 Z-1.250000 F100.0(Penetrate)
G03 X13.023652 Y9.675832 Z-1.250000 I0.000000 J0.955195 F400.000000
G03 X13.193845 Y9.722437 Z-1.250000 I-0.180758 J0.994163
G03 X13.353286 Y9.798734 Z-1.250000 I-0.335500 J0.905847
G03 X13.562815 Y9.942578 Z-1.250000 I-1.023272 J1.715063
G03 X13.753193 Y10.106414 Z-1.250000 I-1.631636 J2.088499
G03 X14.027903 Y10.382862 Z-1.250000 I-4.386755 J4.633897
G03 X14.286253 Y10.672642 Z-1.250000 I-8.032187 J7.421048
G03 X14.657322 Y11.114600 Z-1.250000 I-18.318519 J15.757035
G03 X13.956411 Y10.801320 Z-1.250000 I8.311313 J-19.535884
G03 X13.513206 Y10.578199 Z-1.250000 I3.764607 J-8.029710
G03 X13.086541 Y10.323581 Z-1.250000 I2.515707 J-4.700396
G03 X12.871384 Y10.153418 Z-1.250000 I0.896845 J-1.355089
G03 X12.710521 Y9.943768 Z-1.250000 I0.592463 J-0.621130
G03 X12.669846 Y9.784449 Z-1.250000 I0.291677 J-0.159320
G03 X12.677878 Y9.753669 Z-1.250000 I0.062994 J-0.000000
G03 X12.713256 Y9.706934 Z-1.250000 I0.186614 J0.104508
G03 X12.762997 Y9.674995 Z-1.250000 I0.087661 J0.081820
G03 X12.852782 Y9.660425 Z-1.250000 I0.089785 J0.269352
G01 X12.852781 Y9.660425 Z-1.250000
G00 Z10.000000

(End cutting path id: path5)


(Start cutting path id: path5)
(Change tool to Default tool)

G00 Z10.000000
G00 X12.840381 Y9.576709

G01 Z-1.250000 F100.0(Penetrate)
G02 X12.715567 Y9.597259 Z-1.250000 I-0.000000 J0.389317 F400.000000
G02 X12.638843 Y9.644922 Z-1.250000 I0.063639 J0.188024
G02 X12.585689 Y9.719371 Z-1.250000 I0.196511 J0.196503
G02 X12.570633 Y9.784448 Z-1.250000 I0.133118 J0.065077
G02 X12.608201 Y9.936828 Z-1.250000 I0.327815 J-0.000000
G02 X12.765970 Y10.156519 Z-1.250000 I0.862046 J-0.452575
G02 X12.975319 Y10.335906 Z-1.250000 I0.993788 J-0.947919
G02 X13.438797 Y10.624707 Z-1.250000 I3.077808 J-4.423074
G02 X13.924700 Y10.874089 Z-1.250000 I3.791590 J-6.789590
G02 X14.765847 Y11.247925 Z-1.250000 I9.389590 J-19.993744
G03 X15.021033 Y11.562817 Z-1.250000 I-22.900245 J18.819039
G03 X15.333255 Y11.957959 Z-1.250000 I-35.748556 J28.567662
G03 X15.643219 Y12.354907 Z-1.250000 I-839.597703 J655.938624
G03 X16.027786 Y12.847827 Z-1.250000 I-1294.283592 J1010.164286
G01 X15.993676 Y12.860229 Z-1.250000
G02 X15.811656 Y12.683517 Z-1.250000 I-1.882969 J1.757429
G02 X15.556494 Y12.475756 Z-1.250000 I-2.861570 J3.253877
G02 X15.287834 Y12.293970 Z-1.250000 I-2.002056 J2.669406
G02 X15.010791 Y12.143994 Z-1.250000 I-1.634900 J2.689181
G02 X14.718888 Y12.040599 Z-1.250000 I-0.678336 J1.451324
G02 X14.474389 Y12.010669 Z-1.250000 I-0.244499 J0.983682
G02 X14.213317 Y12.096861 Z-1.250000 I-0.000000 J0.438482
G02 X14.127124 Y12.268017 Z-1.250000 I0.126839 J0.171156
G02 X14.136839 Y12.377981 Z-1.250000 I0.627168 J-0.000000
G02 X14.167434 Y12.494360 Z-1.250000 I0.733663 J-0.130660
G02 X14.213068 Y12.608388 Z-1.250000 I0.783878 J-0.247560
G02 X14.316262 Y12.798217 Z-1.250000 I2.284678 J-1.119025
G02 X14.434726 Y12.981776 Z-1.250000 I4.529184 J-2.793006
G02 X14.657327 Y13.303613 Z-1.250000 I14.151428 J-9.550059
G02 X14.803813 Y13.473800 Z-1.250000 I3.768443 J-3.095508
G02 X14.998391 Y13.681884 Z-1.250000 I5.829938 J-5.256496
G02 X15.199984 Y13.886468 Z-1.250000 I377.833884 J-372.110175
G02 X15.432473 Y14.122167 Z-1.250000 I501.736730 J-494.668058
G02 X15.531623 Y14.112247 Z-1.250000 I-0.742357 J-7.920073
G02 X15.578201 Y14.106664 Z-1.250000 I-0.186515 J-1.753238
G03 X15.627840 Y14.104478 Z-1.250000 I0.084265 J1.348518
G03 X15.699124 Y14.103564 Z-1.250000 I0.071284 J2.780624
G03 X15.835391 Y14.106442 Z-1.250000 I0.000000 J3.228456
G03 X15.919265 Y14.112865 Z-1.250000 I-0.051906 J1.228661
G03 X15.708365 Y13.917495 Z-1.250000 I6.332091 J-7.046992
G03 X15.575100 Y13.784202 Z-1.250000 I2.812528 J-2.945194
G03 X15.449810 Y13.649226 Z-1.250000 I4.976412 J-4.744950
G03 X15.342556 Y13.526854 Z-1.250000 I3.982886 J-3.598995
G02 X15.238468 Y13.407509 Z-1.250000 I-4.038267 J3.416983
G02 X15.094510 Y13.250902 Z-1.250000 I-7.098804 J6.380923
G02 X15.022856 Y13.170595 Z-1.250000 I-9.386660 J8.303203
G02 X14.899173 Y13.033861 Z-1.250000 I-27.336675 J24.603020
G03 X14.776572 Y12.896191 Z-1.250000 I6.655453 J-6.050438
G03 X14.644925 Y12.742406 Z-1.250000 I8.173616 J-7.130174
G03 X14.521897 Y12.587429 Z-1.250000 I2.945731 J-2.464795
G03 X14.427884 Y12.454051 Z-1.250000 I2.087038 J-1.570888
G03 X14.356141 Y12.313235 Z-1.250000 I0.698781 J-0.444697
G03 X14.341064 Y12.233909 Z-1.250000 I0.201138 J-0.079325
G03 X14.360213 Y12.144690 Z-1.250000 I0.217418 J-0.000000
G03 X14.396874 Y12.109886 Z-1.250000 I0.060843 J0.027379
G03 X14.453355 Y12.095415 Z-1.250000 I0.130045 J0.390121
G03 X14.499193 Y12.091282 Z-1.250000 I0.045838 J0.252103
G03 X14.769064 Y12.127799 Z-1.250000 I0.000000 J1.015459
G03 X15.072801 Y12.249412 Z-1.250000 I-0.389524 J1.412979
G03 X15.358927 Y12.427111 Z-1.250000 I-1.352631 J2.497173
G03 X15.643309 Y12.652488 Z-1.250000 I-1.901986 J2.692043
G03 X15.906497 Y12.906659 Z-1.250000 I-3.356982 J3.739429
G03 X16.123900 Y13.151682 Z-1.250000 I-2.901646 J2.793511
G03 X16.436768 Y13.501888 Z-1.250000 I-18.166604 J16.544599
G03 X16.629296 Y13.728391 Z-1.250000 I-7.405113 J6.489434
G03 X16.820486 Y13.958691 Z-1.250000 I-25.401510 J21.282306
G03 X16.945555 Y14.112864 Z-1.250000 I-11.258282 J9.260821
G03 X16.979674 Y14.106717 Z-1.250000 I2.000367 J11.005245
G03 X17.032375 Y14.097361 Z-1.250000 I4.686696 J26.246467
G03 X17.085176 Y14.092707 Z-1.250000 I0.106149 J0.902435
G03 X17.137795 Y14.091161 Z-1.250000 I0.052619 J0.894699
G03 X17.178093 Y14.091720 Z-1.250000 I-0.000000 J1.451555
G03 X17.249416 Y14.094261 Z-1.250000 I-0.126371 J4.550200
G03 X17.320587 Y14.098771 Z-1.250000 I-0.078059 J1.795613
G03 X17.361037 Y14.103561 Z-1.250000 I-0.048684 J0.584316
G01 X16.282031 Y12.773413 Z-1.250000
G02 X15.986140 Y12.374435 Z-1.250000 I-59.606425 J43.896253
G02 X15.733227 Y12.038574 Z-1.250000 I-42.491866 J31.734447
G02 X15.480219 Y11.705142 Z-1.250000 I-29.848226 J22.386127
G02 X15.261938 Y11.424658 Z-1.250000 I-21.339204 J16.381610
G03 X15.684084 Y11.639654 Z-1.250000 I-4.096700 J8.565830
G03 X15.978174 Y11.812231 Z-1.250000 I-2.341109 J4.326373
G03 X16.261347 Y12.003195 Z-1.250000 I-2.216106 J3.591621
G03 X16.492871 Y12.190503 Z-1.250000 I-1.900107 J2.585391
G03 X16.708776 Y12.399192 Z-1.250000 I-2.954697 J3.272892
G03 X16.939355 Y12.652490 Z-1.250000 I-4.125688 J3.987239
G03 X17.160965 Y12.914308 Z-1.250000 I-20.967880 J17.972455
G03 X17.460254 Y13.275708 Z-1.250000 I-39.653221 J33.143025
G01 X17.525364 Y13.222998 Z-1.250000
G02 X17.266094 Y12.914583 Z-1.250000 I-24.693049 J20.495100
G02 X17.063379 Y12.680395 Z-1.250000 I-14.439422 J12.294076
G02 X16.857737 Y12.451704 Z-1.250000 I-6.355470 J5.508100
G02 X16.675805 Y12.264917 Z-1.250000 I-4.420411 J4.123525
G02 X16.483711 Y12.089096 Z-1.250000 I-2.550775 J2.594005
G02 X16.278930 Y11.926953 Z-1.250000 I-2.373026 J2.786673
G02 X16.063010 Y11.776609 Z-1.250000 I-2.238532 J2.984700
G02 X15.798340 Y11.616894 Z-1.250000 I-2.792039 J4.327653
G02 X15.525633 Y11.470691 Z-1.250000 I-3.648254 J6.477514
G02 X15.153418 Y11.288232 Z-1.250000 I-6.058189 J11.887770
G02 X14.706487 Y10.744807 Z-1.250000 I-15.034095 J11.909041
G02 X14.393774 Y10.398364 Z-1.250000 I-6.417974 J5.478762
G02 X14.061902 Y10.074940 Z-1.250000 I-4.090057 J3.864911
G02 X13.820166 Y9.883667 Z-1.250000 I-1.662970 J1.853309
G02 X13.555669 Y9.725709 Z-1.250000 I-1.152437 J1.629307
G02 X13.333374 Y9.641821 Z-1.250000 I-0.528152 J1.063076
G02 X13.098499 Y9.593681 Z-1.250000 I-0.456620 J1.630795
G02 X12.840381 Y9.576709 Z-1.250000 I-0.258118 J1.954329
G01 X12.840381 Y9.576709 Z-1.250000
G00 Z10.000000

(End cutting path id: path5)


(Start cutting path id: path5)
(Change tool to Default tool)

G00 Z10.000000
G00 X11.274585 Y13.942334

G01 Z-1.250000 F100.0(Penetrate)
G03 X11.381964 Y13.950379 Z-1.250000 I-0.000000 J0.720658 F400.000000
G03 X11.500927 Y13.976440 Z-1.250000 I-0.137351 J0.911518
G03 X11.409976 Y14.010493 Z-1.250000 I-0.150406 J-0.263223
G03 X11.252881 Y14.026049 Z-1.250000 I-0.157095 J-0.785479
G03 X11.142451 Y14.012454 Z-1.250000 I-0.000000 J-0.455313
G01 X11.128857 Y13.995043 Z-1.250000
G01 X11.133212 Y13.985143 Z-1.250000
G03 X11.166067 Y13.960937 Z-1.250000 I0.129179 J0.140935
G03 X11.204681 Y13.948282 Z-1.250000 I0.062064 J0.124142
G03 X11.274588 Y13.942334 Z-1.250000 I0.069907 J0.407803
G01 X11.274585 Y13.942334 Z-1.250000
G00 Z10.000000

(End cutting path id: path5)


(Start cutting path id: path5)
(Change tool to Default tool)

G00 Z10.000000
G00 X8.220508 Y12.010669

G01 Z-1.250000 F100.0(Penetrate)
G02 X7.896047 Y12.050371 Z-1.250000 I-0.000000 J1.345655 F400.000000
G02 X7.721313 Y12.134692 Z-1.250000 I0.114303 J0.460070
G02 X7.602134 Y12.277668 Z-1.250000 I0.274465 J0.349943
G02 X7.563183 Y12.435449 Z-1.250000 I0.300093 J0.157781
G02 X7.591271 Y12.556147 Z-1.250000 I0.273376 J-0.000000
G02 X7.659301 Y12.630786 Z-1.250000 I0.162909 J-0.080161
G02 X7.759676 Y12.678348 Z-1.250000 I0.231435 J-0.358721
G02 X7.851538 Y12.692798 Z-1.250000 I0.091862 J-0.284769
G02 X7.901718 Y12.684655 Z-1.250000 I-0.000000 J-0.158688
G02 X7.953857 Y12.658692 Z-1.250000 I-0.065871 J-0.197614
G02 X7.991354 Y12.616310 Z-1.250000 I-0.057178 J-0.088367
G02 X8.006567 Y12.550171 Z-1.250000 I-0.136167 J-0.066138
G02 X7.994242 Y12.496586 Z-1.250000 I-0.122648 J-0.000000
G02 X7.953857 Y12.441651 Z-1.250000 I-0.169637 J0.082395
G02 X7.899476 Y12.407210 Z-1.250000 I-0.117413 J0.125239
G02 X7.836035 Y12.395142 Z-1.250000 I-0.063441 J0.160716
G02 X7.795845 Y12.396685 Z-1.250000 I-0.000000 J0.524111
G02 X7.755420 Y12.401342 Z-1.250000 I0.041140 J0.534923
G02 X7.719812 Y12.411455 Z-1.250000 I0.027317 J0.163930
G02 X7.687207 Y12.429247 Z-1.250000 I0.063358 J0.154877
G01 X7.687207 Y12.410643 Z-1.250000
G03 X7.719171 Y12.290990 Z-1.250000 I0.239932 J-0.000000
G03 X7.817431 Y12.184300 Z-1.250000 I0.285243 J0.164112
G03 X7.958522 Y12.123640 Z-1.250000 I0.246028 J0.377830
G03 X8.180200 Y12.097484 Z-1.250000 I0.221678 J0.926302
G03 X8.381466 Y12.115703 Z-1.250000 I0.000000 J1.120816
G03 X8.570874 Y12.168797 Z-1.250000 I-0.190691 J1.044661
G03 X8.745440 Y12.258825 Z-1.250000 I-0.319948 J0.834641
G03 X8.977051 Y12.438548 Z-1.250000 I-1.101666 J1.658831
G03 X9.189882 Y12.649972 Z-1.250000 I-2.106557 J2.333417
G03 X9.510351 Y13.021458 Z-1.250000 I-6.203335 J5.675390
G03 X9.813937 Y13.407807 Z-1.250000 I-11.476390 J9.330400
G03 X10.273095 Y14.026048 Z-1.250000 I-28.936428 J21.970242
G02 X10.800459 Y14.692460 Z-1.250000 I7.031572 J-5.022554
G02 X11.268383 Y15.163963 Z-1.250000 I3.974007 J-3.475902
G02 X11.781501 Y15.589249 Z-1.250000 I6.474698 J-7.289704
G02 X12.291577 Y15.954613 Z-1.250000 I5.283881 J-6.837968
G02 X12.322728 Y15.972972 Z-1.250000 I1.196235 J-1.994046
G02 X12.350487 Y15.988719 Z-1.250000 I0.907640 J-1.567731
G02 X12.381823 Y16.006728 Z-1.250000 I0.495730 J-0.826306
G02 X12.412497 Y16.022826 Z-1.250000 I0.426601 J-0.775605
G03 X12.213857 Y16.127652 Z-1.250000 I-0.591004 J-0.879299
G03 X11.938107 Y16.211961 Z-1.250000 I-0.646695 J-1.622041
G03 X11.654103 Y16.256930 Z-1.250000 I-0.520673 J-2.369049
G03 X11.305587 Y16.273973 Z-1.250000 I-0.348516 J-3.554852
G03 X10.773882 Y16.229179 Z-1.250000 I0.000000 J-3.178051
G03 X10.282394 Y16.100340 Z-1.250000 I0.482112 J-2.841012
G03 X9.815853 Y15.894823 Z-1.250000 I1.226248 J-3.415976
G03 X9.429736 Y15.650757 Z-1.250000 I1.359025 J-2.577458
G03 X9.087616 Y15.349656 Z-1.250000 I1.717296 J-2.296159
G03 X8.853027 Y15.055444 Z-1.250000 I1.403893 J-1.360022
G03 X8.696740 Y14.725740 Z-1.250000 I1.166782 J-0.754976
G03 X8.657690 Y14.447729 Z-1.250000 I0.783274 J-0.251767
G03 X8.685196 Y14.288078 Z-1.250000 I0.607702 J0.022503
G03 X8.741406 Y14.181079 Z-1.250000 I0.322941 J0.101389
G03 X8.831263 Y14.094417 Z-1.250000 I0.400748 J0.325606
G03 X8.930542 Y14.038452 Z-1.250000 I0.259098 J0.343587
G03 X9.044024 Y14.004962 Z-1.250000 I0.255801 J0.657776
G03 X9.141382 Y13.995044 Z-1.250000 I0.097358 J0.472884
G03 X9.355778 Y14.026857 Z-1.250000 I-0.000000 J0.738345
G03 X9.590967 Y14.131470 Z-1.250000 I-0.302386 J0.996498
G03 X9.806055 Y14.284913 Z-1.250000 I-1.031711 J1.673664
G03 X10.021948 Y14.484937 Z-1.250000 I-1.547060 J1.886328
G03 X10.220081 Y14.709749 Z-1.250000 I-2.634154 J2.521258
G03 X10.394018 Y14.943823 Z-1.250000 I-2.682412 J2.174927
G03 X10.550079 Y15.193489 Z-1.250000 I-3.789939 J2.542616
G03 X10.660669 Y15.402710 Z-1.250000 I-2.549279 J1.481341
G03 X10.748696 Y15.620614 Z-1.250000 I-1.705993 J0.815907
G03 X10.775390 Y15.746875 Z-1.250000 I-0.540972 J0.180323
G02 X10.800307 Y15.838220 Z-1.250000 I0.316284 J-0.037203
G01 X10.821900 Y15.852295 Z-1.250000
G01 X10.839772 Y15.839157 Z-1.250000
G02 X10.852910 Y15.753076 Z-1.250000 I-0.275422 J-0.086081
G02 X10.833809 Y15.484674 Z-1.250000 I-1.281512 J-0.043680
G02 X10.747490 Y15.160864 Z-1.250000 I-1.958071 J0.348557
G02 X10.608077 Y14.858395 Z-1.250000 I-1.867772 J0.677527
G02 X10.406426 Y14.559350 Z-1.250000 I-2.027014 J1.149336
G02 X10.159449 Y14.301837 Z-1.250000 I-1.400741 J1.096236
G02 X9.860723 Y14.094263 Z-1.250000 I-1.199193 J1.407054
G02 X9.525861 Y13.962124 Z-1.250000 I-0.661705 J1.186506
G02 X9.135186 Y13.914429 Z-1.250000 I-0.390675 J1.576173
G02 X8.944512 Y13.947456 Z-1.250000 I-0.000000 J0.566915
G02 X8.744512 Y14.053955 Z-1.250000 I0.261422 J0.731983
G02 X8.605875 Y14.220752 Z-1.250000 I0.297992 J0.388696
G02 X8.552270 Y14.432226 Z-1.250000 I0.441767 J0.224511
G02 X8.585147 Y14.728770 Z-1.250000 I1.063204 J0.032218
G02 X8.704199 Y15.024438 Z-1.250000 I1.175868 J-0.301662
G02 X8.889717 Y15.292800 Z-1.250000 I1.500494 J-0.838986
G02 X9.150683 Y15.554638 Z-1.250000 I1.688426 J-1.421833
G02 X9.448933 Y15.776724 Z-1.250000 I1.904470 J-2.246298
G02 X9.798706 Y15.976318 Z-1.250000 I1.883904 J-2.895117
G02 X10.172416 Y16.137998 Z-1.250000 I1.646453 J-3.292907
G02 X10.564550 Y16.258471 Z-1.250000 I1.291809 J-3.506338
G02 X10.967657 Y16.335922 Z-1.250000 I0.839560 J-3.281918
G02 X11.352099 Y16.360791 Z-1.250000 I0.384442 J-2.959041
G02 X12.040647 Y16.277130 Z-1.250000 I-0.000000 J-2.875273
G02 X12.508618 Y16.075537 Z-1.250000 I-0.371593 J-1.506569
G02 X12.750618 Y16.188539 Z-1.250000 I1.887783 J-3.727162
G02 X12.920996 Y16.252270 Z-1.250000 I0.763449 J-1.781382
G02 X13.096047 Y16.299034 Z-1.250000 I0.555219 J-1.727335
G02 X13.181445 Y16.308081 Z-1.250000 I0.085398 J-0.398519
G02 X13.229985 Y16.296622 Z-1.250000 I0.000000 J-0.108535
G01 X13.243455 Y16.277075 Z-1.250000
G01 X13.229092 Y16.252326 Z-1.250000
G02 X13.156635 Y16.227466 Z-1.250000 I-0.101343 J0.177359
G03 X12.927085 Y16.154701 Z-1.250000 I0.240340 J-1.156645
G03 X12.620234 Y15.994922 Z-1.250000 I0.969845 J-2.237107
G02 X12.891405 Y15.659037 Z-1.250000 I-0.650104 J-0.802256
G02 X12.998505 Y15.247681 Z-1.250000 I-0.893254 J-0.452186
G02 X12.970707 Y14.997381 Z-1.250000 I-0.798483 J-0.038016
G02 X12.855878 Y14.729883 Z-1.250000 I-1.029726 J0.283637
G02 X12.676735 Y14.498080 Z-1.250000 I-1.135266 J0.692234
G02 X12.409394 Y14.267896 Z-1.250000 I-1.386483 J1.339955
G02 X12.107404 Y14.091202 Z-1.250000 I-1.154641 J1.626991
G02 X11.727265 Y13.945435 Z-1.250000 I-1.154484 J2.442178
G02 X11.793021 Y13.842353 Z-1.250000 I-0.220547 J-0.213202
G02 X11.820285 Y13.703589 Z-1.250000 I-0.382994 J-0.147309
G02 X11.817319 Y13.565349 Z-1.250000 I-0.784817 J-0.052311
G02 X11.789275 Y13.421436 Z-1.250000 I-0.879100 J0.096617
G02 X11.735111 Y13.288654 Z-1.250000 I-0.650672 J0.187983
G02 X11.612541 Y13.092774 Z-1.250000 I-1.548725 J0.832808
G02 X11.467679 Y12.913977 Z-1.250000 I-1.926258 J1.412581
G02 X11.197063 Y12.627686 Z-1.250000 I-5.220915 J4.664012
G03 X11.100437 Y12.530999 Z-1.250000 I0.558387 J-0.654661
G03 X11.054436 Y12.460254 Z-1.250000 I0.249630 J-0.212647
G03 X11.026209 Y12.383955 Z-1.250000 I0.333408 J-0.166717
G03 X11.020326 Y12.323829 Z-1.250000 I0.199431 J-0.049863
G03 X11.037730 Y12.238020 Z-1.250000 I0.220234 J-0.000000
G03 X11.088536 Y12.162598 Z-1.250000 I0.218797 J0.092564
G03 X11.165736 Y12.119923 Z-1.250000 I0.119732 J0.125428
G03 X11.345885 Y12.097486 Z-1.250000 I0.180149 J0.712024
G03 X11.581525 Y12.137888 Z-1.250000 I0.000000 J0.707382
G03 X11.863683 Y12.280421 Z-1.250000 I-0.411965 J1.166072
G03 X12.115091 Y12.485788 Z-1.250000 I-0.959726 J1.431453
G03 X12.372179 Y12.782716 Z-1.250000 I-1.772898 J1.794785
G03 X12.579610 Y13.116801 Z-1.250000 I-1.978587 J1.459931
G03 X12.744249 Y13.505152 Z-1.250000 I-2.515129 J1.295344
G02 X12.775163 Y13.590212 Z-1.250000 I0.497265 J-0.132578
G01 X12.787659 Y13.598170 Z-1.250000
G01 X12.823520 Y13.578221 Z-1.250000
G02 X12.843469 Y13.508253 Z-1.250000 I-0.112728 J-0.069968
G02 X12.810233 Y13.247733 Z-1.250000 I-0.951907 J-0.010939
G02 X12.697742 Y12.971852 Z-1.250000 I-1.182248 J0.321188
G02 X12.529823 Y12.723434 Z-1.250000 I-1.626717 J0.918622
G02 X12.313269 Y12.491261 Z-1.250000 I-1.635529 J1.308424
G02 X12.065521 Y12.291673 Z-1.250000 I-1.629718 J1.769411
G02 X11.814075 Y12.140895 Z-1.250000 I-1.173672 J1.672222
G02 X11.546866 Y12.039302 Z-1.250000 I-0.638217 J1.276437
G02 X11.330383 Y12.010670 Z-1.250000 I-0.216483 J0.804080
G02 X11.090188 Y12.042754 Z-1.250000 I0.000000 J0.915155
G02 X10.942810 Y12.116090 Z-1.250000 I0.110840 J0.407501
G02 X10.839758 Y12.241477 Z-1.250000 I0.241323 J0.303378
G02 X10.800183 Y12.392042 Z-1.250000 I0.316852 J0.163766
G02 X10.817250 Y12.616914 Z-1.250000 I1.098755 J0.029690
G02 X10.874593 Y12.804420 Z-1.250000 I0.817708 J-0.147548
G02 X10.967127 Y12.979946 Z-1.250000 I1.296081 J-0.571117
G02 X11.082332 Y13.139283 Z-1.250000 I1.181787 J-0.733145
G02 X11.212151 Y13.288775 Z-1.250000 I4.140066 J-3.464136
G02 X11.336580 Y13.421437 Z-1.250000 I3.384233 J-3.049528
G03 X11.490173 Y13.566504 Z-1.250000 I-1.055314 J1.271173
G03 X11.547420 Y13.647780 Z-1.250000 I-0.267670 J0.249337
G03 X11.582165 Y13.740338 Z-1.250000 I-0.372169 J0.192506
G03 X11.590830 Y13.824513 Z-1.250000 I-0.298103 J0.073221
G03 X11.586017 Y13.866785 Z-1.250000 I-0.188026 J0.000000
G03 X11.572230 Y13.905128 Z-1.250000 I-0.168048 J-0.038773
G02 X11.494347 Y13.888492 Z-1.250000 I-0.370413 J1.543538
G02 X11.423402 Y13.877223 Z-1.250000 I-0.237995 J1.269318
G02 X11.352030 Y13.872463 Z-1.250000 I-0.153918 J1.770310
G02 X11.290077 Y13.871023 Z-1.250000 I-0.061953 J1.332229
G02 X11.159344 Y13.882007 Z-1.250000 I0.000000 J0.783511
G02 X11.088538 Y13.905129 Z-1.250000 I0.042141 J0.249019
G02 X11.032871 Y13.950358 Z-1.250000 I0.094398 J0.173055
G02 X11.017228 Y13.988845 Z-1.250000 I0.050347 J0.042886
G01 X11.026429 Y14.019626 Z-1.250000
G02 X11.073038 Y14.060159 Z-1.250000 I0.128134 J-0.100277
G02 X11.138297 Y14.085637 Z-1.250000 I0.107650 J-0.179411
G02 X11.252872 Y14.097366 Z-1.250000 I0.114575 J-0.553781
G02 X11.354734 Y14.092601 Z-1.250000 I0.000000 J-1.091263
G02 X11.451309 Y14.078762 Z-1.250000 I-0.093238 J-0.994514
G02 X11.547785 Y14.055319 Z-1.250000 I-0.092019 J-0.588929
G02 X11.628042 Y14.019851 Z-1.250000 I-0.147228 J-0.441685
G03 X11.831870 Y14.126120 Z-1.250000 I-0.538952 J1.282337
G03 X12.040420 Y14.280300 Z-1.250000 I-0.945571 J1.497155
G03 X12.227537 Y14.461252 Z-1.250000 I-1.444953 J1.681404
G03 X12.393887 Y14.664773 Z-1.250000 I-1.664262 J1.530048
G03 X12.537709 Y14.886643 Z-1.250000 I-1.733106 J1.280993
G03 X12.638833 Y15.098855 Z-1.250000 I-1.483583 J0.837164
G03 X12.706865 Y15.322923 Z-1.250000 I-1.167113 J0.476724
G03 X12.722553 Y15.508132 Z-1.250000 I-0.778199 J0.159185
G03 X12.668219 Y15.735834 Z-1.250000 I-0.598270 J-0.022424
G03 X12.527221 Y15.932910 Z-1.250000 I-0.582832 J-0.268012
G03 X12.176952 Y15.660001 Z-1.250000 I1.945601 J-2.858345
G03 X11.752075 Y15.244580 Z-1.250000 I4.111540 J-4.630110
G03 X11.364724 Y14.795370 Z-1.250000 I5.333844 J-4.990957
G03 X10.952124 Y14.236890 Z-1.250000 I7.840192 J-6.223905
G02 X10.322878 Y13.417232 Z-1.250000 I-11.960902 J8.530943
G02 X9.854516 Y12.906738 Z-1.250000 I-5.093537 J4.203060
G02 X9.336748 Y12.454327 Z-1.250000 I-3.966529 J4.017058
G02 X8.958447 Y12.215307 Z-1.250000 I-1.460754 J1.893085
G02 X8.544809 Y12.054802 Z-1.250000 I-1.009621 J1.988649
G02 X8.220508 Y12.010669 Z-1.250000 I-0.324302 J1.169452
G01 X8.220508 Y12.010669 Z-1.250000
G00 Z10.000000

(End cutting path id: path5)


(Footer)
M5
G00 X0.0000 Y0.0000
M2
(Using default footer. To add your own footer create file "footer" in the output dir.)
(end)
%
