%
(Header)
(Generated by gcodetools from Inkscape.)
(Using default header. To add your own header create file "header" in the output dir.)
M3
(Header end.)
G21 (All units in mm)

(Start cutting path id: path3925-8)
(Change tool to Default tool)

G00 Z5.000000
G00 X206.598700 Y274.677590

G01 Z-0.125000 F100.0(Penetrate)
G03 X187.867993 Y267.584860 Z-0.125000 I0.248796 J-28.935717 F400.000000
G03 X178.380660 Y249.906950 Z-0.125000 I18.536085 J-21.332670
G03 X180.717678 Y232.000634 Z-0.125000 I34.896680 J-4.551171
G03 X190.659590 Y216.970550 Z-0.125000 I42.990341 J17.633544
G03 X212.982439 Y196.810746 Z-0.125000 I188.651575 J186.454047
G02 X233.408890 Y174.630840 Z-0.125000 I-63.798473 J-79.250581
G03 X236.820284 Y178.801157 Z-0.125000 I-29.673317 J27.753752
G02 X240.697510 Y183.621710 Z-0.125000 I43.386682 J-30.926883
G02 X261.873831 Y203.205033 Z-0.125000 I120.302277 J-108.847111
G03 X282.123890 Y223.708300 Z-0.125000 I-65.756637 J85.196187
G03 X289.319128 Y244.200975 Z-0.125000 I-28.696926 J21.585361
G03 X281.848270 Y264.949240 Z-0.125000 I-30.009482 J0.913597
G03 X263.674020 Y274.622895 Z-0.125000 I-21.937557 J-19.305750
G03 X243.749140 Y269.695920 Z-0.125000 I-3.640154 J-28.031060
G03 X237.958495 Y264.586452 Z-0.125000 I20.446359 J-29.008250
G03 X233.537840 Y258.251600 Z-0.125000 I22.106837 J-20.136693
G03 X222.440083 Y270.232118 Z-0.125000 I-27.375107 J-14.227748
G03 X206.598700 Y274.677590 Z-0.125000 I-15.587345 J-25.097285
G01 X206.598700 Y274.677590 Z-0.125000
G00 Z5.000000

(End cutting path id: path3925-8)


(Start cutting path id: text3)
(Change tool to Default tool)

G00 Z5.000000
G00 X375.855090 Y179.668400

G01 Z-0.125000 F100.0(Penetrate)
G02 X358.003438 Y155.000692 Z-0.125000 I-25.968950 J0.000000 F400.000000
G02 X326.325090 Y149.340800 Z-0.125000 I-35.761800 J108.676760
G02 X308.463944 Y149.395178 Z-0.125000 I-7.982822 J311.330041
G02 X290.358690 Y150.255200 Z-0.125000 I18.262583 J575.471843
G03 X290.492024 Y152.772390 Z-0.125000 I-33.266546 J3.024231
G03 X290.511090 Y155.284400 Z-0.125000 I-165.471239 J2.512010
G03 X289.011811 Y166.176925 Z-0.125000 I-37.535061 J0.383011
G03 X285.005640 Y173.134250 Z-0.125000 I-16.299836 J-4.753702
G03 X278.548751 Y176.864361 Z-0.125000 I-9.575337 J-9.121529
G03 X267.041490 Y176.925200 Z-0.125000 I-5.881952 J-24.240498
G01 X267.651090 Y175.401200 Z-0.125000
G02 X278.469165 Y175.307545 Z-0.125000 I5.215660 J-22.383875
G02 X284.205540 Y171.819800 Z-0.125000 I-2.768365 J-11.014440
G02 X287.676539 Y165.291144 Z-0.125000 I-11.849691 J-10.486977
G02 X288.987090 Y154.979600 Z-0.125000 I-39.910857 J-10.311544
G02 X288.968020 Y152.696447 Z-0.125000 I-136.687320 J0.000000
G02 X288.834690 Y150.407600 Z-0.125000 I-27.639138 J0.461734
G02 X263.375655 Y152.086521 Z-0.125000 I58.112843 J1075.087604
G03 X237.933100 Y152.846000 Z-0.125000 I-20.649940 J-265.230662
G03 X216.385477 Y148.297328 Z-0.125000 I1.503296 J-60.432516
G03 X203.909800 Y140.044400 Z-0.125000 I14.852660 J-36.008270
G03 X195.465262 Y127.307841 Z-0.125000 I25.999624 J-26.405868
G03 X192.975100 Y113.984000 Z-0.125000 I32.837940 J-13.031873
G03 X197.796124 Y97.182205 Z-0.125000 I33.113289 J0.408806
G03 X212.482300 Y84.570810 Z-0.125000 I26.711255 J16.248850
G03 X204.910719 Y72.302237 Z-0.125000 I24.960126 J-23.874903
G03 X202.728700 Y58.358010 Z-0.125000 I35.662844 J-12.723425
G03 X210.260417 Y39.143534 Z-0.125000 I29.764154 J0.583611
G03 X235.037500 Y28.030410 Z-0.125000 I24.777083 J22.064105
G03 X261.489414 Y37.014749 Z-0.125000 I-0.000000 J43.432360
G03 X276.071191 Y54.948059 Z-0.125000 I-30.449013 J39.653397
G03 X284.775752 Y80.573690 Z-0.125000 I-100.178968 J48.320180
G02 X290.815890 Y108.040400 Z-0.125000 I1254.355844 J-261.444868
G02 X295.171116 Y108.447035 Z-0.125000 I5.374922 J-34.041174
G02 X298.588290 Y108.497600 Z-0.125000 I3.417174 J-115.440425
G03 X296.451718 Y98.007094 Z-0.125000 I69.693041 J-19.657011
G03 X296.149890 Y93.257600 Z-0.125000 I37.217490 J-4.749494
G01 X297.673890 Y93.257600 Z-0.125000
G02 X297.977528 Y98.040827 Z-0.125000 I37.827026 J-0.000000
G02 X300.112290 Y108.345200 Z-0.125000 I67.421600 J-8.594449
G03 X307.184137 Y109.481816 Z-0.125000 I-0.000000 J22.568269
G03 X311.694690 Y115.203200 Z-0.125000 I-2.068814 J6.269665
G03 X310.782455 Y118.536333 Z-0.125000 I-5.328580 J0.333036
G03 X307.579890 Y120.232400 Z-0.125000 I-3.202565 J-2.175555
G03 X301.709788 Y116.592569 Z-0.125000 I0.000000 J-6.553391
G03 X299.045490 Y110.021600 Z-0.125000 I42.098188 J-20.894964
G03 X294.814502 Y109.901019 Z-0.125000 I0.000000 J-74.289557
G03 X291.273090 Y109.564400 Z-0.125000 I2.681691 J-47.009894
G02 X294.358021 Y121.215072 Z-0.125000 I211.374424 J-49.735159
G02 X297.826290 Y130.443200 Z-0.125000 I64.911752 J-19.130402
G02 X303.431705 Y139.301245 Z-0.125000 I32.483726 J-14.353274
G02 X310.170690 Y144.921200 Z-0.125000 I20.415626 J-17.630334
G03 X318.367821 Y144.540886 Z-0.125000 I9.266572 J111.198865
G03 X326.325090 Y144.616400 Z-0.125000 I1.999366 J208.602113
G03 X358.116017 Y151.140316 Z-0.125000 I-2.532240 J93.059835
G03 X377.379090 Y179.668400 Z-0.125000 I-11.250167 J28.364035
G01 X375.855090 Y179.668400 Z-0.125000
G00 Z5.000000

(Change tool to Default tool)

G00 Z5.000000
G00 X307.579890 Y118.708400

G01 Z-0.125000 F100.0(Penetrate)
G02 X309.687263 Y117.514880 Z-0.125000 I0.000000 J-2.457232 F400.000000
G02 X310.170690 Y115.355600 Z-0.125000 I-3.017080 J-1.809230
G02 X306.362554 Y110.643398 Z-0.125000 I-5.269179 J0.363392
G02 X300.874290 Y109.869200 Z-0.125000 I-5.488264 J19.065971
G01 X300.721890 Y109.869200 Z-0.125000
G02 X302.765168 Y115.523750 Z-0.125000 I52.100866 J-15.630260
G02 X307.579890 Y118.708400 Z-0.125000 I4.814722 J-2.047251
G01 X307.579890 Y118.708400 Z-0.125000
G00 Z5.000000

(Change tool to Default tool)

G00 Z5.000000
G00 X197.851900 Y112.307600

G01 Z-0.125000 F100.0(Penetrate)
G02 X199.911120 Y125.807977 Z-0.125000 I37.218035 J1.230348 F400.000000
G02 X207.681700 Y138.596600 Z-0.125000 I33.852020 J-11.813972
G02 X219.538476 Y146.860522 Z-0.125000 I25.714548 J-24.256507
G02 X240.371500 Y151.169600 Z-0.125000 I21.107734 J-49.534120
G02 X264.410484 Y149.802370 Z-0.125000 I1.758247 J-181.099484
G03 X288.529890 Y146.902400 Z-0.125000 I406.340710 J3277.832889
G02 X277.555486 Y115.224508 Z-0.125000 I-84.577832 J11.560999
G02 X252.563500 Y90.057200 Z-0.125000 I-61.622444 J36.200571
G03 X246.065715 Y93.119822 Z-0.125000 I-13.551694 J-20.327541
G03 X236.866300 Y94.476800 Z-0.125000 I-9.199415 J-30.504479
G03 X223.237815 Y91.850898 Z-0.125000 I-0.000000 J-36.679009
G03 X213.853900 Y85.942400 Z-0.125000 I11.429376 J-28.558256
G02 X202.144185 Y96.867255 Z-0.125000 I11.486264 J24.049365
G02 X197.851900 Y112.307600 Z-0.125000 I28.895955 J16.349612
G01 X197.851900 Y112.307600 Z-0.125000
G00 Z5.000000

(Change tool to Default tool)

G00 Z5.000000
G00 X248.296300 Y87.923600

G01 Z-0.125000 F100.0(Penetrate)
G02 X238.463904 Y84.390684 Z-0.125000 I-22.616295 J47.494376 F400.000000
G02 X227.569900 Y83.046810 Z-0.125000 I-10.894004 J43.483722
G02 X222.137610 Y83.415487 Z-0.125000 I-0.000000 J40.205468
G02 X217.511500 Y84.418410 Z-0.125000 I4.105823 J30.109366
G02 X225.554685 Y88.151771 Z-0.125000 I16.092249 J-24.138445
G02 X236.866300 Y89.752400 Z-0.125000 I11.311615 J-39.169170
G02 X243.421826 Y89.167523 Z-0.125000 I0.000000 J-37.030879
G02 X248.296300 Y87.923600 Z-0.125000 I-6.199187 J-34.464908
G01 X248.296300 Y87.923600 Z-0.125000
G00 Z5.000000

(Change tool to Default tool)

G00 Z5.000000
G00 X294.168690 Y132.424400

G01 Z-0.125000 F100.0(Penetrate)
G03 X288.756423 Y121.342633 Z-0.125000 I57.044368 J-34.722659 F400.000000
G03 X284.262690 Y107.735600 Z-0.125000 I156.332213 J-59.174384
G03 X277.899816 Y102.746537 Z-0.125000 I6.722538 J-15.125709
G03 X272.680290 Y92.343200 Z-0.125000 I23.855523 J-18.479739
G01 X274.051890 Y91.886000 Z-0.125000
G02 X278.859902 Y101.392281 Z-0.125000 I27.878875 J-8.131339
G02 X283.653090 Y105.602000 Z-0.125000 I12.920572 J-9.877746
G03 X277.064446 Y78.577500 Z-0.125000 I524.209523 J-142.119068
G02 X269.289391 Y54.719459 Z-0.125000 I-121.002184 J26.237269
G02 X256.515438 Y37.515815 Z-0.125000 I-44.468605 J19.674335
G02 X235.037500 Y29.554410 Z-0.125000 I-21.477938 J24.990429
G02 X211.581932 Y40.120408 Z-0.125000 I0.000000 J31.317629
G02 X204.405100 Y58.205610 Z-0.125000 I21.452962 J18.979883
G02 X206.947545 Y71.850209 Z-0.125000 I32.293897 J1.041739
G02 X215.835100 Y83.351610 Z-0.125000 I26.306882 J-11.143724
G03 X221.381169 Y82.121753 Z-0.125000 I12.137449 J41.614112
G03 X227.722300 Y81.522810 Z-0.125000 I8.286074 J53.859483
G03 X239.590386 Y82.992835 Z-0.125000 I-0.000000 J48.642850
G03 X250.277500 Y87.009200 Z-0.125000 I-12.350391 J49.089873
G02 X259.454052 Y78.335902 Z-0.125000 I-8.048418 J-17.706566
G02 X262.012290 Y67.502010 Z-0.125000 I-19.837226 J-10.403210
G02 X257.711475 Y52.757595 Z-0.125000 I-27.424427 J0.000000
G02 X244.638700 Y44.032410 Z-0.125000 I-16.448036 J10.487836
G01 X244.943500 Y42.508410 Z-0.125000
G03 X258.883373 Y51.717253 Z-0.125000 I-3.670321 J20.711095
G03 X263.536290 Y67.349610 Z-0.125000 I-23.933473 J15.632357
G03 X261.288292 Y79.258957 Z-0.125000 I-29.751581 J0.550955
G03 X253.935100 Y89.142800 Z-0.125000 I-23.195101 J-9.579081
G03 X278.929722 Y114.706936 Z-0.125000 I-36.288838 J60.481367
G03 X289.901490 Y146.750000 Z-0.125000 I-78.729829 J44.857578
G03 X298.288796 Y145.854578 Z-0.125000 I339.935158 J3144.400240
G03 X306.665490 Y145.073600 Z-0.125000 I36.567268 J346.902766
G03 X299.959876 Y139.870765 Z-0.125000 I15.452198 J-26.838029
G03 X294.168690 Y132.424400 Z-0.125000 I30.072111 J-29.362824
G01 X294.168690 Y132.424400 Z-0.125000
G00 Z5.000000

(Change tool to Default tool)

G00 Z5.000000
G00 X344.460730 Y80.151210

G01 Z-0.125000 F100.0(Penetrate)
G03 X343.231099 Y76.063617 Z-0.125000 I102.421735 J-33.039269 F400.000000
G02 X340.345930 Y67.787760 Z-0.125000 I-66.960730 J18.703327
G02 X336.497903 Y60.966260 Z-0.125000 I-31.430172 J13.233757
G02 X332.573530 Y58.967610 Z-0.125000 I-3.924373 J2.853451
G02 X330.160556 Y60.758751 Z-0.125000 I0.161052 J2.737880
G02 X329.068330 Y66.892410 Z-0.125000 I16.676410 J6.133659
G02 X332.658327 Y90.823306 Z-0.125000 I81.556601 J0.000000
G03 X334.554730 Y98.744000 Z-0.125000 I-62.022320 J19.036993
G03 X328.302759 Y96.232398 Z-0.125000 I0.000000 J-9.037117
G03 X325.867930 Y91.733600 Z-0.125000 I5.787222 J-6.040433
G03 X323.194352 Y96.170604 Z-0.125000 I-9.726698 J-2.836954
G03 X317.485930 Y98.591600 Z-0.125000 I-5.985649 J-6.173064
G03 X302.701631 Y89.914119 Z-0.125000 I0.000000 J-16.933150
G03 X297.978730 Y71.769210 Z-0.125000 I32.494005 J-18.144909
G03 X301.713955 Y61.244971 Z-0.125000 I16.693975 J-0.000000
G03 X310.018330 Y57.291210 Z-0.125000 I8.304375 J6.744264
G03 X318.319019 Y61.704965 Z-0.125000 I0.000000 J10.012185
G03 X323.124730 Y71.464410 Z-0.125000 I-33.305984 J22.463343
G01 X323.124730 Y70.854810 Z-0.125000
G03 X324.663705 Y62.348473 Z-0.125000 I24.277914 J0.000000
G03 X332.116330 Y57.291210 Z-0.125000 I7.293732 J2.728489
G03 X337.107646 Y59.620047 Z-0.125000 I-0.128071 J6.787766
G03 X341.336530 Y66.149460 Z-0.125000 I-20.751033 J18.073916
G03 X344.388882 Y74.347379 Z-0.125000 I-51.962443 J24.014515
G02 X345.984730 Y79.694010 Z-0.125000 I265.159575 J-76.232618
G01 X344.460730 Y80.151210 Z-0.125000
G00 Z5.000000

(Change tool to Default tool)

G00 Z5.000000
G00 X310.932730 Y58.815210

G01 Z-0.125000 F100.0(Penetrate)
G02 X305.646805 Y62.894002 Z-0.125000 I0.000000 J5.464553 F400.000000
G02 X304.836730 Y69.178410 Z-0.125000 I23.971597 J6.284408
G02 X305.223571 Y74.889280 Z-0.125000 I42.347733 J0.000000
G02 X307.694230 Y85.580455 Z-0.125000 I59.278423 J-8.067783
G02 X312.023819 Y94.118640 Z-0.125000 I30.343830 J-10.020085
G02 X317.638330 Y97.067600 Z-0.125000 I5.727982 J-4.086279
G02 X323.439296 Y93.466695 Z-0.125000 I0.176806 J-6.188226
G02 X324.953530 Y86.552000 Z-0.125000 I-15.030738 J-6.914695
G01 X323.581930 Y78.322410 Z-0.125000
G02 X322.251268 Y73.642581 Z-0.125000 I-179.755585 J48.582590
G02 X319.429030 Y66.454260 Z-0.125000 I-44.082798 J13.159353
G02 X315.524464 Y60.807964 Z-0.125000 I-21.036823 J10.374324
G02 X310.932730 Y58.815210 Z-0.125000 I-4.591734 J4.293797
G01 X310.932730 Y58.815210 Z-0.125000
G00 Z5.000000

(Change tool to Default tool)

G00 Z5.000000
G00 X364.577660 Y80.151210

G01 Z-0.125000 F100.0(Penetrate)
G03 X363.420715 Y76.076027 Z-0.125000 I342.836076 J-99.533054 F400.000000
G02 X360.539060 Y67.787760 Z-0.125000 I-66.188670 J18.367319
G02 X356.684176 Y60.930959 Z-0.125000 I-31.966951 J13.459769
G02 X352.842860 Y58.967610 Z-0.125000 I-3.841316 J2.776116
G02 X350.429886 Y60.758751 Z-0.125000 I0.161052 J2.737880
G02 X349.337660 Y66.892410 Z-0.125000 I16.676410 J6.133659
G02 X350.663414 Y79.886866 Z-0.125000 I64.345841 J-0.000000
G02 X355.128860 Y101.030000 Z-0.125000 I2206.284063 J-454.925756
G01 X363.206060 Y101.030000 Z-0.125000
G03 X362.592091 Y102.216256 Z-0.125000 I-1.452973 J0.000000
G03 X361.529660 Y102.554000 Z-0.125000 I-1.062431 J-1.502156
G01 X355.586060 Y102.554000 Z-0.125000
G02 X357.508379 Y110.998367 Z-0.125000 I160.642450 J-32.128490
G03 X357.872060 Y112.917200 Z-0.125000 I-15.037634 J3.843997
G03 X351.543020 Y110.432744 Z-0.125000 I0.000000 J-9.303702
G03 X349.337660 Y106.364000 Z-0.125000 I4.915783 J-5.296528
G03 X348.983118 Y104.786041 Z-0.125000 I13.580255 J-3.880073
G02 X348.575660 Y102.554000 Z-0.125000 I-66.492489 J10.984965
G01 X340.193660 Y102.554000 Z-0.125000
G03 X340.562672 Y101.605201 Z-0.125000 I1.404276 J0.000000
G03 X341.870060 Y101.030000 Z-0.125000 I1.307388 J1.198196
G01 X348.270860 Y101.030000 Z-0.125000
G03 X344.616257 Y83.368457 Z-0.125000 I945.245461 J-204.803183
G03 X343.394060 Y70.854810 Z-0.125000 I63.450338 J-12.513647
G03 X344.933035 Y62.348473 Z-0.125000 I24.277914 J-0.000000
G03 X352.385660 Y57.291210 Z-0.125000 I7.293732 J2.728489
G03 X357.358054 Y59.626254 Z-0.125000 I-0.127024 J6.732284
G03 X361.529660 Y66.149460 Z-0.125000 I-20.626037 J17.785881
G03 X364.521725 Y74.342427 Z-0.125000 I-52.176046 J23.697487
G02 X366.101660 Y79.694010 Z-0.125000 I205.059898 J-57.630310
G01 X364.577660 Y80.151210 Z-0.125000
G00 Z5.000000

(Change tool to Default tool)

G00 Z5.000000
G00 X384.999250 Y80.151210

G01 Z-0.125000 F100.0(Penetrate)
G03 X383.756902 Y76.065610 Z-0.125000 I120.625707 J-38.911518 F400.000000
G02 X380.827300 Y67.787760 Z-0.125000 I-68.348286 J19.531712
G02 X376.953456 Y60.929575 Z-0.125000 I-32.366443 J13.759014
G02 X373.112050 Y58.967610 Z-0.125000 I-3.841406 J2.779635
G02 X370.699076 Y60.758751 Z-0.125000 I0.161052 J2.737880
G02 X369.606850 Y66.892410 Z-0.125000 I16.676410 J6.133659
G02 X373.196847 Y90.823306 Z-0.125000 I81.556601 J0.000000
G03 X375.093250 Y98.744000 Z-0.125000 I-62.022320 J19.036993
G03 X368.683827 Y96.229079 Z-0.125000 I-0.000000 J-9.424857
G03 X366.406450 Y92.190800 Z-0.125000 I5.176186 J-5.580396
G03 X364.440612 Y80.875701 Z-0.125000 I328.284998 J-62.863173
G03 X363.663250 Y70.854810 Z-0.125000 I64.200416 J-10.020891
G03 X365.202225 Y62.348473 Z-0.125000 I24.277914 J-0.000000
G03 X372.654850 Y57.291210 Z-0.125000 I7.293732 J2.728489
G03 X377.664805 Y59.615444 Z-0.125000 I-0.129054 J6.839849
G03 X381.932200 Y66.149460 Z-0.125000 I-20.659384 J18.153271
G03 X384.998493 Y74.360471 Z-0.125000 I-50.464937 J23.523497
G03 X386.523250 Y79.694010 Z-0.125000 I-17303.046795 J4949.496837
G01 X384.999250 Y80.151210 Z-0.125000
G00 Z5.000000

(Change tool to Default tool)

G00 Z5.000000
G00 X373.112050 Y102.401600

G01 Z-0.125000 F100.0(Penetrate)
G03 X375.981374 Y103.631310 Z-0.125000 I0.000000 J3.962400 F400.000000
G03 X377.074450 Y106.364000 Z-0.125000 I-2.869324 J2.732690
G03 X375.913890 Y109.165840 Z-0.125000 I-3.962400 J0.000000
G03 X373.112050 Y110.326400 Z-0.125000 I-2.801840 J-2.801840
G03 X370.310210 Y109.165840 Z-0.125000 I0.000000 J-3.962400
G03 X369.149650 Y106.364000 Z-0.125000 I2.801840 J-2.801840
G03 X370.242726 Y103.631310 Z-0.125000 I3.962400 J0.000000
G03 X373.112050 Y102.401600 Z-0.125000 I2.869324 J2.732690
G01 X373.112050 Y102.401600 Z-0.125000
G00 Z5.000000

(Change tool to Default tool)

G00 Z5.000000
G00 X452.817370 Y80.151210

G01 Z-0.125000 F100.0(Penetrate)
G03 X451.660050 Y76.078052 Z-0.125000 I355.615197 J-103.243122 F400.000000
G02 X448.759720 Y67.787760 Z-0.125000 I-64.723496 J17.990810
G02 X444.871108 Y60.962171 Z-0.125000 I-31.259946 J13.288641
G02 X440.930170 Y58.967610 Z-0.125000 I-3.940938 J2.896057
G02 X438.798961 Y60.355397 Z-0.125000 I0.186960 J2.617444
G02 X437.882170 Y64.454010 Z-0.125000 I7.014741 J3.720921
G02 X439.296118 Y75.084543 Z-0.125000 I40.668921 J0.000000
G03 X440.625370 Y85.942400 Z-0.125000 I-37.135302 J10.056511
G03 X437.956473 Y94.363534 Z-0.125000 I-14.619994 J-0.000000
G03 X429.804970 Y98.591600 Z-0.125000 I-8.151503 J-5.743816
G03 X421.729000 Y94.489963 Z-0.125000 I0.000000 J-10.001460
G03 X417.003370 Y85.485210 Z-0.125000 I27.909764 J-20.389210
G03 X413.026712 Y95.005162 Z-0.125000 I-15.528151 J-0.895856
G03 X404.963770 Y98.591600 Z-0.125000 I-8.062942 J-7.270233
G03 X398.306160 Y95.882682 Z-0.125000 I0.000000 J-9.535543
G03 X393.838570 Y89.600000 Z-0.125000 I15.049068 J-15.431116
G01 X394.295770 Y92.190800 Z-0.125000
G03 X393.748237 Y95.487006 Z-0.125000 I-4.625874 J0.925175
G03 X388.352180 Y98.591600 Z-0.125000 I-5.396057 J-3.137114
G03 X385.543329 Y83.854880 Z-0.125000 I1310.598679 J-257.439065
G02 X381.951380 Y64.911210 Z-0.125000 I-2034.149850 J375.887105
G03 X382.615713 Y60.432915 Z-0.125000 I7.000021 J-1.250004
G03 X387.742580 Y57.291210 Z-0.125000 I5.126867 J2.612348
G01 X392.162170 Y80.303610 Z-0.125000
G02 X396.130733 Y91.781796 Z-0.125000 I96.360843 J-26.891439
G02 X404.049370 Y97.067600 Z-0.125000 I7.918637 J-3.288534
G02 X409.277768 Y93.090005 Z-0.125000 I0.000000 J-5.425063
G02 X410.145370 Y86.704400 Z-0.125000 I-23.065432 J-6.385605
G02 X408.910569 Y75.595041 Z-0.125000 I-50.592207 J-0.000000
G03 X406.640170 Y64.911210 Z-0.125000 I444.097325 J-99.957375
G03 X407.304503 Y60.432915 Z-0.125000 I7.000021 J-1.250004
G03 X412.431370 Y57.291210 Z-0.125000 I5.126867 J2.612348
G02 X414.664579 Y67.629999 Z-0.125000 I338.098304 J-67.619661
G03 X416.698570 Y79.694010 Z-0.125000 I-97.673195 J22.671159
G02 X420.545055 Y91.301971 Z-0.125000 I141.096994 J-40.313490
G02 X428.890570 Y97.067600 Z-0.125000 I8.345515 J-3.157083
G02 X433.002095 Y94.313069 Z-0.125000 I0.000000 J-4.445780
G02 X434.072170 Y88.380800 Z-0.125000 I-13.260412 J-5.454586
G02 X432.790644 Y78.817233 Z-0.125000 I-44.174516 J1.051776
G03 X431.481370 Y69.026010 Z-0.125000 I43.802064 J-10.840325
G03 X433.477813 Y61.211066 Z-0.125000 I13.784130 J-0.641122
G03 X440.625370 Y57.291210 Z-0.125000 I6.977427 J4.246365
G03 X445.597764 Y59.626254 Z-0.125000 I-0.127024 J6.732284
G03 X449.769370 Y66.149460 Z-0.125000 I-20.626037 J17.785881
G03 X452.761435 Y74.342427 Z-0.125000 I-52.176046 J23.697487
G02 X454.341370 Y79.694010 Z-0.125000 I205.059898 J-57.630310
G01 X452.817370 Y80.151210 Z-0.125000
G00 Z5.000000

(Change tool to Default tool)

G00 Z5.000000
G00 X498.080110 Y80.151210

G01 Z-0.125000 F100.0(Penetrate)
G03 X496.850479 Y76.063617 Z-0.125000 I102.421735 J-33.039269 F400.000000
G02 X493.965310 Y67.787760 Z-0.125000 I-66.960730 J18.703327
G02 X490.117283 Y60.966260 Z-0.125000 I-31.430172 J13.233757
G02 X486.192910 Y58.967610 Z-0.125000 I-3.924373 J2.853451
G02 X483.779936 Y60.758751 Z-0.125000 I0.161052 J2.737880
G02 X482.687710 Y66.892410 Z-0.125000 I16.676410 J6.133659
G02 X486.277707 Y90.823306 Z-0.125000 I81.556601 J0.000000
G03 X488.174110 Y98.744000 Z-0.125000 I-62.022320 J19.036993
G03 X481.922139 Y96.232398 Z-0.125000 I0.000000 J-9.037117
G03 X479.487310 Y91.733600 Z-0.125000 I5.787222 J-6.040433
G03 X476.813732 Y96.170604 Z-0.125000 I-9.726698 J-2.836954
G03 X471.105310 Y98.591600 Z-0.125000 I-5.985649 J-6.173064
G03 X456.321011 Y89.914119 Z-0.125000 I0.000000 J-16.933150
G03 X451.598110 Y71.769210 Z-0.125000 I32.494005 J-18.144909
G03 X455.333335 Y61.244971 Z-0.125000 I16.693975 J-0.000000
G03 X463.637710 Y57.291210 Z-0.125000 I8.304375 J6.744264
G03 X471.938399 Y61.704965 Z-0.125000 I0.000000 J10.012185
G03 X476.744110 Y71.464410 Z-0.125000 I-33.305984 J22.463343
G01 X476.744110 Y70.854810 Z-0.125000
G03 X478.283085 Y62.348473 Z-0.125000 I24.277914 J-0.000000
G03 X485.735710 Y57.291210 Z-0.125000 I7.293732 J2.728489
G03 X490.727026 Y59.620047 Z-0.125000 I-0.128071 J6.787766
G03 X494.955910 Y66.149460 Z-0.125000 I-20.751033 J18.073916
G03 X498.008262 Y74.347379 Z-0.125000 I-51.962443 J24.014515
G02 X499.604110 Y79.694010 Z-0.125000 I265.159575 J-76.232618
G01 X498.080110 Y80.151210 Z-0.125000
G00 Z5.000000

(Change tool to Default tool)

G00 Z5.000000
G00 X464.552110 Y58.815210

G01 Z-0.125000 F100.0(Penetrate)
G02 X459.266185 Y62.894002 Z-0.125000 I0.000000 J5.464553 F400.000000
G02 X458.456110 Y69.178410 Z-0.125000 I23.971597 J6.284408
G02 X458.842951 Y74.889280 Z-0.125000 I42.347733 J-0.000000
G02 X461.313610 Y85.580455 Z-0.125000 I59.278423 J-8.067783
G02 X465.643199 Y94.118640 Z-0.125000 I30.343830 J-10.020085
G02 X471.257710 Y97.067600 Z-0.125000 I5.727982 J-4.086279
G02 X477.058676 Y93.466695 Z-0.125000 I0.176806 J-6.188226
G02 X478.572910 Y86.552000 Z-0.125000 I-15.030738 J-6.914695
G01 X477.201310 Y78.322410 Z-0.125000
G02 X475.870648 Y73.642581 Z-0.125000 I-179.755585 J48.582590
G02 X473.048410 Y66.454260 Z-0.125000 I-44.082798 J13.159353
G02 X469.143844 Y60.807964 Z-0.125000 I-21.036823 J10.374324
G02 X464.552110 Y58.815210 Z-0.125000 I-4.591734 J4.293797
G01 X464.552110 Y58.815210 Z-0.125000
G00 Z5.000000

(End cutting path id: text3)


(Start cutting path id: text2)
(Change tool to Default tool)

G00 Z5.000000
G00 X140.479940 Y374.509855

G01 Z-0.125000 F100.0(Penetrate)
G03 X138.767602 Y381.240255 Z-0.125000 I-18.318605 J-1.077565 F400.000000
G03 X132.402740 Y385.177855 Z-0.125000 I-6.205437 J-2.917684
G03 X126.383639 Y384.639561 Z-0.125000 I0.000000 J-33.921393
G02 X113.657540 Y383.501455 Z-0.125000 I-12.726099 J70.581410
G03 X114.000703 Y387.622571 Z-0.125000 I-74.523259 J8.280362
G03 X114.114740 Y391.731054 Z-0.125000 I-73.952686 J4.108483
G03 X112.490821 Y402.442596 Z-0.125000 I-36.139188 J0.000000
G03 X108.456891 Y409.161804 Z-0.125000 I-15.759498 J-4.890836
G03 X102.039879 Y412.744050 Z-0.125000 I-9.409308 J-9.316604
G03 X90.797545 Y412.762254 Z-0.125000 I-5.660693 J-24.401474
G01 X91.254745 Y411.238254 Z-0.125000
G02 X101.446386 Y411.347118 Z-0.125000 I5.342842 J-23.071356
G02 X107.237691 Y408.266454 Z-0.125000 I-2.407620 J-11.509894
G02 X110.915521 Y402.357436 Z-0.125000 I-10.104194 J-10.388018
G02 X112.590740 Y392.493054 Z-0.125000 I-32.703801 J-10.628360
G02 X112.539716 Y388.116567 Z-0.125000 I-34.041612 J-1.791664
G02 X112.133540 Y383.501455 Z-0.125000 I-194.355064 J14.779776
G02 X85.976240 Y386.148318 Z-0.125000 I1.218956 J142.617782
G03 X61.384346 Y388.530655 Z-0.125000 I-24.591894 J-125.734871
G03 X39.931567 Y384.636327 Z-0.125000 I-0.578491 J-57.849134
G03 X27.570597 Y376.700605 Z-0.125000 I13.235942 J-34.211596
G03 X19.235350 Y364.141773 Z-0.125000 I24.930335 J-25.591616
G03 X16.731148 Y350.583056 Z-0.125000 I33.853519 J-13.263125
G03 X27.223798 Y326.960232 Z-0.125000 I32.399266 J0.249225
G03 X51.325946 Y317.359860 Z-0.125000 I24.672244 J26.885807
G03 X56.512598 Y317.689584 Z-0.125000 I-0.000000 J40.958613
G03 X61.536746 Y318.579060 Z-0.125000 I-6.697742 J52.465790
G03 X60.315758 Y313.899866 Z-0.125000 I28.058514 J-9.820480
G03 X59.860346 Y308.673060 Z-0.125000 I29.766536 J-5.226806
G03 X68.344449 Y286.528657 Z-0.125000 I32.386902 J-0.289169
G03 X87.597145 Y275.297460 Z-0.125000 I27.650764 J25.282140
G02 X77.682301 Y268.017090 Z-0.125000 I-37.009545 J40.010319
G02 X70.680746 Y266.153460 Z-0.125000 I-7.001555 J12.220410
G02 X56.615604 Y273.514196 Z-0.125000 I0.502167 J18.077998
G02 X49.497146 Y287.337060 Z-0.125000 I39.615740 J29.145552
G01 X47.973147 Y286.879860 Z-0.125000
G03 X55.677673 Y272.334567 Z-0.125000 I48.701192 J16.483475
G03 X70.680746 Y264.629460 Z-0.125000 I15.508074 J11.737453
G03 X80.992144 Y266.842126 Z-0.125000 I0.477263 J22.908635
G03 X92.778745 Y274.383060 Z-0.125000 I-23.974323 J50.454043
G02 X94.607545 Y274.306860 Z-0.125000 I-0.000000 J-21.983700
G03 X96.436345 Y274.230660 Z-0.125000 I1.828800 J21.907500
G03 X125.229155 Y284.400908 Z-0.125000 I0.000000 J45.842531
G03 X138.651140 Y312.483060 Z-0.125000 I-22.666451 J28.082152
G03 X136.727840 Y324.045542 Z-0.125000 I-35.717276 J-0.000000
G03 X132.097940 Y335.495457 Z-0.125000 I-107.065004 J-36.631888
G03 X139.169930 Y359.259090 Z-0.125000 I-161.769725 J61.076329
G03 X140.479940 Y374.509855 Z-0.125000 I-56.861424 J12.565929
G01 X140.479940 Y374.509855 Z-0.125000
G00 Z5.000000

(Change tool to Default tool)

G00 Z5.000000
G00 X51.173546 Y318.883860

G01 Z-0.125000 F100.0(Penetrate)
G02 X29.672960 Y328.280331 Z-0.125000 I-0.239570 J28.748404 F400.000000
G02 X21.455548 Y349.516256 Z-0.125000 I23.330865 J21.235925
G02 X29.875422 Y372.245839 Z-0.125000 I34.889371 J-0.000000
G02 X61.536746 Y387.006655 Z-0.125000 I32.137249 J-27.596530
G02 X85.878749 Y384.628584 Z-0.125000 I0.000000 J-125.771750
G03 X111.828740 Y381.977455 Z-0.125000 I27.193343 J137.847597
G02 X105.273613 Y360.918836 Z-0.125000 I-77.002301 J12.419726
G02 X92.321545 Y340.981857 Z-0.125000 I-81.271078 J38.622148
G03 X73.381649 Y334.455127 Z-0.125000 I2.009673 J-36.576040
G03 X62.146346 Y320.407860 Z-0.125000 I18.149680 J-26.033250
G02 X56.843348 Y319.314302 Z-0.125000 I-13.193937 J50.576760
G02 X51.173546 Y318.883860 Z-0.125000 I-5.669802 J37.126184
G01 X51.173546 Y318.883860 Z-0.125000
G00 Z5.000000

(Change tool to Default tool)

G00 Z5.000000
G00 X89.121145 Y276.669060

G01 Z-0.125000 F100.0(Penetrate)
G02 X72.095749 Y287.307544 Z-0.125000 I6.931137 J30.034926 F400.000000
G02 X64.584746 Y308.520660 Z-0.125000 I26.200305 J21.213116
G02 X65.225406 Y314.982518 Z-0.125000 I50.457473 J-1.739913
G02 X66.565946 Y320.255460 Z-0.125000 I31.329743 J-5.158086
G03 X80.437600 Y327.751999 Z-0.125000 I-19.328460 J52.347908
G03 X93.083545 Y339.610257 Z-0.125000 I-44.539332 J60.169974
G01 X94.759945 Y339.610257 Z-0.125000
G02 X110.342748 Y334.874975 Z-0.125000 I-0.407624 J-29.348888
G02 X120.363140 Y320.560260 Z-0.125000 I-12.706984 J-19.559496
G02 X111.482416 Y305.271159 Z-0.125000 I-234.813653 J126.168530
G02 X102.075140 Y291.604260 Z-0.125000 I-161.859871 J101.341199
G02 X95.284041 Y283.144352 Z-0.125000 I-105.552676 J77.775565
G02 X89.121145 Y276.669060 Z-0.125000 I-78.516741 J68.558325
G01 X89.121145 Y276.669060 Z-0.125000
G00 Z5.000000

(Change tool to Default tool)

G00 Z5.000000
G00 X113.352740 Y381.977455

G01 Z-0.125000 F100.0(Penetrate)
G03 X119.707491 Y382.183804 Z-0.125000 I0.000000 J97.954075 F400.000000
G03 X126.306740 Y382.739455 Z-0.125000 I-11.259230 J173.187620
G03 X122.598132 Y378.042250 Z-0.125000 I7.556029 J-9.778391
G03 X120.363140 Y367.651855 Z-0.125000 I23.034787 J-10.390395
G03 X123.621749 Y345.957650 Z-0.125000 I73.843948 J0.000000
G03 X127.221140 Y334.428657 Z-0.125000 I1302.721265 J400.387698
G02 X124.387397 Y328.455250 Z-0.125000 I-284.643210 J131.373889
G02 X121.277540 Y322.389060 Z-0.125000 I-151.526162 J73.850282
G03 X112.918311 Y334.471754 Z-0.125000 I-24.224433 J-7.826358
G03 X94.302745 Y340.981857 Z-0.125000 I-18.615566 J-23.360448
G03 X107.016639 Y360.995836 Z-0.125000 I-70.906099 J59.088391
G03 X113.352740 Y381.977455 Z-0.125000 I-69.252050 J32.360480
G01 X113.352740 Y381.977455 Z-0.125000
G00 Z5.000000

(Change tool to Default tool)

G00 Z5.000000
G00 X96.283945 Y275.754660

G01 Z-0.125000 F100.0(Penetrate)
G02 X95.376524 Y275.773826 Z-0.125000 I0.000000 J21.490751 F400.000000
G02 X94.455145 Y275.907060 Z-0.125000 I0.194218 J4.595620
G03 X101.804801 Y283.285370 Z-0.125000 I-53.562798 J60.704493
G03 X109.390340 Y292.823460 Z-0.125000 I-97.114673 J85.019638
G03 X119.205498 Y302.627565 Z-0.125000 I-12.187840 J22.016744
G03 X122.496740 Y314.464260 Z-0.125000 I-23.018579 J12.776331
G03 X125.963477 Y321.416753 Z-0.125000 I-125.084209 J66.711578
G03 X129.202340 Y328.485060 Z-0.125000 I-643.654188 J299.213556
G02 X130.929934 Y320.532708 Z-0.125000 I-104.357509 J-26.834788
G02 X131.640740 Y312.483060 Z-0.125000 I-45.224446 J-8.049648
G02 X121.429313 Y286.651885 Z-0.125000 I-37.777427 J-0.000000
G02 X96.283945 Y275.754660 Z-0.125000 I-25.145368 J23.562882
G01 X96.283945 Y275.754660 Z-0.125000
G00 Z5.000000

(Change tool to Default tool)

G00 Z5.000000
G00 X132.707540 Y383.806255

G01 Z-0.125000 F100.0(Penetrate)
G02 X137.521947 Y380.883731 Z-0.125000 I0.166224 J-5.152930 F400.000000
G02 X138.803540 Y375.729055 Z-0.125000 I-11.835856 J-5.679374
G02 X137.465234 Y362.631956 Z-0.125000 I-42.482951 J-2.275872
G02 X129.811940 Y340.219857 Z-0.125000 I-159.447246 J41.935342
G02 X125.457084 Y350.677591 Z-0.125000 I73.413772 J36.706893
G02 X122.344340 Y369.633055 Z-0.125000 I56.159531 J18.955464
G02 X124.641869 Y378.841613 Z-0.125000 I19.602836 J0.000000
G02 X132.707540 Y383.806255 Z-0.125000 I8.269256 J-4.400264
G01 X132.707540 Y383.806255 Z-0.125000
G00 Z5.000000

(Change tool to Default tool)

G00 Z5.000000
G00 X90.949945 Y339.305457

G01 Z-0.125000 F100.0(Penetrate)
G02 X79.595908 Y329.099126 Z-0.125000 I-58.833396 J54.030670 F400.000000
G02 X67.327946 Y322.236660 Z-0.125000 I-33.115778 J44.803853
G02 X77.882549 Y334.627097 Z-0.125000 I26.032871 J-11.485093
G02 X90.949945 Y339.305457 Z-0.125000 I16.462660 J-25.393973
G01 X90.949945 Y339.305457 Z-0.125000
G00 Z5.000000

(Change tool to Default tool)

G00 Z5.000000
G00 X120.667940 Y310.806660

G01 Z-0.125000 F100.0(Penetrate)
G02 X117.785401 Y303.098594 Z-0.125000 I-24.470961 J4.758242 F400.000000
G02 X111.676340 Y296.176260 Z-0.125000 I-20.182296 J11.654336
G03 X116.267181 Y303.346793 Z-0.125000 I-135.948697 J92.094278
G03 X120.667940 Y310.806660 Z-0.125000 I-350.508210 J211.801395
G01 X120.667940 Y310.806660 Z-0.125000
G00 Z5.000000

(Change tool to Default tool)

G00 Z5.000000
G00 X193.819860 Y315.531060

G01 Z-0.125000 F100.0(Penetrate)
G03 X192.590229 Y311.443467 Z-0.125000 I102.421735 J-33.039269 F400.000000
G02 X189.705060 Y303.167610 Z-0.125000 I-66.960730 J18.703327
G02 X185.857033 Y296.346110 Z-0.125000 I-31.430172 J13.233757
G02 X181.932660 Y294.347460 Z-0.125000 I-3.924373 J2.853451
G02 X179.519686 Y296.138601 Z-0.125000 I0.161052 J2.737880
G02 X178.427460 Y302.272260 Z-0.125000 I16.676410 J6.133659
G02 X182.017457 Y326.203167 Z-0.125000 I81.556658 J0.000000
G03 X183.913860 Y334.123857 Z-0.125000 I-62.022409 J19.037015
G03 X177.661889 Y331.612255 Z-0.125000 I0.000000 J-9.037120
G03 X175.227060 Y327.113460 Z-0.125000 I5.787218 J-6.040430
G03 X172.553481 Y331.550463 Z-0.125000 I-9.726689 J-2.836951
G03 X166.845060 Y333.971457 Z-0.125000 I-5.985649 J-6.173069
G03 X152.060760 Y325.293974 Z-0.125000 I0.000000 J-16.933149
G03 X147.337860 Y307.149060 Z-0.125000 I32.494029 J-18.144914
G03 X151.073085 Y296.624821 Z-0.125000 I16.693975 J0.000000
G03 X159.377460 Y292.671060 Z-0.125000 I8.304375 J6.744264
G03 X167.678149 Y297.084815 Z-0.125000 I-0.000000 J10.012185
G03 X172.483860 Y306.844260 Z-0.125000 I-33.305984 J22.463343
G01 X172.483860 Y306.234660 Z-0.125000
G03 X174.022835 Y297.728323 Z-0.125000 I24.277914 J-0.000000
G03 X181.475460 Y292.671060 Z-0.125000 I7.293732 J2.728489
G03 X186.466776 Y294.999897 Z-0.125000 I-0.128071 J6.787766
G03 X190.695660 Y301.529310 Z-0.125000 I-20.751033 J18.073916
G03 X193.748012 Y309.727229 Z-0.125000 I-51.962443 J24.014515
G02 X195.343860 Y315.073860 Z-0.125000 I265.159575 J-76.232618
G01 X193.819860 Y315.531060 Z-0.125000
G00 Z5.000000

(Change tool to Default tool)

G00 Z5.000000
G00 X160.291860 Y294.195060

G01 Z-0.125000 F100.0(Penetrate)
G02 X155.005935 Y298.273852 Z-0.125000 I0.000000 J5.464553 F400.000000
G02 X154.195860 Y304.558260 Z-0.125000 I23.971597 J6.284408
G02 X154.582701 Y310.269130 Z-0.125000 I42.347745 J0.000000
G02 X157.053360 Y320.960309 Z-0.125000 I59.278457 J-8.067785
G02 X161.382950 Y329.498497 Z-0.125000 I30.343847 J-10.020088
G02 X166.997460 Y332.447457 Z-0.125000 I5.727982 J-4.086277
G02 X172.798426 Y328.846553 Z-0.125000 I0.176806 J-6.188226
G02 X174.312660 Y321.931860 Z-0.125000 I-15.030725 J-6.914693
G01 X172.941060 Y313.702260 Z-0.125000
G02 X171.610398 Y309.022431 Z-0.125000 I-179.755585 J48.582590
G02 X168.788160 Y301.834110 Z-0.125000 I-44.082798 J13.159353
G02 X164.883594 Y296.187814 Z-0.125000 I-21.036823 J10.374324
G02 X160.291860 Y294.195060 Z-0.125000 I-4.591734 J4.293797
G01 X160.291860 Y294.195060 Z-0.125000
G00 Z5.000000

(Change tool to Default tool)

G00 Z5.000000
G00 X234.358400 Y315.531060

G01 Z-0.125000 F100.0(Penetrate)
G03 X233.227849 Y311.526571 Z-0.125000 I270.173750 J-78.437540 F400.000000
G02 X230.757950 Y304.634460 Z-0.125000 I-46.285681 J12.698599
G02 X227.332267 Y299.174127 Z-0.125000 I-21.106989 J9.437259
G02 X223.385600 Y297.395460 Z-0.125000 I-3.827534 J3.224934
G02 X221.147849 Y298.229062 Z-0.125000 I0.000000 J3.420348
G02 X219.423200 Y300.748260 Z-0.125000 I3.924743 J4.536837
G03 X223.911338 Y309.876026 Z-0.125000 I-25.461376 J18.186697
G03 X225.214400 Y319.493460 Z-0.125000 I-29.326149 J8.870381
G03 X221.479174 Y330.017697 Z-0.125000 I-16.693968 J0.000000
G03 X213.174800 Y333.971457 Z-0.125000 I-8.304374 J-6.744266
G03 X206.914922 Y331.527853 Z-0.125000 I0.000000 J-9.239892
G03 X202.506800 Y325.589460 Z-0.125000 I13.411593 J-14.560837
G02 X204.192021 Y334.165688 Z-0.125000 I222.367901 J-39.241394
G02 X204.640400 Y335.952657 Z-0.125000 I27.741143 J-6.010963
G03 X213.288832 Y342.486899 Z-0.125000 I-50.953419 J76.430138
G03 X222.833150 Y352.068956 Z-0.125000 I-54.029343 J63.360941
G03 X230.092753 Y362.884922 Z-0.125000 I-44.891911 J37.975426
G03 X232.682000 Y372.985855 Z-0.125000 I-20.353489 J10.599688
G03 X230.741956 Y379.769282 Z-0.125000 I-11.632938 J0.342145
G03 X224.147600 Y383.196655 Z-0.125000 I-6.397466 J-4.251350
G03 X214.037482 Y377.891981 Z-0.125000 I0.353465 J-12.960381
G03 X204.583250 Y360.641456 Z-0.125000 I61.089971 J-44.696631
G03 X198.152529 Y339.811893 Z-0.125000 I142.003918 J-55.248403
G03 X195.191600 Y325.741860 Z-0.125000 I342.711927 J-79.467616
G03 X192.838884 Y307.089418 Z-0.125000 I156.521698 J-29.217384
G03 X205.859600 Y292.671060 Z-0.125000 I13.499324 J-0.897687
G03 X211.858966 Y294.050687 Z-0.125000 I0.000000 J13.734057
G03 X216.984800 Y297.700260 Z-0.125000 I-8.284240 J17.059647
G03 X219.491694 Y296.183694 Z-0.125000 I5.222846 J5.803163
G03 X222.928400 Y295.566660 Z-0.125000 I3.436706 J9.262222
G03 X232.484332 Y303.107287 Z-0.125000 I-0.186321 J10.061354
G02 X235.882400 Y315.073860 Z-0.125000 I256.357015 J-66.330244
G01 X234.358400 Y315.531060 Z-0.125000
G00 Z5.000000

(Change tool to Default tool)

G00 Z5.000000
G00 X205.707200 Y294.195060

G01 Z-0.125000 F100.0(Penetrate)
G02 X200.380337 Y297.126513 Z-0.125000 I-0.087800 J6.146011 F400.000000
G02 X198.658700 Y302.958060 Z-0.125000 I9.957410 J6.109620
G02 X199.441677 Y311.162545 Z-0.125000 I34.715879 J0.826569
G03 X200.525600 Y316.293060 Z-0.125000 I-435.247431 J94.634382
G02 X204.667808 Y327.467573 Z-0.125000 I103.907895 J-32.161967
G02 X212.260400 Y332.447457 Z-0.125000 I7.592592 J-3.298090
G02 X217.625415 Y328.399234 Z-0.125000 I0.000000 J-5.579176
G02 X218.508800 Y322.084260 Z-0.125000 I-22.129958 J-6.314974
G02 X218.279635 Y318.195560 Z-0.125000 I-33.108184 J0.000000
G02 X216.984800 Y310.806660 Z-0.125000 I-66.843433 J7.905773
G03 X214.598475 Y309.008351 Z-0.125000 I1.483823 J-4.451469
G03 X213.632000 Y303.948660 Z-0.125000 I5.302305 J-3.634969
G01 X214.089200 Y301.967460 Z-0.125000
G02 X210.214827 Y296.147596 Z-0.125000 I-19.313639 J8.657838
G02 X205.707200 Y294.195060 Z-0.125000 I-4.507627 J4.226890
G01 X205.707200 Y294.195060 Z-0.125000
G00 Z5.000000

(Change tool to Default tool)

G00 Z5.000000
G00 X225.214400 Y381.520255

G01 Z-0.125000 F100.0(Penetrate)
G02 X229.846083 Y378.634515 Z-0.125000 I-0.000000 J-5.159852 F400.000000
G02 X231.158000 Y372.985855 Z-0.125000 I-11.504626 J-5.648660
G02 X222.876293 Y353.258740 Z-0.125000 I-29.276842 J0.688867
G02 X205.097600 Y338.086257 Z-0.125000 I-90.302858 J87.811845
G02 X206.731864 Y345.074827 Z-0.125000 I1196.986891 J-276.227779
G02 X211.955600 Y362.775056 Z-0.125000 I165.332881 J-39.172520
G02 X218.978267 Y377.931746 Z-0.125000 I85.135227 J-30.241086
G02 X225.214400 Y381.520255 Z-0.125000 I6.236133 J-3.624341
G01 X225.214400 Y381.520255 Z-0.125000
G00 Z5.000000

(Change tool to Default tool)

G00 Z5.000000
G00 X247.007710 Y292.366260

G01 Z-0.125000 F100.0(Penetrate)
G03 X260.376637 Y299.280915 Z-0.125000 I0.000000 J16.381196 F400.000000
G03 X266.667310 Y312.178260 Z-0.125000 I-36.227728 J25.652865
G03 X267.003435 Y313.407615 Z-0.125000 I-53.716836 J15.347667
G03 X267.429310 Y315.073860 Z-0.125000 I-158.361939 J41.363199
G01 X265.905310 Y315.531060 Z-0.125000
G01 X265.143310 Y312.635460 Z-0.125000
G02 X260.191104 Y301.035068 Z-0.125000 I-50.706788 J14.789480
G02 X249.141310 Y294.652260 Z-0.125000 I-11.049794 J6.373190
G02 X242.368564 Y298.847138 Z-0.125000 I0.000000 J7.564832
G02 X240.302110 Y308.520660 Z-0.125000 I17.810768 J8.862207
G01 X240.759310 Y312.330660 Z-0.125000
G03 X254.929977 Y317.315101 Z-0.125000 I-0.865377 J25.095933
G03 X259.294960 Y323.493959 Z-0.125000 I-7.338180 J9.815198
G03 X258.586051 Y330.592506 Z-0.125000 I-8.730728 J2.712762
G03 X252.798910 Y333.971457 Z-0.125000 I-5.699371 J-3.116029
G03 X239.098639 Y326.643166 Z-0.125000 I0.000000 J-16.470503
G03 X233.291710 Y309.130260 Z-0.125000 I28.950132 J-19.318467
G03 X236.272291 Y298.148713 Z-0.125000 I18.192522 J-0.957501
G03 X247.007710 Y292.366260 Z-0.125000 I10.735419 J7.074202
G01 X247.007710 Y292.366260 Z-0.125000
G00 Z5.000000

(Change tool to Default tool)

G00 Z5.000000
G00 X252.951310 Y332.599857

G01 Z-0.125000 F100.0(Penetrate)
G02 X255.558672 Y330.565241 Z-0.125000 I0.068429 J-2.600285 F400.000000
G02 X255.065860 Y323.627309 Z-0.125000 I-11.865618 J-2.643636
G02 X251.104236 Y317.940888 Z-0.125000 I-13.235235 J4.997538
G02 X241.064110 Y313.854660 Z-0.125000 I-11.017565 J12.693136
G02 X246.674617 Y328.950223 Z-0.125000 I49.103521 J-9.659709
G02 X252.951310 Y332.599857 Z-0.125000 I6.276693 J-3.572556
G01 X252.951310 Y332.599857 Z-0.125000
G00 Z5.000000

(Change tool to Default tool)

G00 Z5.000000
G00 X278.554620 Y292.366260

G01 Z-0.125000 F100.0(Penetrate)
G03 X291.923547 Y299.280915 Z-0.125000 I0.000000 J16.381196 F400.000000
G03 X298.214220 Y312.178260 Z-0.125000 I-36.227728 J25.652865
G03 X298.550345 Y313.407615 Z-0.125000 I-53.716836 J15.347667
G03 X298.976220 Y315.073860 Z-0.125000 I-158.361939 J41.363199
G01 X297.452220 Y315.531060 Z-0.125000
G01 X296.690220 Y312.635460 Z-0.125000
G02 X291.738014 Y301.035068 Z-0.125000 I-50.706788 J14.789480
G02 X280.688220 Y294.652260 Z-0.125000 I-11.049794 J6.373190
G02 X273.915474 Y298.847138 Z-0.125000 I0.000000 J7.564832
G02 X271.849020 Y308.520660 Z-0.125000 I17.810768 J8.862207
G01 X272.306220 Y312.330660 Z-0.125000
G03 X286.476887 Y317.315101 Z-0.125000 I-0.865377 J25.095933
G03 X290.841870 Y323.493959 Z-0.125000 I-7.338180 J9.815198
G03 X290.132961 Y330.592506 Z-0.125000 I-8.730728 J2.712762
G03 X284.345820 Y333.971457 Z-0.125000 I-5.699371 J-3.116029
G03 X270.645549 Y326.643166 Z-0.125000 I0.000000 J-16.470503
G03 X264.838620 Y309.130260 Z-0.125000 I28.950132 J-19.318467
G03 X267.819201 Y298.148713 Z-0.125000 I18.192522 J-0.957501
G03 X278.554620 Y292.366260 Z-0.125000 I10.735419 J7.074202
G01 X278.554620 Y292.366260 Z-0.125000
G00 Z5.000000

(Change tool to Default tool)

G00 Z5.000000
G00 X284.498220 Y332.599857

G01 Z-0.125000 F100.0(Penetrate)
G02 X287.105582 Y330.565241 Z-0.125000 I0.068429 J-2.600285 F400.000000
G02 X286.612770 Y323.627309 Z-0.125000 I-11.865618 J-2.643636
G02 X282.651146 Y317.940888 Z-0.125000 I-13.235235 J4.997538
G02 X272.611020 Y313.854660 Z-0.125000 I-11.017565 J12.693136
G02 X278.221527 Y328.950223 Z-0.125000 I49.103521 J-9.659709
G02 X284.498220 Y332.599857 Z-0.125000 I6.276693 J-3.572556
G01 X284.498220 Y332.599857 Z-0.125000
G00 Z5.000000

(Change tool to Default tool)

G00 Z5.000000
G00 X302.481520 Y302.272260

G01 Z-0.125000 F100.0(Penetrate)
G02 X303.842629 Y315.282513 Z-0.125000 I62.860243 J-0.000000 F400.000000
G02 X308.425120 Y335.952657 Z-0.125000 I1068.877293 J-226.122924
G03 X317.073552 Y342.486899 Z-0.125000 I-50.953419 J76.430138
G03 X326.617870 Y352.068956 Z-0.125000 I-54.029343 J63.360941
G03 X333.877473 Y362.884922 Z-0.125000 I-44.891911 J37.975426
G03 X336.466720 Y372.985855 Z-0.125000 I-20.353489 J10.599688
G03 X334.531872 Y379.825089 Z-0.125000 I-11.825542 J0.347810
G03 X328.084720 Y383.196655 Z-0.125000 I-6.250472 J-4.102287
G03 X317.957116 Y377.897347 Z-0.125000 I0.354682 J-13.005018
G03 X308.444170 Y360.641456 Z-0.125000 I61.198393 J-44.987996
G03 X301.953843 Y339.807410 Z-0.125000 I141.676426 J-55.563727
G03 X298.976320 Y325.741860 Z-0.125000 I323.599684 J-75.850441
G03 X297.235210 Y315.361265 Z-0.125000 I378.708608 J-68.856111
G03 X296.537920 Y306.234660 Z-0.125000 I59.378944 J-9.126605
G03 X299.723992 Y295.901377 Z-0.125000 I18.349835 J0.000000
G03 X305.834320 Y292.671060 Z-0.125000 I6.110328 J4.163857
G03 X311.824337 Y295.172043 Z-0.125000 I-0.000000 J8.423732
G03 X316.292770 Y301.472160 Z-0.125000 I-16.939419 J16.749187
G03 X319.424338 Y309.745133 Z-0.125000 I-43.163118 J21.067712
G02 X320.921920 Y315.073860 Z-0.125000 I616.450665 J-170.372154
G01 X319.397920 Y315.531060 Z-0.125000
G03 X318.178025 Y311.458007 Z-0.125000 I96.165696 J-31.021192
G02 X315.187870 Y303.167610 Z-0.125000 I-55.792957 J15.438797
G02 X311.102411 Y296.609172 Z-0.125000 I-26.228684 J11.786979
G02 X306.291520 Y294.347460 Z-0.125000 I-4.810891 J3.985770
G02 X303.941499 Y295.829211 Z-0.125000 I0.000000 J2.604413
G02 X302.481520 Y302.272260 Z-0.125000 I13.486954 J6.443049
G01 X302.481520 Y302.272260 Z-0.125000
G00 Z5.000000

(Change tool to Default tool)

G00 Z5.000000
G00 X334.942720 Y372.985855

G01 Z-0.125000 F100.0(Penetrate)
G02 X326.743629 Y353.309650 Z-0.125000 I-29.367309 J0.690996 F400.000000
G02 X308.882320 Y338.086257 Z-0.125000 I-85.684778 J82.442415
G02 X310.516584 Y345.074827 Z-0.125000 I1196.986891 J-276.227779
G02 X315.740320 Y362.775056 Z-0.125000 I165.332881 J-39.172520
G02 X322.762987 Y377.931746 Z-0.125000 I85.135227 J-30.241086
G02 X328.999120 Y381.520255 Z-0.125000 I6.236133 J-3.624341
G02 X333.700057 Y378.643310 Z-0.125000 I-0.000000 J-5.279146
G02 X334.942720 Y372.985855 Z-0.125000 I-10.177317 J-5.200656
G01 X334.942720 Y372.985855 Z-0.125000
G00 Z5.000000

(End cutting path id: text2)


(Footer)
M5
G00 X0.0000 Y0.0000
M2
(Using default footer. To add your own footer create file "footer" in the output dir.)
(end)
%
