(Exported by FreeCAD)
(Post Processor: grbl_post)
(Output Time:2025-11-23 23:31:51.406483)
(Begin preamble)
G17 G90
G21
(Begin operation: Fixture)
(Path: Fixture)
G54
(Finish operation: Fixture)
(Begin operation: TC: Default Tool)
(Path: TC: Default Tool)
(TC: Default Tool)
(Begin toolchange)
( M6 T1 )
(Finish operation: TC: Default Tool)
(Begin operation: Engrave)
(Path: Engrave)
(Engrave)
G0 Z12.000

G0 Z12.000
G0 X32.895 Y-131.040
G0 Z0.000
G1 X32.895 Y-131.040 Z-5.000 F420.000
G1 X33.545 Y-132.846 Z-5.000 F420.000
G1 X34.270 Y-134.638 Z-5.000 F420.000
G1 X35.060 Y-136.391 Z-5.000 F420.000
G1 X35.903 Y-138.083 Z-5.000 F420.000
G1 X36.792 Y-139.698 Z-5.000 F420.000
G1 X37.717 Y-141.227 Z-5.000 F420.000
G1 X38.673 Y-142.663 Z-5.000 F420.000
G1 X39.653 Y-144.001 Z-5.000 F420.000
G1 X40.652 Y-145.241 Z-5.000 F420.000
G1 X41.666 Y-146.383 Z-5.000 F420.000
G1 X42.693 Y-147.427 Z-5.000 F420.000
G1 X43.729 Y-148.376 Z-5.000 F420.000
G1 X44.773 Y-149.232 Z-5.000 F420.000
G1 X45.824 Y-149.999 Z-5.000 F420.000
G1 X46.881 Y-150.679 Z-5.000 F420.000
G1 X47.944 Y-151.276 Z-5.000 F420.000
G1 X49.013 Y-151.791 Z-5.000 F420.000
G1 X50.087 Y-152.228 Z-5.000 F420.000
G1 X51.170 Y-152.588 Z-5.000 F420.000
G1 X52.260 Y-152.873 Z-5.000 F420.000
G1 X53.360 Y-153.085 Z-5.000 F420.000
G1 X54.472 Y-153.224 Z-5.000 F420.000
G1 X55.602 Y-153.290 Z-5.000 F420.000
G1 X56.817 Y-153.280 Z-5.000 F420.000
G1 X58.050 Y-153.196 Z-5.000 F420.000
G1 X59.305 Y-153.039 Z-5.000 F420.000
G1 X60.583 Y-152.806 Z-5.000 F420.000
G1 X61.886 Y-152.494 Z-5.000 F420.000
G1 X63.218 Y-152.101 Z-5.000 F420.000
G1 X64.581 Y-151.623 Z-5.000 F420.000
G1 X65.977 Y-151.057 Z-5.000 F420.000
G1 X67.408 Y-150.399 Z-5.000 F420.000
G1 X68.876 Y-149.643 Z-5.000 F420.000
G1 X70.385 Y-148.785 Z-5.000 F420.000
G1 X71.937 Y-147.819 Z-5.000 F420.000
G1 X73.533 Y-146.741 Z-5.000 F420.000
G1 X75.176 Y-145.543 Z-5.000 F420.000
G1 X76.440 Y-144.563 Z-5.000 F420.000
G1 X77.700 Y-143.537 Z-5.000 F420.000
G1 X78.732 Y-143.566 Z-5.000 F420.000
G1 X80.371 Y-143.662 Z-5.000 F420.000
G1 X80.865 Y-143.682 Z-5.000 F420.000
G1 X81.358 Y-143.689 Z-5.000 F420.000
G1 X83.103 Y-143.653 Z-5.000 F420.000
G1 X84.859 Y-143.544 Z-5.000 F420.000
G1 X86.624 Y-143.362 Z-5.000 F420.000
G1 X88.393 Y-143.107 Z-5.000 F420.000
G1 X90.163 Y-142.778 Z-5.000 F420.000
G1 X91.927 Y-142.377 Z-5.000 F420.000
G1 X93.683 Y-141.903 Z-5.000 F420.000
G1 X95.424 Y-141.358 Z-5.000 F420.000
G1 X97.146 Y-140.743 Z-5.000 F420.000
G1 X98.843 Y-140.059 Z-5.000 F420.000
G1 X100.512 Y-139.309 Z-5.000 F420.000
G1 X102.147 Y-138.494 Z-5.000 F420.000
G1 X103.743 Y-137.617 Z-5.000 F420.000
G1 X105.295 Y-136.681 Z-5.000 F420.000
G1 X106.801 Y-135.688 Z-5.000 F420.000
G1 X108.255 Y-134.642 Z-5.000 F420.000
G1 X109.655 Y-133.546 Z-5.000 F420.000
G1 X110.997 Y-132.402 Z-5.000 F420.000
G1 X112.278 Y-131.215 Z-5.000 F420.000
G1 X113.496 Y-129.986 Z-5.000 F420.000
G1 X114.649 Y-128.719 Z-5.000 F420.000
G1 X115.735 Y-127.417 Z-5.000 F420.000
G1 X116.753 Y-126.083 Z-5.000 F420.000
G1 X117.702 Y-124.719 Z-5.000 F420.000
G1 X118.581 Y-123.328 Z-5.000 F420.000
G1 X119.390 Y-121.912 Z-5.000 F420.000
G1 X120.127 Y-120.472 Z-5.000 F420.000
G1 X120.794 Y-119.011 Z-5.000 F420.000
G1 X121.389 Y-117.529 Z-5.000 F420.000
G1 X121.912 Y-116.030 Z-5.000 F420.000
G1 X122.365 Y-114.512 Z-5.000 F420.000
G1 X122.745 Y-112.979 Z-5.000 F420.000
G1 X123.054 Y-111.429 Z-5.000 F420.000
G1 X123.292 Y-109.864 Z-5.000 F420.000
G1 X123.457 Y-108.285 Z-5.000 F420.000
G1 X123.550 Y-106.691 Z-5.000 F420.000
G1 X123.573 Y-105.437 Z-5.000 F420.000
G1 X123.537 Y-103.941 Z-5.000 F420.000
G1 X123.429 Y-102.414 Z-5.000 F420.000
G1 X123.246 Y-100.849 Z-5.000 F420.000
G1 X122.986 Y-99.240 Z-5.000 F420.000
G1 X122.646 Y-97.577 Z-5.000 F420.000
G1 X122.219 Y-95.852 Z-5.000 F420.000
G1 X121.701 Y-94.050 Z-5.000 F420.000
G1 X121.082 Y-92.154 Z-5.000 F420.000
G1 X120.350 Y-90.140 Z-5.000 F420.000
G1 X119.486 Y-87.970 Z-5.000 F420.000
G1 X118.462 Y-85.581 Z-5.000 F420.000
G1 X117.750 Y-84.000 Z-5.000 F420.000
G1 X117.019 Y-82.424 Z-5.000 F420.000
G1 X118.288 Y-78.962 Z-5.000 F420.000
G1 X119.456 Y-75.562 Z-5.000 F420.000
G1 X120.521 Y-72.240 Z-5.000 F420.000
G1 X121.480 Y-69.014 Z-5.000 F420.000
G1 X122.330 Y-65.898 Z-5.000 F420.000
G1 X123.072 Y-62.904 Z-5.000 F420.000
G1 X123.707 Y-60.043 Z-5.000 F420.000
G1 X124.236 Y-57.322 Z-5.000 F420.000
G1 X124.664 Y-54.747 Z-5.000 F420.000
G1 X124.993 Y-52.322 Z-5.000 F420.000
G1 X125.229 Y-50.048 Z-5.000 F420.000
G1 X125.376 Y-47.926 Z-5.000 F420.000
G1 X125.440 Y-45.954 Z-5.000 F420.000
G1 X125.401 Y-43.410 Z-5.000 F420.000
G1 X125.268 Y-41.746 Z-5.000 F420.000
G1 X125.083 Y-40.353 Z-5.000 F420.000
G1 X124.849 Y-39.156 Z-5.000 F420.000
G1 X124.570 Y-38.114 Z-5.000 F420.000
G1 X124.249 Y-37.208 Z-5.000 F420.000
G1 X123.891 Y-36.418 Z-5.000 F420.000
G1 X123.496 Y-35.729 Z-5.000 F420.000
G1 X123.067 Y-35.128 Z-5.000 F420.000
G1 X122.603 Y-34.606 Z-5.000 F420.000
G1 X122.104 Y-34.156 Z-5.000 F420.000
G1 X121.566 Y-33.770 Z-5.000 F420.000
G1 X120.986 Y-33.447 Z-5.000 F420.000
G1 X120.360 Y-33.183 Z-5.000 F420.000
G1 X119.684 Y-32.978 Z-5.000 F420.000
G1 X118.950 Y-32.834 Z-5.000 F420.000
G1 X118.152 Y-32.755 Z-5.000 F420.000
G1 X117.324 Y-32.742 Z-5.000 F420.000
G1 X116.025 Y-32.776 Z-5.000 F420.000
G1 X114.754 Y-32.878 Z-5.000 F420.000
G1 X113.385 Y-33.054 Z-5.000 F420.000
G1 X111.587 Y-33.346 Z-5.000 F420.000
G1 X109.951 Y-33.617 Z-5.000 F420.000
G1 X107.803 Y-33.920 Z-5.000 F420.000
G1 X105.649 Y-34.145 Z-5.000 F420.000
G1 X103.353 Y-34.303 Z-5.000 F420.000
G1 X100.844 Y-34.394 Z-5.000 F420.000
G1 X98.579 Y-34.418 Z-5.000 F420.000
G1 X98.801 Y-32.090 Z-5.000 F420.000
G1 X98.950 Y-29.766 Z-5.000 F420.000
G1 X99.026 Y-27.443 Z-5.000 F420.000
G1 X99.036 Y-26.189 Z-5.000 F420.000
G1 X99.000 Y-24.408 Z-5.000 F420.000
G1 X98.893 Y-22.710 Z-5.000 F420.000
G1 X98.718 Y-21.096 Z-5.000 F420.000
G1 X98.480 Y-19.565 Z-5.000 F420.000
G1 X98.182 Y-18.120 Z-5.000 F420.000
G1 X97.827 Y-16.758 Z-5.000 F420.000
G1 X97.418 Y-15.478 Z-5.000 F420.000
G1 X96.960 Y-14.279 Z-5.000 F420.000
G1 X96.453 Y-13.159 Z-5.000 F420.000
G1 X95.902 Y-12.116 Z-5.000 F420.000
G1 X95.308 Y-11.147 Z-5.000 F420.000
G1 X94.672 Y-10.250 Z-5.000 F420.000
G1 X93.996 Y-9.422 Z-5.000 F420.000
G1 X93.281 Y-8.661 Z-5.000 F420.000
G1 X92.527 Y-7.965 Z-5.000 F420.000
G1 X91.734 Y-7.333 Z-5.000 F420.000
G1 X90.901 Y-6.762 Z-5.000 F420.000
G1 X90.027 Y-6.252 Z-5.000 F420.000
G1 X89.112 Y-5.802 Z-5.000 F420.000
G1 X88.152 Y-5.413 Z-5.000 F420.000
G1 X87.147 Y-5.084 Z-5.000 F420.000
G1 X86.093 Y-4.817 Z-5.000 F420.000
G1 X84.990 Y-4.614 Z-5.000 F420.000
G1 X83.833 Y-4.475 Z-5.000 F420.000
G1 X82.620 Y-4.404 Z-5.000 F420.000
G1 X81.349 Y-4.404 Z-5.000 F420.000
G1 X80.017 Y-4.477 Z-5.000 F420.000
G1 X78.621 Y-4.628 Z-5.000 F420.000
G1 X77.158 Y-4.861 Z-5.000 F420.000
G1 X76.444 Y-5.000 Z-5.000 F420.000
G1 X75.719 Y-5.158 Z-5.000 F420.000
G0 Z12.000
G0 Z12.000
G0 X97.055 Y-34.418
G0 Z0.000
G1 X97.055 Y-34.418 Z-5.000 F420.000
G1 X94.362 Y-34.360 Z-5.000 F420.000
G1 X91.558 Y-34.229 Z-5.000 F420.000
G1 X88.607 Y-34.021 Z-5.000 F420.000
G1 X85.458 Y-33.729 Z-5.000 F420.000
G1 X82.021 Y-33.342 Z-5.000 F420.000
G1 X78.123 Y-32.835 Z-5.000 F420.000
G1 X73.299 Y-32.145 Z-5.000 F420.000
G1 X65.158 Y-30.958 Z-5.000 F420.000
G1 X60.776 Y-30.383 Z-5.000 F420.000
G1 X57.116 Y-29.976 Z-5.000 F420.000
G1 X53.866 Y-29.690 Z-5.000 F420.000
G1 X50.900 Y-29.505 Z-5.000 F420.000
G1 X48.147 Y-29.408 Z-5.000 F420.000
G1 X46.306 Y-29.389 Z-5.000 F420.000
G1 X44.065 Y-29.403 Z-5.000 F420.000
G1 X41.883 Y-29.488 Z-5.000 F420.000
G1 X39.762 Y-29.642 Z-5.000 F420.000
G1 X37.699 Y-29.865 Z-5.000 F420.000
G1 X35.694 Y-30.153 Z-5.000 F420.000
G1 X33.746 Y-30.505 Z-5.000 F420.000
G1 X31.856 Y-30.921 Z-5.000 F420.000
G1 X30.021 Y-31.397 Z-5.000 F420.000
G1 X28.242 Y-31.933 Z-5.000 F420.000
G1 X26.519 Y-32.528 Z-5.000 F420.000
G1 X24.850 Y-33.180 Z-5.000 F420.000
G1 X23.236 Y-33.887 Z-5.000 F420.000
G1 X21.677 Y-34.649 Z-5.000 F420.000
G1 X20.171 Y-35.465 Z-5.000 F420.000
G1 X18.720 Y-36.334 Z-5.000 F420.000
G1 X17.323 Y-37.253 Z-5.000 F420.000
G1 X15.980 Y-38.224 Z-5.000 F420.000
G1 X14.692 Y-39.243 Z-5.000 F420.000
G1 X13.459 Y-40.311 Z-5.000 F420.000
G1 X12.281 Y-41.427 Z-5.000 F420.000
G1 X11.159 Y-42.588 Z-5.000 F420.000
G1 X10.094 Y-43.795 Z-5.000 F420.000
G1 X9.087 Y-45.045 Z-5.000 F420.000
G1 X8.138 Y-46.337 Z-5.000 F420.000
G1 X7.249 Y-47.670 Z-5.000 F420.000
G1 X6.421 Y-49.043 Z-5.000 F420.000
G1 X5.654 Y-50.452 Z-5.000 F420.000
G1 X4.951 Y-51.896 Z-5.000 F420.000
G1 X4.313 Y-53.374 Z-5.000 F420.000
G1 X3.740 Y-54.881 Z-5.000 F420.000
G1 X3.234 Y-56.415 Z-5.000 F420.000
G1 X2.796 Y-57.974 Z-5.000 F420.000
G1 X2.428 Y-59.553 Z-5.000 F420.000
G1 X2.130 Y-61.150 Z-5.000 F420.000
G1 X1.903 Y-62.760 Z-5.000 F420.000
G1 X1.749 Y-64.380 Z-5.000 F420.000
G1 X1.666 Y-66.006 Z-5.000 F420.000
G1 X1.653 Y-67.337 Z-5.000 F420.000
G1 X1.702 Y-69.019 Z-5.000 F420.000
G1 X1.822 Y-70.669 Z-5.000 F420.000
G1 X2.012 Y-72.284 Z-5.000 F420.000
G1 X2.270 Y-73.866 Z-5.000 F420.000
G1 X2.596 Y-75.413 Z-5.000 F420.000
G1 X2.989 Y-76.925 Z-5.000 F420.000
G1 X3.446 Y-78.400 Z-5.000 F420.000
G1 X3.968 Y-79.839 Z-5.000 F420.000
G1 X4.553 Y-81.241 Z-5.000 F420.000
G1 X5.201 Y-82.604 Z-5.000 F420.000
G1 X5.910 Y-83.929 Z-5.000 F420.000
G1 X6.679 Y-85.213 Z-5.000 F420.000
G1 X7.509 Y-86.456 Z-5.000 F420.000
G1 X8.397 Y-87.657 Z-5.000 F420.000
G1 X9.344 Y-88.814 Z-5.000 F420.000
G1 X10.347 Y-89.927 Z-5.000 F420.000
G1 X11.407 Y-90.993 Z-5.000 F420.000
G1 X12.521 Y-92.012 Z-5.000 F420.000
G1 X13.690 Y-92.982 Z-5.000 F420.000
G1 X14.912 Y-93.902 Z-5.000 F420.000
G1 X16.185 Y-94.769 Z-5.000 F420.000
G1 X17.509 Y-95.582 Z-5.000 F420.000
G1 X18.882 Y-96.340 Z-5.000 F420.000
G1 X20.301 Y-97.041 Z-5.000 F420.000
G1 X21.767 Y-97.683 Z-5.000 F420.000
G1 X23.277 Y-98.265 Z-5.000 F420.000
G1 X24.828 Y-98.784 Z-5.000 F420.000
G1 X26.420 Y-99.241 Z-5.000 F420.000
G1 X28.051 Y-99.632 Z-5.000 F420.000
G1 X29.717 Y-99.957 Z-5.000 F420.000
G1 X31.418 Y-100.214 Z-5.000 F420.000
G1 X33.150 Y-100.401 Z-5.000 F420.000
G1 X34.912 Y-100.519 Z-5.000 F420.000
G1 X36.247 Y-100.560 Z-5.000 F420.000
G1 X37.948 Y-100.524 Z-5.000 F420.000
G1 X39.666 Y-100.417 Z-5.000 F420.000
G1 X41.414 Y-100.236 Z-5.000 F420.000
G1 X43.207 Y-99.978 Z-5.000 F420.000
G1 X45.064 Y-99.639 Z-5.000 F420.000
G1 X45.761 Y-99.495 Z-5.000 F420.000
G1 X46.458 Y-99.341 Z-5.000 F420.000
G1 X46.007 Y-100.741 Z-5.000 F420.000
G1 X45.624 Y-102.169 Z-5.000 F420.000
G1 X45.311 Y-103.619 Z-5.000 F420.000
G1 X45.070 Y-105.085 Z-5.000 F420.000
G1 X44.901 Y-106.564 Z-5.000 F420.000
G1 X44.805 Y-108.051 Z-5.000 F420.000
G1 X44.782 Y-109.247 Z-5.000 F420.000
G1 X44.804 Y-110.812 Z-5.000 F420.000
G1 X44.898 Y-112.360 Z-5.000 F420.000
G1 X45.063 Y-113.890 Z-5.000 F420.000
G1 X45.298 Y-115.400 Z-5.000 F420.000
G1 X45.603 Y-116.891 Z-5.000 F420.000
G1 X45.978 Y-118.361 Z-5.000 F420.000
G1 X46.421 Y-119.809 Z-5.000 F420.000
G1 X46.934 Y-121.236 Z-5.000 F420.000
G1 X47.514 Y-122.638 Z-5.000 F420.000
G1 X48.162 Y-124.015 Z-5.000 F420.000
G1 X48.877 Y-125.365 Z-5.000 F420.000
G1 X49.659 Y-126.687 Z-5.000 F420.000
G1 X50.507 Y-127.978 Z-5.000 F420.000
G1 X51.420 Y-129.236 Z-5.000 F420.000
G1 X52.397 Y-130.458 Z-5.000 F420.000
G1 X53.436 Y-131.643 Z-5.000 F420.000
G1 X54.536 Y-132.788 Z-5.000 F420.000
G1 X55.695 Y-133.889 Z-5.000 F420.000
G1 X56.911 Y-134.945 Z-5.000 F420.000
G1 X58.182 Y-135.952 Z-5.000 F420.000
G1 X59.504 Y-136.907 Z-5.000 F420.000
G1 X60.875 Y-137.808 Z-5.000 F420.000
G1 X62.292 Y-138.651 Z-5.000 F420.000
G1 X63.750 Y-139.435 Z-5.000 F420.000
G1 X65.246 Y-140.157 Z-5.000 F420.000
G1 X66.776 Y-140.814 Z-5.000 F420.000
G1 X68.335 Y-141.405 Z-5.000 F420.000
G1 X69.920 Y-141.927 Z-5.000 F420.000
G1 X71.525 Y-142.380 Z-5.000 F420.000
G1 X72.021 Y-142.504 Z-5.000 F420.000
G1 X72.519 Y-142.622 Z-5.000 F420.000
G0 Z12.000
G0 Z12.000
G0 X111.228 Y-35.180
G0 Z0.000
G1 X111.228 Y-35.180 Z-5.000 F420.000
G1 X110.525 Y-35.770 Z-5.000 F420.000
G1 X109.850 Y-36.433 Z-5.000 F420.000
G1 X109.208 Y-37.167 Z-5.000 F420.000
G1 X108.601 Y-37.973 Z-5.000 F420.000
G1 X108.035 Y-38.848 Z-5.000 F420.000
G1 X107.513 Y-39.793 Z-5.000 F420.000
G1 X107.037 Y-40.806 Z-5.000 F420.000
G1 X106.612 Y-41.888 Z-5.000 F420.000
G1 X106.240 Y-43.036 Z-5.000 F420.000
G1 X105.924 Y-44.252 Z-5.000 F420.000
G1 X105.668 Y-45.534 Z-5.000 F420.000
G1 X105.475 Y-46.882 Z-5.000 F420.000
G1 X105.347 Y-48.296 Z-5.000 F420.000
G1 X105.285 Y-50.268 Z-5.000 F420.000
G1 X105.320 Y-52.089 Z-5.000 F420.000
G1 X105.430 Y-54.043 Z-5.000 F420.000
G1 X105.618 Y-56.138 Z-5.000 F420.000
G1 X105.891 Y-58.377 Z-5.000 F420.000
G1 X106.254 Y-60.766 Z-5.000 F420.000
G1 X106.711 Y-63.309 Z-5.000 F420.000
G1 X107.267 Y-66.008 Z-5.000 F420.000
G1 X107.926 Y-68.866 Z-5.000 F420.000
G1 X108.691 Y-71.882 Z-5.000 F420.000
G1 X109.564 Y-75.058 Z-5.000 F420.000
G1 X110.548 Y-78.398 Z-5.000 F420.000
G1 X111.653 Y-81.949 Z-5.000 F420.000
G1 X112.143 Y-83.491 Z-5.000 F420.000
G1 X110.081 Y-87.872 Z-5.000 F420.000
G1 X108.248 Y-91.596 Z-5.000 F420.000
G1 X107.236 Y-93.572 Z-5.000 F420.000
G1 X106.199 Y-95.531 Z-5.000 F420.000
G0 Z12.000
G0 Z12.000
G0 X77.243 Y-76.938
G0 Z0.000
G1 X77.243 Y-76.938 Z-5.000 F420.000
G1 X75.591 Y-77.065 Z-5.000 F420.000
G1 X73.954 Y-77.263 Z-5.000 F420.000
G1 X72.337 Y-77.532 Z-5.000 F420.000
G1 X70.739 Y-77.870 Z-5.000 F420.000
G1 X69.166 Y-78.277 Z-5.000 F420.000
G1 X67.618 Y-78.752 Z-5.000 F420.000
G1 X66.099 Y-79.295 Z-5.000 F420.000
G1 X64.612 Y-79.902 Z-5.000 F420.000
G1 X63.159 Y-80.574 Z-5.000 F420.000
G1 X61.743 Y-81.308 Z-5.000 F420.000
G1 X60.368 Y-82.103 Z-5.000 F420.000
G1 X59.036 Y-82.956 Z-5.000 F420.000
G1 X57.750 Y-83.867 Z-5.000 F420.000
G1 X56.512 Y-84.831 Z-5.000 F420.000
G1 X55.327 Y-85.848 Z-5.000 F420.000
G1 X54.195 Y-86.914 Z-5.000 F420.000
G1 X53.119 Y-88.027 Z-5.000 F420.000
G1 X52.102 Y-89.184 Z-5.000 F420.000
G1 X51.145 Y-90.383 Z-5.000 F420.000
G1 X50.250 Y-91.620 Z-5.000 F420.000
G1 X49.420 Y-92.893 Z-5.000 F420.000
G1 X48.654 Y-94.200 Z-5.000 F420.000
G1 X47.955 Y-95.537 Z-5.000 F420.000
G1 X47.495 Y-96.516 Z-5.000 F420.000
G1 X47.068 Y-97.512 Z-5.000 F420.000
G0 Z12.000
G0 Z12.000
G0 X106.199 Y-95.531
G0 Z0.000
G1 X106.199 Y-95.531 Z-5.000 F420.000
G1 X105.747 Y-94.251 Z-5.000 F420.000
G1 X105.224 Y-92.989 Z-5.000 F420.000
G1 X104.631 Y-91.747 Z-5.000 F420.000
G1 X103.970 Y-90.533 Z-5.000 F420.000
G1 X103.243 Y-89.350 Z-5.000 F420.000
G1 X102.452 Y-88.203 Z-5.000 F420.000
G1 X101.600 Y-87.098 Z-5.000 F420.000
G1 X100.691 Y-86.036 Z-5.000 F420.000
G1 X99.725 Y-85.022 Z-5.000 F420.000
G1 X98.707 Y-84.060 Z-5.000 F420.000
G1 X97.639 Y-83.150 Z-5.000 F420.000
G1 X96.524 Y-82.297 Z-5.000 F420.000
G1 X95.363 Y-81.501 Z-5.000 F420.000
G1 X94.159 Y-80.765 Z-5.000 F420.000
G1 X92.914 Y-80.090 Z-5.000 F420.000
G1 X91.630 Y-79.478 Z-5.000 F420.000
G1 X90.308 Y-78.928 Z-5.000 F420.000
G1 X88.949 Y-78.444 Z-5.000 F420.000
G1 X87.556 Y-78.025 Z-5.000 F420.000
G1 X86.128 Y-77.672 Z-5.000 F420.000
G1 X84.667 Y-77.387 Z-5.000 F420.000
G1 X83.173 Y-77.171 Z-5.000 F420.000
G1 X81.646 Y-77.024 Z-5.000 F420.000
G1 X80.088 Y-76.949 Z-5.000 F420.000
G1 X79.224 Y-76.938 Z-5.000 F420.000
G1 X80.800 Y-74.991 Z-5.000 F420.000
G1 X82.334 Y-72.979 Z-5.000 F420.000
G1 X83.821 Y-70.909 Z-5.000 F420.000
G1 X85.259 Y-68.785 Z-5.000 F420.000
G1 X86.641 Y-66.613 Z-5.000 F420.000
G1 X87.963 Y-64.399 Z-5.000 F420.000
G1 X89.223 Y-62.149 Z-5.000 F420.000
G1 X90.415 Y-59.870 Z-5.000 F420.000
G1 X91.537 Y-57.569 Z-5.000 F420.000
G1 X92.585 Y-55.253 Z-5.000 F420.000
G1 X93.558 Y-52.929 Z-5.000 F420.000
G1 X94.452 Y-50.603 Z-5.000 F420.000
G1 X95.266 Y-48.282 Z-5.000 F420.000
G1 X95.999 Y-45.974 Z-5.000 F420.000
G1 X96.650 Y-43.682 Z-5.000 F420.000
G1 X97.219 Y-41.414 Z-5.000 F420.000
G1 X97.706 Y-39.174 Z-5.000 F420.000
G1 X98.011 Y-37.556 Z-5.000 F420.000
G1 X98.274 Y-35.942 Z-5.000 F420.000
G0 Z12.000
G0 Z12.000
G0 X176.913 Y-102.389
G0 Z0.000
G1 X176.913 Y-102.389 Z-5.000 F420.000
G1 X176.358 Y-104.196 Z-5.000 F420.000
G1 X175.613 Y-106.661 Z-5.000 F420.000
G1 X174.693 Y-109.533 Z-5.000 F420.000
G1 X173.835 Y-111.980 Z-5.000 F420.000
G1 X173.021 Y-114.080 Z-5.000 F420.000
G1 X172.241 Y-115.886 Z-5.000 F420.000
G1 X171.492 Y-117.434 Z-5.000 F420.000
G1 X170.772 Y-118.750 Z-5.000 F420.000
G1 X170.083 Y-119.856 Z-5.000 F420.000
G1 X169.423 Y-120.776 Z-5.000 F420.000
G1 X168.791 Y-121.531 Z-5.000 F420.000
G1 X168.185 Y-122.141 Z-5.000 F420.000
G1 X167.603 Y-122.624 Z-5.000 F420.000
G1 X167.042 Y-122.994 Z-5.000 F420.000
G1 X166.500 Y-123.264 Z-5.000 F420.000
G1 X165.972 Y-123.446 Z-5.000 F420.000
G1 X165.453 Y-123.547 Z-5.000 F420.000
G1 X165.240 Y-123.566 Z-5.000 F420.000
G1 X165.025 Y-123.572 Z-5.000 F420.000
G1 X164.552 Y-123.503 Z-5.000 F420.000
G1 X164.122 Y-123.367 Z-5.000 F420.000
G1 X163.729 Y-123.168 Z-5.000 F420.000
G1 X163.370 Y-122.905 Z-5.000 F420.000
G1 X163.042 Y-122.575 Z-5.000 F420.000
G1 X162.745 Y-122.173 Z-5.000 F420.000
G1 X162.481 Y-121.691 Z-5.000 F420.000
G1 X162.252 Y-121.123 Z-5.000 F420.000
G1 X162.066 Y-120.461 Z-5.000 F420.000
G1 X161.928 Y-119.698 Z-5.000 F420.000
G1 X161.845 Y-118.830 Z-5.000 F420.000
G1 X161.830 Y-118.463 Z-5.000 F420.000
G1 X161.825 Y-118.086 Z-5.000 F420.000
G1 X161.860 Y-116.697 Z-5.000 F420.000
G1 X161.967 Y-115.214 Z-5.000 F420.000
G1 X162.153 Y-113.597 Z-5.000 F420.000
G1 X162.431 Y-111.781 Z-5.000 F420.000
G1 X162.829 Y-109.614 Z-5.000 F420.000
G1 X163.448 Y-106.536 Z-5.000 F420.000
G1 X163.948 Y-103.951 Z-5.000 F420.000
G1 X164.309 Y-101.760 Z-5.000 F420.000
G1 X164.542 Y-99.900 Z-5.000 F420.000
G1 X164.674 Y-98.231 Z-5.000 F420.000
G1 X164.721 Y-96.598 Z-5.000 F420.000
G1 X164.684 Y-95.447 Z-5.000 F420.000
G1 X164.576 Y-94.325 Z-5.000 F420.000
G1 X164.398 Y-93.239 Z-5.000 F420.000
G1 X164.154 Y-92.199 Z-5.000 F420.000
G1 X163.847 Y-91.212 Z-5.000 F420.000
G1 X163.482 Y-90.282 Z-5.000 F420.000
G1 X163.063 Y-89.414 Z-5.000 F420.000
G1 X162.593 Y-88.609 Z-5.000 F420.000
G1 X162.076 Y-87.869 Z-5.000 F420.000
G1 X161.514 Y-87.194 Z-5.000 F420.000
G1 X160.912 Y-86.583 Z-5.000 F420.000
G1 X160.269 Y-86.036 Z-5.000 F420.000
G1 X159.586 Y-85.552 Z-5.000 F420.000
G1 X158.865 Y-85.132 Z-5.000 F420.000
G1 X158.105 Y-84.773 Z-5.000 F420.000
G1 X157.305 Y-84.478 Z-5.000 F420.000
G1 X156.463 Y-84.246 Z-5.000 F420.000
G1 X155.579 Y-84.079 Z-5.000 F420.000
G1 X154.649 Y-83.979 Z-5.000 F420.000
G1 X153.748 Y-83.948 Z-5.000 F420.000
G1 X152.902 Y-83.984 Z-5.000 F420.000
G1 X152.085 Y-84.090 Z-5.000 F420.000
G1 X151.293 Y-84.265 Z-5.000 F420.000
G1 X150.522 Y-84.509 Z-5.000 F420.000
G1 X149.770 Y-84.822 Z-5.000 F420.000
G1 X149.034 Y-85.206 Z-5.000 F420.000
G1 X148.310 Y-85.664 Z-5.000 F420.000
G1 X147.598 Y-86.201 Z-5.000 F420.000
G1 X146.894 Y-86.820 Z-5.000 F420.000
G1 X146.199 Y-87.529 Z-5.000 F420.000
G1 X145.510 Y-88.333 Z-5.000 F420.000
G1 X144.827 Y-89.240 Z-5.000 F420.000
G1 X144.149 Y-90.259 Z-5.000 F420.000
G1 X143.476 Y-91.400 Z-5.000 F420.000
G1 X142.808 Y-92.673 Z-5.000 F420.000
G1 X142.318 Y-93.702 Z-5.000 F420.000
G1 X143.407 Y-88.188 Z-5.000 F420.000
G1 X144.756 Y-81.967 Z-5.000 F420.000
G1 X146.712 Y-80.636 Z-5.000 F420.000
G1 X148.736 Y-79.169 Z-5.000 F420.000
G1 X150.787 Y-77.589 Z-5.000 F420.000
G1 X152.828 Y-75.924 Z-5.000 F420.000
G1 X154.827 Y-74.197 Z-5.000 F420.000
G1 X156.757 Y-72.431 Z-5.000 F420.000
G1 X158.599 Y-70.645 Z-5.000 F420.000
G1 X160.337 Y-68.856 Z-5.000 F420.000
G1 X161.964 Y-67.077 Z-5.000 F420.000
G1 X163.471 Y-65.318 Z-5.000 F420.000
G1 X164.858 Y-63.587 Z-5.000 F420.000
G1 X166.123 Y-61.890 Z-5.000 F420.000
G1 X167.267 Y-60.231 Z-5.000 F420.000
G1 X168.293 Y-58.614 Z-5.000 F420.000
G1 X169.205 Y-57.041 Z-5.000 F420.000
G1 X170.006 Y-55.513 Z-5.000 F420.000
G1 X170.701 Y-54.029 Z-5.000 F420.000
G1 X171.294 Y-52.590 Z-5.000 F420.000
G1 X171.789 Y-51.196 Z-5.000 F420.000
G1 X172.192 Y-49.844 Z-5.000 F420.000
G1 X172.506 Y-48.533 Z-5.000 F420.000
G1 X172.735 Y-47.262 Z-5.000 F420.000
G1 X172.883 Y-46.029 Z-5.000 F420.000
G1 X172.924 Y-45.481 Z-5.000 F420.000
G1 X172.950 Y-44.934 Z-5.000 F420.000
G1 X172.943 Y-43.929 Z-5.000 F420.000
G1 X172.864 Y-42.939 Z-5.000 F420.000
G1 X172.714 Y-41.977 Z-5.000 F420.000
G1 X172.496 Y-41.055 Z-5.000 F420.000
G1 X172.215 Y-40.183 Z-5.000 F420.000
G1 X171.876 Y-39.369 Z-5.000 F420.000
G1 X171.484 Y-38.617 Z-5.000 F420.000
G1 X171.043 Y-37.932 Z-5.000 F420.000
G1 X170.559 Y-37.313 Z-5.000 F420.000
G1 X170.034 Y-36.762 Z-5.000 F420.000
G1 X169.471 Y-36.277 Z-5.000 F420.000
G1 X168.872 Y-35.859 Z-5.000 F420.000
G1 X168.236 Y-35.505 Z-5.000 F420.000
G1 X167.565 Y-35.216 Z-5.000 F420.000
G1 X166.857 Y-34.992 Z-5.000 F420.000
G1 X166.111 Y-34.833 Z-5.000 F420.000
G1 X165.324 Y-34.742 Z-5.000 F420.000
G1 X164.876 Y-34.722 Z-5.000 F420.000
G1 X164.416 Y-34.723 Z-5.000 F420.000
G1 X163.511 Y-34.785 Z-5.000 F420.000
G1 X162.617 Y-34.919 Z-5.000 F420.000
G1 X161.731 Y-35.125 Z-5.000 F420.000
G1 X160.850 Y-35.403 Z-5.000 F420.000
G1 X159.972 Y-35.757 Z-5.000 F420.000
G1 X159.096 Y-36.188 Z-5.000 F420.000
G1 X158.217 Y-36.701 Z-5.000 F420.000
G1 X157.335 Y-37.300 Z-5.000 F420.000
G1 X156.449 Y-37.990 Z-5.000 F420.000
G1 X155.556 Y-38.777 Z-5.000 F420.000
G1 X154.657 Y-39.668 Z-5.000 F420.000
G1 X153.749 Y-40.668 Z-5.000 F420.000
G1 X152.833 Y-41.786 Z-5.000 F420.000
G1 X151.909 Y-43.029 Z-5.000 F420.000
G1 X150.975 Y-44.405 Z-5.000 F420.000
G1 X150.033 Y-45.924 Z-5.000 F420.000
G1 X149.081 Y-47.595 Z-5.000 F420.000
G1 X148.122 Y-49.426 Z-5.000 F420.000
G1 X147.155 Y-51.428 Z-5.000 F420.000
G1 X146.180 Y-53.612 Z-5.000 F420.000
G1 X145.199 Y-55.988 Z-5.000 F420.000
G1 X144.211 Y-58.567 Z-5.000 F420.000
G1 X143.217 Y-61.362 Z-5.000 F420.000
G1 X142.219 Y-64.386 Z-5.000 F420.000
G1 X141.215 Y-67.652 Z-5.000 F420.000
G1 X140.207 Y-71.175 Z-5.000 F420.000
G1 X139.194 Y-74.974 Z-5.000 F420.000
G1 X138.174 Y-79.070 Z-5.000 F420.000
G1 X137.146 Y-83.491 Z-5.000 F420.000
G1 X136.103 Y-88.277 Z-5.000 F420.000
G1 X135.037 Y-93.493 Z-5.000 F420.000
G1 X133.923 Y-99.268 Z-5.000 F420.000
G1 X132.699 Y-105.938 Z-5.000 F420.000
G1 X131.575 Y-112.214 Z-5.000 F420.000
G1 X130.583 Y-117.629 Z-5.000 F420.000
G1 X130.372 Y-119.000 Z-5.000 F420.000
G1 X130.278 Y-120.058 Z-5.000 F420.000
G1 X130.274 Y-120.920 Z-5.000 F420.000
G1 X130.343 Y-121.643 Z-5.000 F420.000
G1 X130.477 Y-122.257 Z-5.000 F420.000
G1 X130.667 Y-122.783 Z-5.000 F420.000
G1 X130.910 Y-123.240 Z-5.000 F420.000
G1 X131.208 Y-123.641 Z-5.000 F420.000
G1 X131.562 Y-123.993 Z-5.000 F420.000
G1 X131.980 Y-124.303 Z-5.000 F420.000
G1 X132.471 Y-124.573 Z-5.000 F420.000
G1 X133.046 Y-124.803 Z-5.000 F420.000
G1 X133.718 Y-124.992 Z-5.000 F420.000
G1 X134.503 Y-125.133 Z-5.000 F420.000
G1 X135.420 Y-125.222 Z-5.000 F420.000
G1 X136.374 Y-125.249 Z-5.000 F420.000
G0 Z12.000
G0 Z12.000
G0 X222.023 Y-102.389
G0 Z0.000
G1 X222.023 Y-102.389 Z-5.000 F420.000
G1 X221.509 Y-104.074 Z-5.000 F420.000
G1 X220.540 Y-107.312 Z-5.000 F420.000
G1 X219.652 Y-110.082 Z-5.000 F420.000
G1 X218.823 Y-112.433 Z-5.000 F420.000
G1 X218.034 Y-114.452 Z-5.000 F420.000
G1 X217.275 Y-116.188 Z-5.000 F420.000
G1 X216.543 Y-117.676 Z-5.000 F420.000
G1 X215.838 Y-118.941 Z-5.000 F420.000
G1 X215.160 Y-120.004 Z-5.000 F420.000
G1 X214.510 Y-120.889 Z-5.000 F420.000
G1 X213.884 Y-121.616 Z-5.000 F420.000
G1 X213.281 Y-122.203 Z-5.000 F420.000
G1 X212.700 Y-122.668 Z-5.000 F420.000
G1 X212.138 Y-123.025 Z-5.000 F420.000
G1 X211.591 Y-123.285 Z-5.000 F420.000
G1 X211.056 Y-123.458 Z-5.000 F420.000
G1 X210.529 Y-123.552 Z-5.000 F420.000
G1 X210.333 Y-123.567 Z-5.000 F420.000
G1 X210.136 Y-123.572 Z-5.000 F420.000
G1 X209.672 Y-123.509 Z-5.000 F420.000
G1 X209.252 Y-123.380 Z-5.000 F420.000
G1 X208.867 Y-123.186 Z-5.000 F420.000
G1 X208.512 Y-122.927 Z-5.000 F420.000
G1 X208.183 Y-122.597 Z-5.000 F420.000
G1 X207.878 Y-122.188 Z-5.000 F420.000
G1 X207.597 Y-121.689 Z-5.000 F420.000
G1 X207.343 Y-121.087 Z-5.000 F420.000
G1 X207.118 Y-120.366 Z-5.000 F420.000
G1 X206.927 Y-119.512 Z-5.000 F420.000
G1 X206.778 Y-118.506 Z-5.000 F420.000
G1 X206.677 Y-117.328 Z-5.000 F420.000
G1 X206.631 Y-115.648 Z-5.000 F420.000
G1 X206.666 Y-114.002 Z-5.000 F420.000
G1 X206.778 Y-112.125 Z-5.000 F420.000
G1 X206.976 Y-109.994 Z-5.000 F420.000
G1 X207.272 Y-107.590 Z-5.000 F420.000
G1 X207.673 Y-104.892 Z-5.000 F420.000
G1 X208.192 Y-101.882 Z-5.000 F420.000
G1 X208.837 Y-98.536 Z-5.000 F420.000
G1 X209.617 Y-94.829 Z-5.000 F420.000
G1 X210.550 Y-90.694 Z-5.000 F420.000
G1 X211.735 Y-85.609 Z-5.000 F420.000
G1 X212.117 Y-83.796 Z-5.000 F420.000
G1 X210.694 Y-83.833 Z-5.000 F420.000
G1 X209.531 Y-83.933 Z-5.000 F420.000
G1 X208.569 Y-84.088 Z-5.000 F420.000
G1 X207.764 Y-84.288 Z-5.000 F420.000
G1 X207.085 Y-84.531 Z-5.000 F420.000
G1 X206.506 Y-84.813 Z-5.000 F420.000
G1 X206.007 Y-85.135 Z-5.000 F420.000
G1 X205.571 Y-85.502 Z-5.000 F420.000
G1 X205.186 Y-85.919 Z-5.000 F420.000
G1 X204.842 Y-86.398 Z-5.000 F420.000
G1 X204.531 Y-86.955 Z-5.000 F420.000
G1 X204.246 Y-87.613 Z-5.000 F420.000
G1 X203.979 Y-88.409 Z-5.000 F420.000
G1 X203.719 Y-89.407 Z-5.000 F420.000
G1 X203.571 Y-90.086 Z-5.000 F420.000
G1 X203.430 Y-90.806 Z-5.000 F420.000
G1 X203.120 Y-89.876 Z-5.000 F420.000
G1 X202.755 Y-89.014 Z-5.000 F420.000
G1 X202.340 Y-88.222 Z-5.000 F420.000
G1 X201.879 Y-87.502 Z-5.000 F420.000
G1 X201.376 Y-86.852 Z-5.000 F420.000
G1 X200.832 Y-86.270 Z-5.000 F420.000
G1 X200.250 Y-85.756 Z-5.000 F420.000
G1 X199.631 Y-85.307 Z-5.000 F420.000
G1 X198.973 Y-84.922 Z-5.000 F420.000
G1 X198.275 Y-84.600 Z-5.000 F420.000
G1 X197.536 Y-84.340 Z-5.000 F420.000
G1 X196.753 Y-84.143 Z-5.000 F420.000
G1 X195.924 Y-84.012 Z-5.000 F420.000
G1 X195.048 Y-83.948 Z-5.000 F420.000
G1 X194.036 Y-83.984 Z-5.000 F420.000
G1 X193.038 Y-84.092 Z-5.000 F420.000
G1 X192.054 Y-84.270 Z-5.000 F420.000
G1 X191.082 Y-84.518 Z-5.000 F420.000
G1 X190.123 Y-84.838 Z-5.000 F420.000
G1 X189.174 Y-85.231 Z-5.000 F420.000
G1 X188.236 Y-85.696 Z-5.000 F420.000
G1 X187.310 Y-86.237 Z-5.000 F420.000
G1 X186.395 Y-86.855 Z-5.000 F420.000
G1 X185.493 Y-87.550 Z-5.000 F420.000
G1 X184.606 Y-88.326 Z-5.000 F420.000
G1 X183.735 Y-89.184 Z-5.000 F420.000
G1 X182.883 Y-90.123 Z-5.000 F420.000
G1 X182.055 Y-91.145 Z-5.000 F420.000
G1 X181.253 Y-92.248 Z-5.000 F420.000
G1 X180.482 Y-93.432 Z-5.000 F420.000
G1 X179.747 Y-94.692 Z-5.000 F420.000
G1 X179.055 Y-96.024 Z-5.000 F420.000
G1 X178.409 Y-97.422 Z-5.000 F420.000
G1 X177.817 Y-98.876 Z-5.000 F420.000
G1 X177.284 Y-100.378 Z-5.000 F420.000
G1 X176.815 Y-101.914 Z-5.000 F420.000
G1 X176.415 Y-103.472 Z-5.000 F420.000
G1 X176.088 Y-105.037 Z-5.000 F420.000
G1 X175.836 Y-106.594 Z-5.000 F420.000
G1 X175.662 Y-108.128 Z-5.000 F420.000
G1 X175.564 Y-109.625 Z-5.000 F420.000
G1 X175.541 Y-110.771 Z-5.000 F420.000
G1 X175.577 Y-112.089 Z-5.000 F420.000
G1 X175.683 Y-113.349 Z-5.000 F420.000
G1 X175.857 Y-114.548 Z-5.000 F420.000
G1 X176.094 Y-115.685 Z-5.000 F420.000
G1 X176.391 Y-116.758 Z-5.000 F420.000
G1 X176.745 Y-117.766 Z-5.000 F420.000
G1 X177.152 Y-118.710 Z-5.000 F420.000
G1 X177.611 Y-119.589 Z-5.000 F420.000
G1 X178.117 Y-120.403 Z-5.000 F420.000
G1 X178.668 Y-121.153 Z-5.000 F420.000
G1 X179.263 Y-121.840 Z-5.000 F420.000
G1 X179.899 Y-122.463 Z-5.000 F420.000
G1 X180.575 Y-123.024 Z-5.000 F420.000
G1 X181.291 Y-123.524 Z-5.000 F420.000
G1 X182.046 Y-123.961 Z-5.000 F420.000
G1 X182.839 Y-124.336 Z-5.000 F420.000
G1 X183.672 Y-124.649 Z-5.000 F420.000
G1 X184.544 Y-124.898 Z-5.000 F420.000
G1 X185.455 Y-125.082 Z-5.000 F420.000
G1 X186.407 Y-125.199 Z-5.000 F420.000
G1 X186.988 Y-125.236 Z-5.000 F420.000
G1 X187.581 Y-125.249 Z-5.000 F420.000
G1 X188.421 Y-125.213 Z-5.000 F420.000
G1 X189.234 Y-125.107 Z-5.000 F420.000
G1 X190.024 Y-124.932 Z-5.000 F420.000
G1 X190.793 Y-124.688 Z-5.000 F420.000
G1 X191.544 Y-124.374 Z-5.000 F420.000
G1 X192.281 Y-123.989 Z-5.000 F420.000
G1 X193.005 Y-123.530 Z-5.000 F420.000
G1 X193.718 Y-122.992 Z-5.000 F420.000
G1 X194.422 Y-122.371 Z-5.000 F420.000
G1 X195.118 Y-121.663 Z-5.000 F420.000
G1 X195.806 Y-120.859 Z-5.000 F420.000
G1 X196.486 Y-119.955 Z-5.000 F420.000
G1 X197.158 Y-118.942 Z-5.000 F420.000
G1 X197.823 Y-117.813 Z-5.000 F420.000
G1 X198.479 Y-116.558 Z-5.000 F420.000
G1 X199.125 Y-115.169 Z-5.000 F420.000
G1 X199.763 Y-113.634 Z-5.000 F420.000
G1 X200.391 Y-111.940 Z-5.000 F420.000
G1 X200.687 Y-111.076 Z-5.000 F420.000
G1 X200.687 Y-111.685 Z-5.000 F420.000
G1 X200.726 Y-113.303 Z-5.000 F420.000
G1 X200.839 Y-114.813 Z-5.000 F420.000
G1 X201.020 Y-116.198 Z-5.000 F420.000
G1 X201.260 Y-117.457 Z-5.000 F420.000
G1 X201.553 Y-118.594 Z-5.000 F420.000
G1 X201.893 Y-119.616 Z-5.000 F420.000
G1 X202.276 Y-120.530 Z-5.000 F420.000
G1 X202.696 Y-121.343 Z-5.000 F420.000
G1 X203.152 Y-122.063 Z-5.000 F420.000
G1 X203.641 Y-122.698 Z-5.000 F420.000
G1 X204.162 Y-123.252 Z-5.000 F420.000
G1 X204.714 Y-123.733 Z-5.000 F420.000
G1 X205.300 Y-124.144 Z-5.000 F420.000
G1 X205.920 Y-124.489 Z-5.000 F420.000
G1 X206.578 Y-124.770 Z-5.000 F420.000
G1 X207.277 Y-124.988 Z-5.000 F420.000
G1 X208.022 Y-125.142 Z-5.000 F420.000
G1 X208.817 Y-125.230 Z-5.000 F420.000
G1 X209.679 Y-125.249 Z-5.000 F420.000
G0 Z12.000
G0 Z12.000
G0 X231.015 Y-80.291
G0 Z0.000
G1 X231.015 Y-80.291 Z-5.000 F420.000
G1 X231.510 Y-80.255 Z-5.000 F420.000
G1 X231.990 Y-80.150 Z-5.000 F420.000
G1 X232.452 Y-79.976 Z-5.000 F420.000
G1 X232.888 Y-79.736 Z-5.000 F420.000
G1 X233.290 Y-79.432 Z-5.000 F420.000
G1 X233.650 Y-79.071 Z-5.000 F420.000
G1 X233.958 Y-78.660 Z-5.000 F420.000
G1 X234.205 Y-78.210 Z-5.000 F420.000
G1 X234.383 Y-77.733 Z-5.000 F420.000
G1 X234.488 Y-77.241 Z-5.000 F420.000
G1 X234.520 Y-76.786 Z-5.000 F420.000
G1 X234.484 Y-76.267 Z-5.000 F420.000
G1 X234.379 Y-75.770 Z-5.000 F420.000
G1 X234.207 Y-75.300 Z-5.000 F420.000
G1 X233.970 Y-74.862 Z-5.000 F420.000
G1 X233.674 Y-74.465 Z-5.000 F420.000
G1 X233.322 Y-74.116 Z-5.000 F420.000
G1 X232.922 Y-73.820 Z-5.000 F420.000
G1 X232.481 Y-73.585 Z-5.000 F420.000
G1 X232.004 Y-73.414 Z-5.000 F420.000
G1 X231.500 Y-73.312 Z-5.000 F420.000
G1 X231.015 Y-73.280 Z-5.000 F420.000
G1 X230.496 Y-73.316 Z-5.000 F420.000
G1 X229.999 Y-73.421 Z-5.000 F420.000
G1 X229.529 Y-73.594 Z-5.000 F420.000
G1 X229.092 Y-73.830 Z-5.000 F420.000
G1 X228.695 Y-74.127 Z-5.000 F420.000
G1 X228.345 Y-74.478 Z-5.000 F420.000
G1 X228.049 Y-74.878 Z-5.000 F420.000
G1 X227.814 Y-75.320 Z-5.000 F420.000
G1 X227.643 Y-75.796 Z-5.000 F420.000
G1 X227.541 Y-76.300 Z-5.000 F420.000
G1 X227.510 Y-76.786 Z-5.000 F420.000
G1 X227.545 Y-77.270 Z-5.000 F420.000
G1 X227.652 Y-77.752 Z-5.000 F420.000
G1 X227.830 Y-78.221 Z-5.000 F420.000
G1 X228.076 Y-78.667 Z-5.000 F420.000
G1 X228.385 Y-79.078 Z-5.000 F420.000
G1 X228.749 Y-79.441 Z-5.000 F420.000
G1 X229.160 Y-79.748 Z-5.000 F420.000
G1 X229.607 Y-79.989 Z-5.000 F420.000
G1 X230.081 Y-80.162 Z-5.000 F420.000
G1 X230.574 Y-80.263 Z-5.000 F420.000
G1 X231.015 Y-80.291 Z-5.000 F420.000
G0 Z12.000
G0 Z12.000
G0 X250.827 Y-80.138
G0 Z0.000
G1 X250.827 Y-80.138 Z-5.000 F420.000
G1 X251.372 Y-80.103 Z-5.000 F420.000
G1 X251.897 Y-79.998 Z-5.000 F420.000
G1 X252.396 Y-79.825 Z-5.000 F420.000
G1 X252.866 Y-79.587 Z-5.000 F420.000
G1 X253.300 Y-79.288 Z-5.000 F420.000
G1 X253.691 Y-78.930 Z-5.000 F420.000
G1 X254.033 Y-78.520 Z-5.000 F420.000
G1 X254.317 Y-78.066 Z-5.000 F420.000
G1 X254.538 Y-77.574 Z-5.000 F420.000
G1 X254.692 Y-77.056 Z-5.000 F420.000
G1 X254.775 Y-76.519 Z-5.000 F420.000
G1 X254.785 Y-76.348 Z-5.000 F420.000
G1 X254.789 Y-76.176 Z-5.000 F420.000
G1 X254.753 Y-75.607 Z-5.000 F420.000
G1 X254.648 Y-75.065 Z-5.000 F420.000
G1 X254.477 Y-74.557 Z-5.000 F420.000
G1 X254.242 Y-74.085 Z-5.000 F420.000
G1 X253.949 Y-73.656 Z-5.000 F420.000
G1 X253.600 Y-73.274 Z-5.000 F420.000
G1 X253.200 Y-72.943 Z-5.000 F420.000
G1 X252.754 Y-72.670 Z-5.000 F420.000
G1 X252.267 Y-72.457 Z-5.000 F420.000
G1 X251.744 Y-72.308 Z-5.000 F420.000
G1 X251.189 Y-72.228 Z-5.000 F420.000
G1 X251.009 Y-72.217 Z-5.000 F420.000
G1 X250.827 Y-72.214 Z-5.000 F420.000
G1 X250.257 Y-72.249 Z-5.000 F420.000
G1 X249.716 Y-72.354 Z-5.000 F420.000
G1 X249.207 Y-72.526 Z-5.000 F420.000
G1 X248.736 Y-72.760 Z-5.000 F420.000
G1 X248.307 Y-73.054 Z-5.000 F420.000
G1 X247.924 Y-73.403 Z-5.000 F420.000
G1 X247.594 Y-73.803 Z-5.000 F420.000
G1 X247.320 Y-74.249 Z-5.000 F420.000
G1 X247.107 Y-74.736 Z-5.000 F420.000
G1 X246.959 Y-75.259 Z-5.000 F420.000
G1 X246.879 Y-75.813 Z-5.000 F420.000
G1 X246.868 Y-75.993 Z-5.000 F420.000
G1 X246.864 Y-76.176 Z-5.000 F420.000
G1 X246.900 Y-76.713 Z-5.000 F420.000
G1 X247.006 Y-77.238 Z-5.000 F420.000
G1 X247.182 Y-77.744 Z-5.000 F420.000
G1 X247.424 Y-78.222 Z-5.000 F420.000
G1 X247.729 Y-78.663 Z-5.000 F420.000
G1 X248.090 Y-79.058 Z-5.000 F420.000
G1 X248.500 Y-79.399 Z-5.000 F420.000
G1 X248.954 Y-79.681 Z-5.000 F420.000
G1 X249.443 Y-79.898 Z-5.000 F420.000
G1 X249.960 Y-80.047 Z-5.000 F420.000
G1 X250.502 Y-80.126 Z-5.000 F420.000
G1 X250.663 Y-80.135 Z-5.000 F420.000
G1 X250.827 Y-80.138 Z-5.000 F420.000
G0 Z12.000
G0 Z12.000
G0 X242.292 Y-102.389
G0 Z0.000
G1 X242.292 Y-102.389 Z-5.000 F420.000
G1 X241.204 Y-105.954 Z-5.000 F420.000
G1 X240.306 Y-108.661 Z-5.000 F420.000
G1 X239.494 Y-110.883 Z-5.000 F420.000
G1 X238.716 Y-112.791 Z-5.000 F420.000
G1 X237.956 Y-114.458 Z-5.000 F420.000
G1 X237.196 Y-115.947 Z-5.000 F420.000
G1 X236.423 Y-117.297 Z-5.000 F420.000
G1 X235.630 Y-118.535 Z-5.000 F420.000
G1 X234.807 Y-119.682 Z-5.000 F420.000
G1 X233.949 Y-120.752 Z-5.000 F420.000
G1 X233.049 Y-121.756 Z-5.000 F420.000
G1 X232.101 Y-122.704 Z-5.000 F420.000
G1 X231.097 Y-123.603 Z-5.000 F420.000
G1 X230.031 Y-124.459 Z-5.000 F420.000
G1 X228.895 Y-125.276 Z-5.000 F420.000
G1 X227.681 Y-126.059 Z-5.000 F420.000
G1 X226.378 Y-126.811 Z-5.000 F420.000
G1 X224.978 Y-127.534 Z-5.000 F420.000
G1 X224.004 Y-127.992 Z-5.000 F420.000
G0 Z12.000
G0 Z12.000
G0 X232.844 Y-83.796
G0 Z0.000
G1 X232.844 Y-83.796 Z-5.000 F420.000
G1 X231.423 Y-83.832 Z-5.000 F420.000
G1 X230.260 Y-83.933 Z-5.000 F420.000
G1 X229.298 Y-84.086 Z-5.000 F420.000
G1 X228.496 Y-84.286 Z-5.000 F420.000
G1 X227.822 Y-84.526 Z-5.000 F420.000
G1 X227.249 Y-84.805 Z-5.000 F420.000
G1 X226.757 Y-85.124 Z-5.000 F420.000
G1 X226.331 Y-85.485 Z-5.000 F420.000
G1 X225.955 Y-85.896 Z-5.000 F420.000
G1 X225.621 Y-86.368 Z-5.000 F420.000
G1 X225.320 Y-86.919 Z-5.000 F420.000
G1 X225.042 Y-87.574 Z-5.000 F420.000
G1 X224.779 Y-88.377 Z-5.000 F420.000
G1 X224.513 Y-89.413 Z-5.000 F420.000
G1 X224.410 Y-89.872 Z-5.000 F420.000
G1 X224.309 Y-90.349 Z-5.000 F420.000
G1 X223.070 Y-96.505 Z-5.000 F420.000
G1 X221.691 Y-103.688 Z-5.000 F420.000
G1 X219.969 Y-112.984 Z-5.000 F420.000
G1 X218.349 Y-121.791 Z-5.000 F420.000
G1 X216.689 Y-130.583 Z-5.000 F420.000
G1 X211.869 Y-132.086 Z-5.000 F420.000
G1 X207.975 Y-133.306 Z-5.000 F420.000
G1 X204.191 Y-134.548 Z-5.000 F420.000
G1 X201.092 Y-135.639 Z-5.000 F420.000
G1 X198.385 Y-136.672 Z-5.000 F420.000
G1 X195.948 Y-137.684 Z-5.000 F420.000
G1 X193.720 Y-138.690 Z-5.000 F420.000
G1 X191.648 Y-139.708 Z-5.000 F420.000
G1 X190.908 Y-140.093 Z-5.000 F420.000
G1 X190.172 Y-140.489 Z-5.000 F420.000
G1 X188.573 Y-141.420 Z-5.000 F420.000
G1 X187.060 Y-142.386 Z-5.000 F420.000
G1 X185.637 Y-143.383 Z-5.000 F420.000
G1 X184.308 Y-144.404 Z-5.000 F420.000
G1 X183.074 Y-145.445 Z-5.000 F420.000
G1 X181.934 Y-146.504 Z-5.000 F420.000
G1 X180.887 Y-147.576 Z-5.000 F420.000
G1 X179.931 Y-148.661 Z-5.000 F420.000
G1 X179.064 Y-149.756 Z-5.000 F420.000
G1 X178.283 Y-150.860 Z-5.000 F420.000
G1 X177.587 Y-151.973 Z-5.000 F420.000
G1 X176.972 Y-153.094 Z-5.000 F420.000
G1 X176.437 Y-154.223 Z-5.000 F420.000
G1 X175.979 Y-155.361 Z-5.000 F420.000
G1 X175.596 Y-156.509 Z-5.000 F420.000
G1 X175.287 Y-157.668 Z-5.000 F420.000
G1 X175.051 Y-158.838 Z-5.000 F420.000
G1 X174.888 Y-160.021 Z-5.000 F420.000
G1 X174.797 Y-161.219 Z-5.000 F420.000
G1 X174.779 Y-162.434 Z-5.000 F420.000
G1 X174.834 Y-163.568 Z-5.000 F420.000
G1 X174.959 Y-164.657 Z-5.000 F420.000
G1 X175.151 Y-165.703 Z-5.000 F420.000
G1 X175.408 Y-166.706 Z-5.000 F420.000
G1 X175.728 Y-167.666 Z-5.000 F420.000
G1 X176.109 Y-168.584 Z-5.000 F420.000
G1 X176.551 Y-169.460 Z-5.000 F420.000
G1 X177.052 Y-170.292 Z-5.000 F420.000
G1 X177.611 Y-171.082 Z-5.000 F420.000
G1 X178.228 Y-171.829 Z-5.000 F420.000
G1 X178.902 Y-172.530 Z-5.000 F420.000
G1 X179.632 Y-173.186 Z-5.000 F420.000
G1 X180.417 Y-173.795 Z-5.000 F420.000
G1 X181.257 Y-174.353 Z-5.000 F420.000
G1 X182.151 Y-174.861 Z-5.000 F420.000
G1 X183.097 Y-175.314 Z-5.000 F420.000
G1 X184.093 Y-175.711 Z-5.000 F420.000
G1 X185.137 Y-176.048 Z-5.000 F420.000
G1 X186.226 Y-176.324 Z-5.000 F420.000
G1 X187.358 Y-176.535 Z-5.000 F420.000
G1 X188.529 Y-176.678 Z-5.000 F420.000
G1 X190.019 Y-176.760 Z-5.000 F420.000
G1 X191.387 Y-176.733 Z-5.000 F420.000
G1 X192.718 Y-176.635 Z-5.000 F420.000
G1 X194.014 Y-176.468 Z-5.000 F420.000
G1 X195.278 Y-176.232 Z-5.000 F420.000
G1 X196.512 Y-175.929 Z-5.000 F420.000
G1 X197.717 Y-175.559 Z-5.000 F420.000
G1 X198.897 Y-175.121 Z-5.000 F420.000
G1 X200.054 Y-174.616 Z-5.000 F420.000
G1 X201.188 Y-174.041 Z-5.000 F420.000
G1 X202.302 Y-173.397 Z-5.000 F420.000
G1 X203.397 Y-172.680 Z-5.000 F420.000
G1 X204.474 Y-171.888 Z-5.000 F420.000
G1 X205.534 Y-171.019 Z-5.000 F420.000
G1 X206.578 Y-170.071 Z-5.000 F420.000
G1 X207.607 Y-169.039 Z-5.000 F420.000
G1 X208.621 Y-167.919 Z-5.000 F420.000
G1 X209.620 Y-166.709 Z-5.000 F420.000
G1 X210.605 Y-165.404 Z-5.000 F420.000
G1 X211.575 Y-163.998 Z-5.000 F420.000
G1 X212.530 Y-162.488 Z-5.000 F420.000
G1 X213.469 Y-160.868 Z-5.000 F420.000
G1 X214.393 Y-159.133 Z-5.000 F420.000
G1 X215.301 Y-157.275 Z-5.000 F420.000
G1 X216.192 Y-155.290 Z-5.000 F420.000
G1 X217.065 Y-153.169 Z-5.000 F420.000
G1 X217.921 Y-150.905 Z-5.000 F420.000
G1 X218.760 Y-148.487 Z-5.000 F420.000
G1 X219.582 Y-145.903 Z-5.000 F420.000
G1 X220.390 Y-143.136 Z-5.000 F420.000
G1 X221.186 Y-140.161 Z-5.000 F420.000
G1 X221.980 Y-136.935 Z-5.000 F420.000
G1 X222.790 Y-133.368 Z-5.000 F420.000
G1 X223.181 Y-131.561 Z-5.000 F420.000
G1 X223.547 Y-129.821 Z-5.000 F420.000
G0 Z12.000
G0 Z12.000
G0 X262.714 Y-102.389
G0 Z0.000
G1 X262.714 Y-102.389 Z-5.000 F420.000
G1 X262.159 Y-104.196 Z-5.000 F420.000
G1 X261.414 Y-106.661 Z-5.000 F420.000
G1 X260.494 Y-109.533 Z-5.000 F420.000
G1 X259.636 Y-111.980 Z-5.000 F420.000
G1 X258.822 Y-114.080 Z-5.000 F420.000
G1 X258.042 Y-115.886 Z-5.000 F420.000
G1 X257.293 Y-117.434 Z-5.000 F420.000
G1 X256.574 Y-118.750 Z-5.000 F420.000
G1 X255.884 Y-119.856 Z-5.000 F420.000
G1 X255.224 Y-120.776 Z-5.000 F420.000
G1 X254.592 Y-121.531 Z-5.000 F420.000
G1 X253.986 Y-122.141 Z-5.000 F420.000
G1 X253.404 Y-122.624 Z-5.000 F420.000
G1 X252.843 Y-122.994 Z-5.000 F420.000
G1 X252.301 Y-123.264 Z-5.000 F420.000
G1 X251.773 Y-123.446 Z-5.000 F420.000
G1 X251.255 Y-123.547 Z-5.000 F420.000
G1 X251.041 Y-123.566 Z-5.000 F420.000
G1 X250.827 Y-123.572 Z-5.000 F420.000
G1 X250.363 Y-123.509 Z-5.000 F420.000
G1 X249.942 Y-123.380 Z-5.000 F420.000
G1 X249.558 Y-123.186 Z-5.000 F420.000
G1 X249.203 Y-122.927 Z-5.000 F420.000
G1 X248.874 Y-122.597 Z-5.000 F420.000
G1 X248.569 Y-122.188 Z-5.000 F420.000
G1 X248.288 Y-121.689 Z-5.000 F420.000
G1 X248.034 Y-121.087 Z-5.000 F420.000
G1 X247.809 Y-120.366 Z-5.000 F420.000
G1 X247.618 Y-119.512 Z-5.000 F420.000
G1 X247.469 Y-118.506 Z-5.000 F420.000
G1 X247.368 Y-117.328 Z-5.000 F420.000
G1 X247.321 Y-115.648 Z-5.000 F420.000
G1 X247.357 Y-114.002 Z-5.000 F420.000
G1 X247.469 Y-112.125 Z-5.000 F420.000
G1 X247.667 Y-109.994 Z-5.000 F420.000
G1 X247.962 Y-107.590 Z-5.000 F420.000
G1 X248.364 Y-104.892 Z-5.000 F420.000
G1 X248.883 Y-101.882 Z-5.000 F420.000
G1 X249.527 Y-98.536 Z-5.000 F420.000
G1 X250.308 Y-94.829 Z-5.000 F420.000
G1 X251.241 Y-90.694 Z-5.000 F420.000
G1 X252.425 Y-85.609 Z-5.000 F420.000
G1 X252.808 Y-83.796 Z-5.000 F420.000
G1 X251.356 Y-83.832 Z-5.000 F420.000
G1 X250.167 Y-83.933 Z-5.000 F420.000
G1 X249.186 Y-84.086 Z-5.000 F420.000
G1 X248.368 Y-84.285 Z-5.000 F420.000
G1 X247.681 Y-84.525 Z-5.000 F420.000
G1 X247.098 Y-84.803 Z-5.000 F420.000
G1 X246.599 Y-85.120 Z-5.000 F420.000
G1 X246.167 Y-85.479 Z-5.000 F420.000
G1 X245.788 Y-85.886 Z-5.000 F420.000
G1 X245.451 Y-86.353 Z-5.000 F420.000
G1 X245.147 Y-86.896 Z-5.000 F420.000
G1 X244.869 Y-87.540 Z-5.000 F420.000
G1 X244.606 Y-88.328 Z-5.000 F420.000
G1 X244.342 Y-89.338 Z-5.000 F420.000
G1 X244.230 Y-89.833 Z-5.000 F420.000
G1 X244.121 Y-90.349 Z-5.000 F420.000
G1 X243.235 Y-95.118 Z-5.000 F420.000
G1 X242.580 Y-99.004 Z-5.000 F420.000
G1 X242.102 Y-102.270 Z-5.000 F420.000
G1 X241.762 Y-105.108 Z-5.000 F420.000
G1 X241.538 Y-107.611 Z-5.000 F420.000
G1 X241.414 Y-109.825 Z-5.000 F420.000
G1 X241.378 Y-111.685 Z-5.000 F420.000
G1 X241.417 Y-113.303 Z-5.000 F420.000
G1 X241.530 Y-114.813 Z-5.000 F420.000
G1 X241.711 Y-116.198 Z-5.000 F420.000
G1 X241.951 Y-117.457 Z-5.000 F420.000
G1 X242.244 Y-118.594 Z-5.000 F420.000
G1 X242.584 Y-119.616 Z-5.000 F420.000
G1 X242.966 Y-120.530 Z-5.000 F420.000
G1 X243.387 Y-121.343 Z-5.000 F420.000
G1 X243.843 Y-122.063 Z-5.000 F420.000
G1 X244.332 Y-122.698 Z-5.000 F420.000
G1 X244.852 Y-123.252 Z-5.000 F420.000
G1 X245.405 Y-123.733 Z-5.000 F420.000
G1 X245.991 Y-124.144 Z-5.000 F420.000
G1 X246.611 Y-124.489 Z-5.000 F420.000
G1 X247.269 Y-124.770 Z-5.000 F420.000
G1 X247.968 Y-124.988 Z-5.000 F420.000
G1 X248.713 Y-125.142 Z-5.000 F420.000
G1 X249.507 Y-125.230 Z-5.000 F420.000
G1 X250.369 Y-125.249 Z-5.000 F420.000
G0 Z12.000
G0 Z12.000
G0 X145.427 Y-314.078
G0 Z0.000
G1 X145.427 Y-314.078 Z-5.000 F420.000
G1 X146.077 Y-315.884 Z-5.000 F420.000
G1 X146.803 Y-317.676 Z-5.000 F420.000
G1 X147.592 Y-319.429 Z-5.000 F420.000
G1 X148.435 Y-321.121 Z-5.000 F420.000
G1 X149.324 Y-322.736 Z-5.000 F420.000
G1 X150.250 Y-324.265 Z-5.000 F420.000
G1 X151.205 Y-325.701 Z-5.000 F420.000
G1 X152.185 Y-327.040 Z-5.000 F420.000
G1 X153.184 Y-328.280 Z-5.000 F420.000
G1 X154.198 Y-329.421 Z-5.000 F420.000
G1 X155.225 Y-330.465 Z-5.000 F420.000
G1 X156.261 Y-331.414 Z-5.000 F420.000
G1 X157.306 Y-332.270 Z-5.000 F420.000
G1 X158.357 Y-333.037 Z-5.000 F420.000
G1 X159.414 Y-333.717 Z-5.000 F420.000
G1 X160.476 Y-334.314 Z-5.000 F420.000
G1 X161.545 Y-334.829 Z-5.000 F420.000
G1 X162.620 Y-335.266 Z-5.000 F420.000
G1 X163.702 Y-335.626 Z-5.000 F420.000
G1 X164.792 Y-335.911 Z-5.000 F420.000
G1 X165.893 Y-336.123 Z-5.000 F420.000
G1 X167.004 Y-336.262 Z-5.000 F420.000
G1 X168.135 Y-336.329 Z-5.000 F420.000
G1 X169.349 Y-336.318 Z-5.000 F420.000
G1 X170.583 Y-336.234 Z-5.000 F420.000
G1 X171.837 Y-336.077 Z-5.000 F420.000
G1 X173.115 Y-335.844 Z-5.000 F420.000
G1 X174.419 Y-335.532 Z-5.000 F420.000
G1 X175.751 Y-335.139 Z-5.000 F420.000
G1 X177.113 Y-334.662 Z-5.000 F420.000
G1 X178.509 Y-334.096 Z-5.000 F420.000
G1 X179.940 Y-333.437 Z-5.000 F420.000
G1 X181.409 Y-332.681 Z-5.000 F420.000
G1 X182.918 Y-331.823 Z-5.000 F420.000
G1 X184.469 Y-330.858 Z-5.000 F420.000
G1 X186.065 Y-329.779 Z-5.000 F420.000
G1 X187.708 Y-328.581 Z-5.000 F420.000
G1 X188.972 Y-327.601 Z-5.000 F420.000
G1 X190.233 Y-326.575 Z-5.000 F420.000
G1 X191.264 Y-326.604 Z-5.000 F420.000
G1 X192.904 Y-326.700 Z-5.000 F420.000
G1 X193.397 Y-326.720 Z-5.000 F420.000
G1 X193.890 Y-326.727 Z-5.000 F420.000
G1 X195.635 Y-326.691 Z-5.000 F420.000
G1 X197.392 Y-326.582 Z-5.000 F420.000
G1 X199.157 Y-326.400 Z-5.000 F420.000
G1 X200.926 Y-326.145 Z-5.000 F420.000
G1 X202.695 Y-325.817 Z-5.000 F420.000
G1 X204.460 Y-325.415 Z-5.000 F420.000
G1 X206.215 Y-324.941 Z-5.000 F420.000
G1 X207.956 Y-324.396 Z-5.000 F420.000
G1 X209.678 Y-323.781 Z-5.000 F420.000
G1 X211.376 Y-323.097 Z-5.000 F420.000
G1 X213.044 Y-322.347 Z-5.000 F420.000
G1 X214.679 Y-321.532 Z-5.000 F420.000
G1 X216.275 Y-320.655 Z-5.000 F420.000
G1 X217.828 Y-319.719 Z-5.000 F420.000
G1 X219.333 Y-318.727 Z-5.000 F420.000
G1 X220.788 Y-317.681 Z-5.000 F420.000
G1 X222.187 Y-316.584 Z-5.000 F420.000
G1 X223.529 Y-315.441 Z-5.000 F420.000
G1 X224.810 Y-314.253 Z-5.000 F420.000
G1 X226.028 Y-313.024 Z-5.000 F420.000
G1 X227.181 Y-311.757 Z-5.000 F420.000
G1 X228.267 Y-310.456 Z-5.000 F420.000
G1 X229.286 Y-309.122 Z-5.000 F420.000
G1 X230.235 Y-307.758 Z-5.000 F420.000
G1 X231.114 Y-306.366 Z-5.000 F420.000
G1 X231.922 Y-304.950 Z-5.000 F420.000
G1 X232.660 Y-303.510 Z-5.000 F420.000
G1 X233.326 Y-302.049 Z-5.000 F420.000
G1 X233.921 Y-300.568 Z-5.000 F420.000
G1 X234.445 Y-299.068 Z-5.000 F420.000
G1 X234.897 Y-297.551 Z-5.000 F420.000
G1 X235.278 Y-296.017 Z-5.000 F420.000
G1 X235.587 Y-294.467 Z-5.000 F420.000
G1 X235.824 Y-292.902 Z-5.000 F420.000
G1 X235.990 Y-291.323 Z-5.000 F420.000
G1 X236.083 Y-289.729 Z-5.000 F420.000
G1 X236.105 Y-288.475 Z-5.000 F420.000
G1 X236.069 Y-286.979 Z-5.000 F420.000
G1 X235.961 Y-285.452 Z-5.000 F420.000
G1 X235.779 Y-283.887 Z-5.000 F420.000
G1 X235.519 Y-282.278 Z-5.000 F420.000
G1 X235.178 Y-280.616 Z-5.000 F420.000
G1 X234.752 Y-278.890 Z-5.000 F420.000
G1 X234.233 Y-277.088 Z-5.000 F420.000
G1 X233.614 Y-275.192 Z-5.000 F420.000
G1 X232.882 Y-273.178 Z-5.000 F420.000
G1 X232.019 Y-271.008 Z-5.000 F420.000
G1 X230.995 Y-268.619 Z-5.000 F420.000
G1 X230.283 Y-267.038 Z-5.000 F420.000
G1 X229.552 Y-265.463 Z-5.000 F420.000
G1 X230.820 Y-262.000 Z-5.000 F420.000
G1 X231.989 Y-258.600 Z-5.000 F420.000
G1 X233.054 Y-255.278 Z-5.000 F420.000
G1 X234.012 Y-252.052 Z-5.000 F420.000
G1 X234.863 Y-248.936 Z-5.000 F420.000
G1 X235.605 Y-245.942 Z-5.000 F420.000
G1 X236.239 Y-243.081 Z-5.000 F420.000
G1 X236.769 Y-240.360 Z-5.000 F420.000
G1 X237.196 Y-237.785 Z-5.000 F420.000
G1 X237.525 Y-235.360 Z-5.000 F420.000
G1 X237.761 Y-233.087 Z-5.000 F420.000
G1 X237.908 Y-230.964 Z-5.000 F420.000
G1 X237.973 Y-228.992 Z-5.000 F420.000
G1 X237.934 Y-226.448 Z-5.000 F420.000
G1 X237.800 Y-224.784 Z-5.000 F420.000
G1 X237.615 Y-223.392 Z-5.000 F420.000
G1 X237.382 Y-222.194 Z-5.000 F420.000
G1 X237.102 Y-221.152 Z-5.000 F420.000
G1 X236.781 Y-220.246 Z-5.000 F420.000
G1 X236.423 Y-219.456 Z-5.000 F420.000
G1 X236.029 Y-218.767 Z-5.000 F420.000
G1 X235.600 Y-218.167 Z-5.000 F420.000
G1 X235.136 Y-217.645 Z-5.000 F420.000
G1 X234.636 Y-217.194 Z-5.000 F420.000
G1 X234.098 Y-216.808 Z-5.000 F420.000
G1 X233.518 Y-216.485 Z-5.000 F420.000
G1 X232.893 Y-216.221 Z-5.000 F420.000
G1 X232.216 Y-216.016 Z-5.000 F420.000
G1 X231.482 Y-215.873 Z-5.000 F420.000
G1 X230.684 Y-215.793 Z-5.000 F420.000
G1 X229.857 Y-215.780 Z-5.000 F420.000
G1 X228.558 Y-215.814 Z-5.000 F420.000
G1 X227.287 Y-215.916 Z-5.000 F420.000
G1 X225.918 Y-216.092 Z-5.000 F420.000
G1 X224.119 Y-216.384 Z-5.000 F420.000
G1 X222.483 Y-216.655 Z-5.000 F420.000
G1 X220.336 Y-216.958 Z-5.000 F420.000
G1 X218.182 Y-217.183 Z-5.000 F420.000
G1 X215.886 Y-217.341 Z-5.000 F420.000
G1 X213.376 Y-217.432 Z-5.000 F420.000
G1 X211.111 Y-217.457 Z-5.000 F420.000
G0 Z12.000
G0 Z12.000
G0 X188.709 Y-189.720
G0 Z0.000
G1 X188.709 Y-189.720 Z-5.000 F420.000
G1 X190.219 Y-189.407 Z-5.000 F420.000
G1 X191.650 Y-189.184 Z-5.000 F420.000
G1 X193.005 Y-189.045 Z-5.000 F420.000
G1 X194.290 Y-188.985 Z-5.000 F420.000
G1 X195.506 Y-189.000 Z-5.000 F420.000
G1 X196.657 Y-189.085 Z-5.000 F420.000
G1 X197.748 Y-189.238 Z-5.000 F420.000
G1 X198.782 Y-189.456 Z-5.000 F420.000
G1 X199.762 Y-189.735 Z-5.000 F420.000
G1 X200.690 Y-190.075 Z-5.000 F420.000
G1 X201.571 Y-190.474 Z-5.000 F420.000
G1 X202.406 Y-190.931 Z-5.000 F420.000
G1 X203.197 Y-191.448 Z-5.000 F420.000
G1 X203.948 Y-192.023 Z-5.000 F420.000
G1 X204.658 Y-192.659 Z-5.000 F420.000
G1 X205.329 Y-193.357 Z-5.000 F420.000
G1 X205.961 Y-194.120 Z-5.000 F420.000
G1 X206.555 Y-194.950 Z-5.000 F420.000
G1 X207.110 Y-195.851 Z-5.000 F420.000
G1 X207.625 Y-196.824 Z-5.000 F420.000
G1 X208.097 Y-197.875 Z-5.000 F420.000
G1 X208.526 Y-199.006 Z-5.000 F420.000
G1 X208.909 Y-200.222 Z-5.000 F420.000
G1 X209.242 Y-201.524 Z-5.000 F420.000
G1 X209.524 Y-202.917 Z-5.000 F420.000
G1 X209.750 Y-204.403 Z-5.000 F420.000
G1 X209.916 Y-205.985 Z-5.000 F420.000
G1 X209.998 Y-207.209 Z-5.000 F420.000
G1 X210.045 Y-208.465 Z-5.000 F420.000
G1 X210.085 Y-209.879 Z-5.000 F420.000
G1 X210.060 Y-211.458 Z-5.000 F420.000
G1 X209.963 Y-213.272 Z-5.000 F420.000
G1 X209.780 Y-215.484 Z-5.000 F420.000
G1 X209.587 Y-217.457 Z-5.000 F420.000
G1 X206.894 Y-217.398 Z-5.000 F420.000
G1 X204.090 Y-217.267 Z-5.000 F420.000
G1 X201.139 Y-217.059 Z-5.000 F420.000
G1 X197.990 Y-216.767 Z-5.000 F420.000
G1 X194.554 Y-216.380 Z-5.000 F420.000
G1 X190.655 Y-215.873 Z-5.000 F420.000
G1 X185.832 Y-215.183 Z-5.000 F420.000
G1 X177.690 Y-213.996 Z-5.000 F420.000
G1 X173.308 Y-213.422 Z-5.000 F420.000
G1 X169.649 Y-213.014 Z-5.000 F420.000
G1 X166.399 Y-212.728 Z-5.000 F420.000
G1 X163.432 Y-212.543 Z-5.000 F420.000
G1 X160.679 Y-212.447 Z-5.000 F420.000
G1 X158.838 Y-212.427 Z-5.000 F420.000
G1 X156.597 Y-212.441 Z-5.000 F420.000
G1 X154.416 Y-212.526 Z-5.000 F420.000
G1 X152.294 Y-212.681 Z-5.000 F420.000
G1 X150.231 Y-212.903 Z-5.000 F420.000
G1 X148.226 Y-213.191 Z-5.000 F420.000
G1 X146.279 Y-213.544 Z-5.000 F420.000
G1 X144.388 Y-213.959 Z-5.000 F420.000
G1 X142.553 Y-214.435 Z-5.000 F420.000
G1 X140.775 Y-214.972 Z-5.000 F420.000
G1 X139.051 Y-215.566 Z-5.000 F420.000
G1 X137.383 Y-216.218 Z-5.000 F420.000
G1 X135.769 Y-216.925 Z-5.000 F420.000
G1 X134.209 Y-217.688 Z-5.000 F420.000
G1 X132.704 Y-218.503 Z-5.000 F420.000
G1 X131.252 Y-219.372 Z-5.000 F420.000
G1 X129.855 Y-220.292 Z-5.000 F420.000
G1 X128.513 Y-221.262 Z-5.000 F420.000
G1 X127.224 Y-222.281 Z-5.000 F420.000
G1 X125.991 Y-223.349 Z-5.000 F420.000
G1 X124.813 Y-224.465 Z-5.000 F420.000
G1 X123.692 Y-225.626 Z-5.000 F420.000
G1 X122.627 Y-226.833 Z-5.000 F420.000
G1 X121.619 Y-228.083 Z-5.000 F420.000
G1 X120.671 Y-229.375 Z-5.000 F420.000
G1 X119.782 Y-230.709 Z-5.000 F420.000
G1 X118.953 Y-232.081 Z-5.000 F420.000
G1 X118.187 Y-233.490 Z-5.000 F420.000
G1 X117.484 Y-234.935 Z-5.000 F420.000
G1 X116.845 Y-236.412 Z-5.000 F420.000
G1 X116.272 Y-237.919 Z-5.000 F420.000
G1 X115.766 Y-239.453 Z-5.000 F420.000
G1 X115.329 Y-241.012 Z-5.000 F420.000
G1 X114.960 Y-242.591 Z-5.000 F420.000
G1 X114.663 Y-244.188 Z-5.000 F420.000
G1 X114.436 Y-245.799 Z-5.000 F420.000
G1 X114.281 Y-247.418 Z-5.000 F420.000
G1 X114.198 Y-249.044 Z-5.000 F420.000
G1 X114.185 Y-250.375 Z-5.000 F420.000
G1 X114.234 Y-252.057 Z-5.000 F420.000
G1 X114.354 Y-253.707 Z-5.000 F420.000
G1 X114.544 Y-255.322 Z-5.000 F420.000
G1 X114.803 Y-256.904 Z-5.000 F420.000
G1 X115.129 Y-258.451 Z-5.000 F420.000
G1 X115.521 Y-259.963 Z-5.000 F420.000
G1 X115.979 Y-261.438 Z-5.000 F420.000
G1 X116.500 Y-262.878 Z-5.000 F420.000
G1 X117.086 Y-264.279 Z-5.000 F420.000
G1 X117.733 Y-265.643 Z-5.000 F420.000
G1 X118.442 Y-266.967 Z-5.000 F420.000
G1 X119.212 Y-268.251 Z-5.000 F420.000
G1 X120.041 Y-269.494 Z-5.000 F420.000
G1 X120.930 Y-270.695 Z-5.000 F420.000
G1 X121.876 Y-271.853 Z-5.000 F420.000
G1 X122.879 Y-272.965 Z-5.000 F420.000
G1 X123.939 Y-274.032 Z-5.000 F420.000
G1 X125.054 Y-275.051 Z-5.000 F420.000
G1 X126.223 Y-276.020 Z-5.000 F420.000
G1 X127.444 Y-276.940 Z-5.000 F420.000
G1 X128.718 Y-277.807 Z-5.000 F420.000
G1 X130.041 Y-278.620 Z-5.000 F420.000
G1 X131.414 Y-279.378 Z-5.000 F420.000
G1 X132.834 Y-280.079 Z-5.000 F420.000
G1 X134.299 Y-280.721 Z-5.000 F420.000
G1 X135.809 Y-281.303 Z-5.000 F420.000
G1 X137.361 Y-281.823 Z-5.000 F420.000
G1 X138.953 Y-282.279 Z-5.000 F420.000
G1 X140.583 Y-282.670 Z-5.000 F420.000
G1 X142.250 Y-282.995 Z-5.000 F420.000
G1 X143.950 Y-283.252 Z-5.000 F420.000
G1 X145.682 Y-283.440 Z-5.000 F420.000
G1 X147.445 Y-283.557 Z-5.000 F420.000
G1 X148.780 Y-283.598 Z-5.000 F420.000
G1 X150.481 Y-283.562 Z-5.000 F420.000
G1 X152.198 Y-283.455 Z-5.000 F420.000
G1 X153.946 Y-283.274 Z-5.000 F420.000
G1 X155.739 Y-283.016 Z-5.000 F420.000
G1 X157.597 Y-282.678 Z-5.000 F420.000
G1 X158.294 Y-282.533 Z-5.000 F420.000
G1 X158.991 Y-282.379 Z-5.000 F420.000
G1 X158.539 Y-283.779 Z-5.000 F420.000
G1 X158.156 Y-285.207 Z-5.000 F420.000
G1 X157.844 Y-286.657 Z-5.000 F420.000
G1 X157.602 Y-288.124 Z-5.000 F420.000
G1 X157.434 Y-289.602 Z-5.000 F420.000
G1 X157.338 Y-291.089 Z-5.000 F420.000
G1 X157.314 Y-292.285 Z-5.000 F420.000
G1 X157.336 Y-293.851 Z-5.000 F420.000
G1 X157.430 Y-295.398 Z-5.000 F420.000
G1 X157.595 Y-296.928 Z-5.000 F420.000
G1 X157.830 Y-298.438 Z-5.000 F420.000
G1 X158.136 Y-299.929 Z-5.000 F420.000
G1 X158.510 Y-301.399 Z-5.000 F420.000
G1 X158.954 Y-302.848 Z-5.000 F420.000
G1 X159.466 Y-304.274 Z-5.000 F420.000
G1 X160.046 Y-305.676 Z-5.000 F420.000
G1 X160.695 Y-307.053 Z-5.000 F420.000
G1 X161.410 Y-308.404 Z-5.000 F420.000
G1 X162.192 Y-309.725 Z-5.000 F420.000
G1 X163.040 Y-311.016 Z-5.000 F420.000
G1 X163.952 Y-312.274 Z-5.000 F420.000
G1 X164.929 Y-313.496 Z-5.000 F420.000
G1 X165.968 Y-314.681 Z-5.000 F420.000
G1 X167.068 Y-315.826 Z-5.000 F420.000
G1 X168.227 Y-316.927 Z-5.000 F420.000
G1 X169.444 Y-317.983 Z-5.000 F420.000
G1 X170.714 Y-318.990 Z-5.000 F420.000
G1 X172.037 Y-319.945 Z-5.000 F420.000
G1 X173.408 Y-320.846 Z-5.000 F420.000
G1 X174.824 Y-321.689 Z-5.000 F420.000
G1 X176.282 Y-322.473 Z-5.000 F420.000
G1 X177.778 Y-323.195 Z-5.000 F420.000
G1 X179.308 Y-323.852 Z-5.000 F420.000
G1 X180.867 Y-324.443 Z-5.000 F420.000
G1 X182.452 Y-324.965 Z-5.000 F420.000
G1 X184.058 Y-325.418 Z-5.000 F420.000
G1 X184.553 Y-325.543 Z-5.000 F420.000
G1 X185.051 Y-325.661 Z-5.000 F420.000
G0 Z12.000
G0 Z12.000
G0 X209.283 Y-218.981
G0 Z0.000
G1 X209.283 Y-218.981 Z-5.000 F420.000
G1 X208.895 Y-221.154 Z-5.000 F420.000
G1 X208.428 Y-223.365 Z-5.000 F420.000
G1 X207.878 Y-225.609 Z-5.000 F420.000
G1 X207.248 Y-227.882 Z-5.000 F420.000
G1 X206.535 Y-230.177 Z-5.000 F420.000
G1 X205.742 Y-232.487 Z-5.000 F420.000
G1 X204.869 Y-234.806 Z-5.000 F420.000
G1 X203.917 Y-237.127 Z-5.000 F420.000
G1 X202.889 Y-239.442 Z-5.000 F420.000
G1 X201.787 Y-241.744 Z-5.000 F420.000
G1 X200.615 Y-244.025 Z-5.000 F420.000
G1 X199.375 Y-246.278 Z-5.000 F420.000
G1 X198.072 Y-248.495 Z-5.000 F420.000
G1 X196.709 Y-250.669 Z-5.000 F420.000
G1 X195.292 Y-252.794 Z-5.000 F420.000
G1 X193.824 Y-254.862 Z-5.000 F420.000
G1 X192.310 Y-256.870 Z-5.000 F420.000
G1 X190.756 Y-258.811 Z-5.000 F420.000
G1 X189.775 Y-259.976 Z-5.000 F420.000
G1 X188.123 Y-260.103 Z-5.000 F420.000
G1 X186.487 Y-260.301 Z-5.000 F420.000
G1 X184.869 Y-260.570 Z-5.000 F420.000
G1 X183.272 Y-260.908 Z-5.000 F420.000
G1 X181.698 Y-261.315 Z-5.000 F420.000
G1 X180.150 Y-261.791 Z-5.000 F420.000
G1 X178.631 Y-262.333 Z-5.000 F420.000
G1 X177.144 Y-262.940 Z-5.000 F420.000
G1 X175.691 Y-263.612 Z-5.000 F420.000
G1 X174.275 Y-264.346 Z-5.000 F420.000
G1 X172.900 Y-265.141 Z-5.000 F420.000
G1 X171.568 Y-265.995 Z-5.000 F420.000
G1 X170.282 Y-266.905 Z-5.000 F420.000
G1 X169.045 Y-267.870 Z-5.000 F420.000
G1 X167.859 Y-268.886 Z-5.000 F420.000
G1 X166.727 Y-269.952 Z-5.000 F420.000
G1 X165.651 Y-271.065 Z-5.000 F420.000
G1 X164.634 Y-272.222 Z-5.000 F420.000
G1 X163.677 Y-273.421 Z-5.000 F420.000
G1 X162.783 Y-274.658 Z-5.000 F420.000
G1 X161.952 Y-275.931 Z-5.000 F420.000
G1 X161.187 Y-277.238 Z-5.000 F420.000
G1 X160.488 Y-278.575 Z-5.000 F420.000
G1 X160.027 Y-279.554 Z-5.000 F420.000
G1 X159.600 Y-280.550 Z-5.000 F420.000
G0 Z12.000
G0 Z12.000
G0 X223.761 Y-218.219
G0 Z0.000
G1 X223.761 Y-218.219 Z-5.000 F420.000
G1 X223.057 Y-218.808 Z-5.000 F420.000
G1 X222.382 Y-219.471 Z-5.000 F420.000
G1 X221.740 Y-220.205 Z-5.000 F420.000
G1 X221.134 Y-221.011 Z-5.000 F420.000
G1 X220.568 Y-221.886 Z-5.000 F420.000
G1 X220.045 Y-222.831 Z-5.000 F420.000
G1 X219.570 Y-223.844 Z-5.000 F420.000
G1 X219.144 Y-224.926 Z-5.000 F420.000
G1 X218.772 Y-226.074 Z-5.000 F420.000
G1 X218.456 Y-227.290 Z-5.000 F420.000
G1 X218.200 Y-228.572 Z-5.000 F420.000
G1 X218.007 Y-229.920 Z-5.000 F420.000
G1 X217.880 Y-231.334 Z-5.000 F420.000
G1 X217.817 Y-233.306 Z-5.000 F420.000
G1 X217.852 Y-235.127 Z-5.000 F420.000
G1 X217.962 Y-237.082 Z-5.000 F420.000
G1 X218.151 Y-239.176 Z-5.000 F420.000
G1 X218.424 Y-241.415 Z-5.000 F420.000
G1 X218.786 Y-243.804 Z-5.000 F420.000
G1 X219.243 Y-246.347 Z-5.000 F420.000
G1 X219.799 Y-249.046 Z-5.000 F420.000
G1 X220.458 Y-251.904 Z-5.000 F420.000
G1 X221.223 Y-254.921 Z-5.000 F420.000
G1 X222.096 Y-258.096 Z-5.000 F420.000
G1 X223.081 Y-261.436 Z-5.000 F420.000
G1 X224.185 Y-264.987 Z-5.000 F420.000
G1 X224.675 Y-266.529 Z-5.000 F420.000
G1 X222.613 Y-270.911 Z-5.000 F420.000
G1 X220.780 Y-274.635 Z-5.000 F420.000
G1 X219.768 Y-276.610 Z-5.000 F420.000
G1 X218.731 Y-278.569 Z-5.000 F420.000
G1 X218.280 Y-277.290 Z-5.000 F420.000
G1 X217.757 Y-276.027 Z-5.000 F420.000
G1 X217.164 Y-274.785 Z-5.000 F420.000
G1 X216.502 Y-273.571 Z-5.000 F420.000
G1 X215.775 Y-272.388 Z-5.000 F420.000
G1 X214.984 Y-271.242 Z-5.000 F420.000
G1 X214.133 Y-270.136 Z-5.000 F420.000
G1 X213.223 Y-269.074 Z-5.000 F420.000
G1 X212.258 Y-268.061 Z-5.000 F420.000
G1 X211.240 Y-267.098 Z-5.000 F420.000
G1 X210.172 Y-266.189 Z-5.000 F420.000
G1 X209.056 Y-265.335 Z-5.000 F420.000
G1 X207.895 Y-264.540 Z-5.000 F420.000
G1 X206.691 Y-263.804 Z-5.000 F420.000
G1 X205.446 Y-263.129 Z-5.000 F420.000
G1 X204.162 Y-262.516 Z-5.000 F420.000
G1 X202.840 Y-261.967 Z-5.000 F420.000
G1 X201.482 Y-261.482 Z-5.000 F420.000
G1 X200.088 Y-261.063 Z-5.000 F420.000
G1 X198.660 Y-260.710 Z-5.000 F420.000
G1 X197.199 Y-260.425 Z-5.000 F420.000
G1 X195.705 Y-260.209 Z-5.000 F420.000
G1 X194.179 Y-260.063 Z-5.000 F420.000
G1 X192.620 Y-259.987 Z-5.000 F420.000
G1 X191.757 Y-259.976 Z-5.000 F420.000
G0 Z12.000
G0 Z12.000
G0 X217.817 Y-280.398
G0 Z0.000
G1 X217.817 Y-280.398 Z-5.000 F420.000
G1 X215.679 Y-284.299 Z-5.000 F420.000
G1 X213.503 Y-288.117 Z-5.000 F420.000
G1 X211.304 Y-291.829 Z-5.000 F420.000
G1 X209.093 Y-295.416 Z-5.000 F420.000
G1 X206.883 Y-298.862 Z-5.000 F420.000
G1 X204.683 Y-302.156 Z-5.000 F420.000
G1 X202.504 Y-305.289 Z-5.000 F420.000
G1 X199.529 Y-309.354 Z-5.000 F420.000
G1 X197.661 Y-311.828 Z-5.000 F420.000
G1 X195.764 Y-314.223 Z-5.000 F420.000
G1 X193.845 Y-316.529 Z-5.000 F420.000
G1 X191.915 Y-318.738 Z-5.000 F420.000
G1 X189.981 Y-320.841 Z-5.000 F420.000
G1 X188.056 Y-322.830 Z-5.000 F420.000
G1 X186.575 Y-324.289 Z-5.000 F420.000
G0 Z12.000
G0 Z12.000
G0 X289.445 Y-285.427
G0 Z0.000
G1 X289.445 Y-285.427 Z-5.000 F420.000
G1 X288.890 Y-287.235 Z-5.000 F420.000
G1 X288.145 Y-289.699 Z-5.000 F420.000
G1 X287.225 Y-292.571 Z-5.000 F420.000
G1 X286.367 Y-295.018 Z-5.000 F420.000
G1 X285.553 Y-297.118 Z-5.000 F420.000
G1 X284.773 Y-298.924 Z-5.000 F420.000
G1 X284.024 Y-300.472 Z-5.000 F420.000
G1 X283.305 Y-301.788 Z-5.000 F420.000
G1 X282.615 Y-302.894 Z-5.000 F420.000
G1 X281.955 Y-303.814 Z-5.000 F420.000
G1 X281.323 Y-304.569 Z-5.000 F420.000
G1 X280.717 Y-305.179 Z-5.000 F420.000
G1 X280.135 Y-305.662 Z-5.000 F420.000
G1 X279.575 Y-306.032 Z-5.000 F420.000
G1 X279.032 Y-306.302 Z-5.000 F420.000
G1 X278.504 Y-306.484 Z-5.000 F420.000
G1 X277.986 Y-306.585 Z-5.000 F420.000
G1 X277.773 Y-306.604 Z-5.000 F420.000
G1 X277.558 Y-306.611 Z-5.000 F420.000
G1 X277.085 Y-306.541 Z-5.000 F420.000
G1 X276.654 Y-306.405 Z-5.000 F420.000
G1 X276.261 Y-306.206 Z-5.000 F420.000
G1 X275.902 Y-305.943 Z-5.000 F420.000
G1 X275.574 Y-305.614 Z-5.000 F420.000
G1 X275.277 Y-305.211 Z-5.000 F420.000
G1 X275.013 Y-304.730 Z-5.000 F420.000
G1 X274.785 Y-304.161 Z-5.000 F420.000
G1 X274.598 Y-303.499 Z-5.000 F420.000
G1 X274.460 Y-302.736 Z-5.000 F420.000
G1 X274.378 Y-301.868 Z-5.000 F420.000
G1 X274.362 Y-301.501 Z-5.000 F420.000
G1 X274.357 Y-301.124 Z-5.000 F420.000
G1 X274.392 Y-299.736 Z-5.000 F420.000
G1 X274.499 Y-298.252 Z-5.000 F420.000
G1 X274.686 Y-296.635 Z-5.000 F420.000
G1 X274.964 Y-294.819 Z-5.000 F420.000
G1 X275.361 Y-292.652 Z-5.000 F420.000
G1 X275.980 Y-289.574 Z-5.000 F420.000
G1 X276.480 Y-286.990 Z-5.000 F420.000
G1 X276.841 Y-284.799 Z-5.000 F420.000
G1 X277.074 Y-282.938 Z-5.000 F420.000
G1 X277.207 Y-281.269 Z-5.000 F420.000
G1 X277.253 Y-279.636 Z-5.000 F420.000
G1 X277.216 Y-278.486 Z-5.000 F420.000
G1 X277.108 Y-277.363 Z-5.000 F420.000
G1 X276.930 Y-276.277 Z-5.000 F420.000
G1 X276.686 Y-275.237 Z-5.000 F420.000
G1 X276.380 Y-274.250 Z-5.000 F420.000
G1 X276.014 Y-273.321 Z-5.000 F420.000
G1 X275.595 Y-272.452 Z-5.000 F420.000
G1 X275.125 Y-271.647 Z-5.000 F420.000
G1 X274.608 Y-270.907 Z-5.000 F420.000
G1 X274.047 Y-270.232 Z-5.000 F420.000
G1 X273.444 Y-269.621 Z-5.000 F420.000
G1 X272.801 Y-269.074 Z-5.000 F420.000
G1 X272.119 Y-268.591 Z-5.000 F420.000
G1 X271.398 Y-268.170 Z-5.000 F420.000
G1 X270.638 Y-267.811 Z-5.000 F420.000
G1 X269.837 Y-267.516 Z-5.000 F420.000
G1 X268.996 Y-267.284 Z-5.000 F420.000
G1 X268.111 Y-267.117 Z-5.000 F420.000
G1 X267.181 Y-267.017 Z-5.000 F420.000
G1 X266.280 Y-266.987 Z-5.000 F420.000
G1 X265.434 Y-267.022 Z-5.000 F420.000
G1 X264.617 Y-267.129 Z-5.000 F420.000
G1 X263.825 Y-267.303 Z-5.000 F420.000
G1 X263.055 Y-267.547 Z-5.000 F420.000
G1 X262.303 Y-267.860 Z-5.000 F420.000
G1 X261.566 Y-268.244 Z-5.000 F420.000
G1 X260.843 Y-268.702 Z-5.000 F420.000
G1 X260.130 Y-269.239 Z-5.000 F420.000
G1 X259.427 Y-269.859 Z-5.000 F420.000
G1 X258.731 Y-270.567 Z-5.000 F420.000
G1 X258.042 Y-271.371 Z-5.000 F420.000
G1 X257.359 Y-272.278 Z-5.000 F420.000
G1 X256.682 Y-273.297 Z-5.000 F420.000
G1 X256.009 Y-274.438 Z-5.000 F420.000
G1 X255.340 Y-275.711 Z-5.000 F420.000
G1 X254.850 Y-276.740 Z-5.000 F420.000
G1 X255.940 Y-271.226 Z-5.000 F420.000
G1 X257.288 Y-265.005 Z-5.000 F420.000
G1 X259.244 Y-263.674 Z-5.000 F420.000
G1 X261.268 Y-262.207 Z-5.000 F420.000
G1 X263.320 Y-260.627 Z-5.000 F420.000
G1 X265.361 Y-258.962 Z-5.000 F420.000
G1 X267.359 Y-257.235 Z-5.000 F420.000
G1 X269.290 Y-255.469 Z-5.000 F420.000
G1 X271.131 Y-253.684 Z-5.000 F420.000
G1 X272.870 Y-251.895 Z-5.000 F420.000
G1 X274.496 Y-250.115 Z-5.000 F420.000
G1 X276.004 Y-248.356 Z-5.000 F420.000
G1 X277.390 Y-246.625 Z-5.000 F420.000
G1 X278.655 Y-244.928 Z-5.000 F420.000
G1 X279.800 Y-243.269 Z-5.000 F420.000
G1 X280.826 Y-241.653 Z-5.000 F420.000
G1 X281.738 Y-240.079 Z-5.000 F420.000
G1 X282.539 Y-238.551 Z-5.000 F420.000
G1 X283.233 Y-237.067 Z-5.000 F420.000
G1 X283.826 Y-235.628 Z-5.000 F420.000
G1 X284.322 Y-234.234 Z-5.000 F420.000
G1 X284.724 Y-232.882 Z-5.000 F420.000
G1 X285.038 Y-231.571 Z-5.000 F420.000
G1 X285.267 Y-230.300 Z-5.000 F420.000
G1 X285.415 Y-229.067 Z-5.000 F420.000
G1 X285.457 Y-228.519 Z-5.000 F420.000
G1 X285.482 Y-227.972 Z-5.000 F420.000
G1 X285.476 Y-226.968 Z-5.000 F420.000
G1 X285.396 Y-225.977 Z-5.000 F420.000
G1 X285.246 Y-225.015 Z-5.000 F420.000
G1 X285.028 Y-224.093 Z-5.000 F420.000
G1 X284.747 Y-223.221 Z-5.000 F420.000
G1 X284.408 Y-222.407 Z-5.000 F420.000
G1 X284.016 Y-221.656 Z-5.000 F420.000
G1 X283.576 Y-220.970 Z-5.000 F420.000
G1 X283.091 Y-220.351 Z-5.000 F420.000
G1 X282.566 Y-219.800 Z-5.000 F420.000
G1 X282.003 Y-219.315 Z-5.000 F420.000
G1 X281.404 Y-218.897 Z-5.000 F420.000
G1 X280.769 Y-218.543 Z-5.000 F420.000
G1 X280.098 Y-218.254 Z-5.000 F420.000
G1 X279.389 Y-218.030 Z-5.000 F420.000
G1 X278.643 Y-217.872 Z-5.000 F420.000
G1 X277.856 Y-217.781 Z-5.000 F420.000
G1 X277.409 Y-217.760 Z-5.000 F420.000
G1 X276.948 Y-217.761 Z-5.000 F420.000
G1 X276.043 Y-217.824 Z-5.000 F420.000
G1 X275.149 Y-217.957 Z-5.000 F420.000
G1 X274.263 Y-218.163 Z-5.000 F420.000
G1 X273.382 Y-218.441 Z-5.000 F420.000
G1 X272.505 Y-218.795 Z-5.000 F420.000
G1 X271.628 Y-219.226 Z-5.000 F420.000
G1 X270.749 Y-219.739 Z-5.000 F420.000
G1 X269.868 Y-220.338 Z-5.000 F420.000
G1 X268.981 Y-221.029 Z-5.000 F420.000
G1 X268.089 Y-221.816 Z-5.000 F420.000
G1 X267.189 Y-222.706 Z-5.000 F420.000
G1 X266.282 Y-223.706 Z-5.000 F420.000
G1 X265.366 Y-224.824 Z-5.000 F420.000
G1 X264.441 Y-226.067 Z-5.000 F420.000
G1 X263.507 Y-227.444 Z-5.000 F420.000
G1 X262.565 Y-228.962 Z-5.000 F420.000
G1 X261.614 Y-230.633 Z-5.000 F420.000
G1 X260.654 Y-232.464 Z-5.000 F420.000
G1 X259.687 Y-234.466 Z-5.000 F420.000
G1 X258.712 Y-236.650 Z-5.000 F420.000
G1 X257.731 Y-239.026 Z-5.000 F420.000
G1 X256.743 Y-241.606 Z-5.000 F420.000
G1 X255.750 Y-244.401 Z-5.000 F420.000
G1 X254.751 Y-247.424 Z-5.000 F420.000
G1 X253.748 Y-250.690 Z-5.000 F420.000
G1 X252.740 Y-254.213 Z-5.000 F420.000
G1 X251.726 Y-258.012 Z-5.000 F420.000
G1 X250.707 Y-262.108 Z-5.000 F420.000
G1 X249.678 Y-266.529 Z-5.000 F420.000
G1 X248.636 Y-271.315 Z-5.000 F420.000
G1 X247.569 Y-276.531 Z-5.000 F420.000
G1 X246.455 Y-282.306 Z-5.000 F420.000
G1 X245.231 Y-288.976 Z-5.000 F420.000
G1 X244.107 Y-295.252 Z-5.000 F420.000
G1 X243.115 Y-300.667 Z-5.000 F420.000
G1 X242.904 Y-302.039 Z-5.000 F420.000
G1 X242.811 Y-303.096 Z-5.000 F420.000
G1 X242.806 Y-303.958 Z-5.000 F420.000
G1 X242.876 Y-304.681 Z-5.000 F420.000
G1 X243.009 Y-305.295 Z-5.000 F420.000
G1 X243.199 Y-305.821 Z-5.000 F420.000
G1 X243.443 Y-306.278 Z-5.000 F420.000
G1 X243.740 Y-306.679 Z-5.000 F420.000
G1 X244.095 Y-307.031 Z-5.000 F420.000
G1 X244.513 Y-307.341 Z-5.000 F420.000
G1 X245.003 Y-307.611 Z-5.000 F420.000
G1 X245.578 Y-307.842 Z-5.000 F420.000
G1 X246.250 Y-308.030 Z-5.000 F420.000
G1 X247.035 Y-308.171 Z-5.000 F420.000
G1 X247.952 Y-308.260 Z-5.000 F420.000
G1 X248.906 Y-308.287 Z-5.000 F420.000
G0 Z12.000
G0 Z12.000
G0 X334.555 Y-285.427
G0 Z0.000
G1 X334.555 Y-285.427 Z-5.000 F420.000
G1 X334.042 Y-287.112 Z-5.000 F420.000
G1 X333.073 Y-290.350 Z-5.000 F420.000
G1 X332.185 Y-293.120 Z-5.000 F420.000
G1 X331.356 Y-295.471 Z-5.000 F420.000
G1 X330.566 Y-297.490 Z-5.000 F420.000
G1 X329.807 Y-299.226 Z-5.000 F420.000
G1 X329.075 Y-300.714 Z-5.000 F420.000
G1 X328.370 Y-301.979 Z-5.000 F420.000
G1 X327.693 Y-303.042 Z-5.000 F420.000
G1 X327.042 Y-303.927 Z-5.000 F420.000
G1 X326.416 Y-304.654 Z-5.000 F420.000
G1 X325.814 Y-305.241 Z-5.000 F420.000
G1 X325.232 Y-305.706 Z-5.000 F420.000
G1 X324.670 Y-306.063 Z-5.000 F420.000
G1 X324.123 Y-306.323 Z-5.000 F420.000
G1 X323.588 Y-306.496 Z-5.000 F420.000
G1 X323.061 Y-306.590 Z-5.000 F420.000
G1 X322.865 Y-306.605 Z-5.000 F420.000
G1 X322.668 Y-306.611 Z-5.000 F420.000
G1 X322.205 Y-306.547 Z-5.000 F420.000
G1 X321.784 Y-306.418 Z-5.000 F420.000
G1 X321.399 Y-306.225 Z-5.000 F420.000
G1 X321.044 Y-305.966 Z-5.000 F420.000
G1 X320.715 Y-305.636 Z-5.000 F420.000
G1 X320.411 Y-305.226 Z-5.000 F420.000
G1 X320.130 Y-304.727 Z-5.000 F420.000
G1 X319.875 Y-304.125 Z-5.000 F420.000
G1 X319.650 Y-303.405 Z-5.000 F420.000
G1 X319.460 Y-302.550 Z-5.000 F420.000
G1 X319.310 Y-301.544 Z-5.000 F420.000
G1 X319.209 Y-300.366 Z-5.000 F420.000
G1 X319.163 Y-298.686 Z-5.000 F420.000
G1 X319.198 Y-297.041 Z-5.000 F420.000
G1 X319.310 Y-295.163 Z-5.000 F420.000
G1 X319.509 Y-293.032 Z-5.000 F420.000
G1 X319.804 Y-290.628 Z-5.000 F420.000
G1 X320.206 Y-287.931 Z-5.000 F420.000
G1 X320.724 Y-284.920 Z-5.000 F420.000
G1 X321.369 Y-281.575 Z-5.000 F420.000
G1 X322.150 Y-277.867 Z-5.000 F420.000
G1 X323.082 Y-273.733 Z-5.000 F420.000
G1 X324.267 Y-268.647 Z-5.000 F420.000
G1 X324.649 Y-266.834 Z-5.000 F420.000
G1 X323.227 Y-266.871 Z-5.000 F420.000
G1 X322.063 Y-266.972 Z-5.000 F420.000
G1 X321.101 Y-267.126 Z-5.000 F420.000
G1 X320.297 Y-267.327 Z-5.000 F420.000
G1 X319.618 Y-267.569 Z-5.000 F420.000
G1 X319.039 Y-267.851 Z-5.000 F420.000
G1 X318.539 Y-268.173 Z-5.000 F420.000
G1 X318.103 Y-268.540 Z-5.000 F420.000
G1 X317.718 Y-268.957 Z-5.000 F420.000
G1 X317.374 Y-269.436 Z-5.000 F420.000
G1 X317.063 Y-269.993 Z-5.000 F420.000
G1 X316.778 Y-270.651 Z-5.000 F420.000
G1 X316.511 Y-271.448 Z-5.000 F420.000
G1 X316.251 Y-272.446 Z-5.000 F420.000
G1 X316.103 Y-273.124 Z-5.000 F420.000
G1 X315.963 Y-273.845 Z-5.000 F420.000
G1 X315.653 Y-272.914 Z-5.000 F420.000
G1 X315.288 Y-272.052 Z-5.000 F420.000
G1 X314.872 Y-271.260 Z-5.000 F420.000
G1 X314.411 Y-270.540 Z-5.000 F420.000
G1 X313.908 Y-269.890 Z-5.000 F420.000
G1 X313.365 Y-269.309 Z-5.000 F420.000
G1 X312.783 Y-268.794 Z-5.000 F420.000
G1 X312.163 Y-268.346 Z-5.000 F420.000
G1 X311.505 Y-267.960 Z-5.000 F420.000
G1 X310.807 Y-267.638 Z-5.000 F420.000
G1 X310.069 Y-267.378 Z-5.000 F420.000
G1 X309.286 Y-267.182 Z-5.000 F420.000
G1 X308.456 Y-267.050 Z-5.000 F420.000
G1 X307.581 Y-266.987 Z-5.000 F420.000
G1 X306.568 Y-267.023 Z-5.000 F420.000
G1 X305.570 Y-267.130 Z-5.000 F420.000
G1 X304.586 Y-267.308 Z-5.000 F420.000
G1 X303.615 Y-267.557 Z-5.000 F420.000
G1 X302.655 Y-267.877 Z-5.000 F420.000
G1 X301.706 Y-268.269 Z-5.000 F420.000
G1 X300.769 Y-268.735 Z-5.000 F420.000
G1 X299.842 Y-269.275 Z-5.000 F420.000
G1 X298.927 Y-269.893 Z-5.000 F420.000
G1 X298.025 Y-270.589 Z-5.000 F420.000
G1 X297.138 Y-271.365 Z-5.000 F420.000
G1 X296.267 Y-272.222 Z-5.000 F420.000
G1 X295.416 Y-273.161 Z-5.000 F420.000
G1 X294.587 Y-274.183 Z-5.000 F420.000
G1 X293.785 Y-275.287 Z-5.000 F420.000
G1 X293.014 Y-276.470 Z-5.000 F420.000
G1 X292.280 Y-277.730 Z-5.000 F420.000
G1 X291.587 Y-279.062 Z-5.000 F420.000
G1 X290.941 Y-280.460 Z-5.000 F420.000
G1 X290.349 Y-281.914 Z-5.000 F420.000
G1 X289.816 Y-283.416 Z-5.000 F420.000
G1 X289.347 Y-284.952 Z-5.000 F420.000
G1 X288.947 Y-286.510 Z-5.000 F420.000
G1 X288.620 Y-288.075 Z-5.000 F420.000
G1 X288.368 Y-289.632 Z-5.000 F420.000
G1 X288.194 Y-291.166 Z-5.000 F420.000
G1 X288.097 Y-292.664 Z-5.000 F420.000
G1 X288.073 Y-293.809 Z-5.000 F420.000
G1 X288.109 Y-295.127 Z-5.000 F420.000
G1 X288.216 Y-296.387 Z-5.000 F420.000
G1 X288.389 Y-297.586 Z-5.000 F420.000
G1 X288.626 Y-298.723 Z-5.000 F420.000
G1 X288.923 Y-299.796 Z-5.000 F420.000
G1 X289.277 Y-300.804 Z-5.000 F420.000
G1 X289.685 Y-301.748 Z-5.000 F420.000
G1 X290.143 Y-302.627 Z-5.000 F420.000
G1 X290.649 Y-303.441 Z-5.000 F420.000
G1 X291.200 Y-304.191 Z-5.000 F420.000
G1 X291.795 Y-304.878 Z-5.000 F420.000
G1 X292.431 Y-305.501 Z-5.000 F420.000
G1 X293.108 Y-306.063 Z-5.000 F420.000
G1 X293.824 Y-306.562 Z-5.000 F420.000
G1 X294.578 Y-306.999 Z-5.000 F420.000
G1 X295.372 Y-307.374 Z-5.000 F420.000
G1 X296.204 Y-307.687 Z-5.000 F420.000
G1 X297.076 Y-307.936 Z-5.000 F420.000
G1 X297.988 Y-308.120 Z-5.000 F420.000
G1 X298.940 Y-308.238 Z-5.000 F420.000
G1 X299.520 Y-308.275 Z-5.000 F420.000
G1 X300.113 Y-308.287 Z-5.000 F420.000
G1 X300.953 Y-308.251 Z-5.000 F420.000
G1 X301.766 Y-308.145 Z-5.000 F420.000
G1 X302.556 Y-307.970 Z-5.000 F420.000
G1 X303.325 Y-307.726 Z-5.000 F420.000
G1 X304.076 Y-307.412 Z-5.000 F420.000
G1 X304.813 Y-307.027 Z-5.000 F420.000
G1 X305.537 Y-306.568 Z-5.000 F420.000
G1 X306.251 Y-306.030 Z-5.000 F420.000
G1 X306.955 Y-305.410 Z-5.000 F420.000
G1 X307.650 Y-304.701 Z-5.000 F420.000
G1 X308.338 Y-303.898 Z-5.000 F420.000
G1 X309.018 Y-302.993 Z-5.000 F420.000
G1 X309.691 Y-301.980 Z-5.000 F420.000
G1 X310.355 Y-300.851 Z-5.000 F420.000
G1 X311.011 Y-299.596 Z-5.000 F420.000
G1 X311.658 Y-298.207 Z-5.000 F420.000
G1 X312.295 Y-296.672 Z-5.000 F420.000
G1 X312.924 Y-294.978 Z-5.000 F420.000
G1 X313.219 Y-294.114 Z-5.000 F420.000
G1 X313.219 Y-294.723 Z-5.000 F420.000
G1 X313.258 Y-296.341 Z-5.000 F420.000
G1 X313.372 Y-297.851 Z-5.000 F420.000
G1 X313.552 Y-299.236 Z-5.000 F420.000
G1 X313.792 Y-300.495 Z-5.000 F420.000
G1 X314.085 Y-301.633 Z-5.000 F420.000
G1 X314.425 Y-302.655 Z-5.000 F420.000
G1 X314.808 Y-303.568 Z-5.000 F420.000
G1 X315.229 Y-304.382 Z-5.000 F420.000
G1 X315.684 Y-305.102 Z-5.000 F420.000
G1 X316.173 Y-305.736 Z-5.000 F420.000
G1 X316.694 Y-306.290 Z-5.000 F420.000
G1 X317.247 Y-306.771 Z-5.000 F420.000
G1 X317.832 Y-307.182 Z-5.000 F420.000
G1 X318.453 Y-307.527 Z-5.000 F420.000
G1 X319.111 Y-307.808 Z-5.000 F420.000
G1 X319.810 Y-308.026 Z-5.000 F420.000
G1 X320.554 Y-308.180 Z-5.000 F420.000
G1 X321.349 Y-308.268 Z-5.000 F420.000
G1 X322.211 Y-308.287 Z-5.000 F420.000
G0 Z12.000
G0 Z12.000
G0 X354.672 Y-285.427
G0 Z0.000
G1 X354.672 Y-285.427 Z-5.000 F420.000
G1 X353.907 Y-288.128 Z-5.000 F420.000
G1 X353.042 Y-291.045 Z-5.000 F420.000
G1 X352.202 Y-293.632 Z-5.000 F420.000
G1 X351.394 Y-295.883 Z-5.000 F420.000
G1 X350.613 Y-297.840 Z-5.000 F420.000
G1 X349.857 Y-299.531 Z-5.000 F420.000
G1 X349.127 Y-300.982 Z-5.000 F420.000
G1 X348.425 Y-302.213 Z-5.000 F420.000
G1 X347.750 Y-303.246 Z-5.000 F420.000
G1 X347.103 Y-304.102 Z-5.000 F420.000
G1 X346.483 Y-304.802 Z-5.000 F420.000
G1 X345.887 Y-305.365 Z-5.000 F420.000
G1 X345.313 Y-305.805 Z-5.000 F420.000
G1 X344.760 Y-306.138 Z-5.000 F420.000
G1 X344.223 Y-306.376 Z-5.000 F420.000
G1 X343.699 Y-306.529 Z-5.000 F420.000
G1 X343.183 Y-306.602 Z-5.000 F420.000
G1 X343.061 Y-306.608 Z-5.000 F420.000
G1 X342.937 Y-306.611 Z-5.000 F420.000
G1 X342.474 Y-306.547 Z-5.000 F420.000
G1 X342.053 Y-306.418 Z-5.000 F420.000
G1 X341.669 Y-306.225 Z-5.000 F420.000
G1 X341.314 Y-305.966 Z-5.000 F420.000
G1 X340.985 Y-305.636 Z-5.000 F420.000
G1 X340.680 Y-305.226 Z-5.000 F420.000
G1 X340.399 Y-304.727 Z-5.000 F420.000
G1 X340.144 Y-304.125 Z-5.000 F420.000
G1 X339.919 Y-303.405 Z-5.000 F420.000
G1 X339.729 Y-302.550 Z-5.000 F420.000
G1 X339.580 Y-301.544 Z-5.000 F420.000
G1 X339.479 Y-300.366 Z-5.000 F420.000
G1 X339.432 Y-298.686 Z-5.000 F420.000
G1 X339.468 Y-297.328 Z-5.000 F420.000
G1 X339.586 Y-295.613 Z-5.000 F420.000
G1 X339.806 Y-293.479 Z-5.000 F420.000
G1 X340.148 Y-290.863 Z-5.000 F420.000
G1 X340.635 Y-287.694 Z-5.000 F420.000
G1 X341.290 Y-283.897 Z-5.000 F420.000
G1 X342.139 Y-279.381 Z-5.000 F420.000
G1 X343.213 Y-274.028 Z-5.000 F420.000
G1 X344.563 Y-267.614 Z-5.000 F420.000
G1 X345.223 Y-264.548 Z-5.000 F420.000
G1 X353.301 Y-264.548 Z-5.000 F420.000
G0 Z12.000
G0 Z12.000
G0 X347.967 Y-252.661
G0 Z0.000
G1 X347.967 Y-252.661 Z-5.000 F420.000
G1 X346.544 Y-252.697 Z-5.000 F420.000
G1 X345.373 Y-252.798 Z-5.000 F420.000
G1 X344.401 Y-252.952 Z-5.000 F420.000
G1 X343.589 Y-253.152 Z-5.000 F420.000
G1 X342.904 Y-253.394 Z-5.000 F420.000
G1 X342.322 Y-253.674 Z-5.000 F420.000
G1 X341.824 Y-253.993 Z-5.000 F420.000
G1 X341.392 Y-254.353 Z-5.000 F420.000
G1 X341.014 Y-254.762 Z-5.000 F420.000
G1 X340.681 Y-255.228 Z-5.000 F420.000
G1 X340.384 Y-255.767 Z-5.000 F420.000
G1 X340.116 Y-256.400 Z-5.000 F420.000
G1 X339.872 Y-257.163 Z-5.000 F420.000
G1 X339.641 Y-258.114 Z-5.000 F420.000
G1 X339.534 Y-258.651 Z-5.000 F420.000
G1 X339.432 Y-259.214 Z-5.000 F420.000
G1 X339.225 Y-260.058 Z-5.000 F420.000
G1 X338.996 Y-261.256 Z-5.000 F420.000
G1 X338.845 Y-262.104 Z-5.000 F420.000
G1 X338.670 Y-263.024 Z-5.000 F420.000
G0 Z12.000
G0 Z12.000
G0 X330.288 Y-263.024
G0 Z0.000
G1 X330.288 Y-263.024 Z-5.000 F420.000
G1 X330.312 Y-263.558 Z-5.000 F420.000
G1 X330.385 Y-263.897 Z-5.000 F420.000
G1 X330.506 Y-264.127 Z-5.000 F420.000
G1 X330.677 Y-264.293 Z-5.000 F420.000
G1 X330.914 Y-264.414 Z-5.000 F420.000
G1 X331.251 Y-264.500 Z-5.000 F420.000
G1 X331.575 Y-264.536 Z-5.000 F420.000
G1 X331.965 Y-264.548 Z-5.000 F420.000
G1 X338.365 Y-264.548 Z-5.000 F420.000
G1 X337.066 Y-270.721 Z-5.000 F420.000
G1 X335.977 Y-276.254 Z-5.000 F420.000
G1 X335.115 Y-281.008 Z-5.000 F420.000
G1 X334.466 Y-284.988 Z-5.000 F420.000
G1 X334.007 Y-288.253 Z-5.000 F420.000
G1 X333.709 Y-290.878 Z-5.000 F420.000
G1 X333.546 Y-292.946 Z-5.000 F420.000
G1 X333.489 Y-294.723 Z-5.000 F420.000
G1 X333.528 Y-296.341 Z-5.000 F420.000
G1 X333.641 Y-297.851 Z-5.000 F420.000
G1 X333.821 Y-299.236 Z-5.000 F420.000
G1 X334.061 Y-300.495 Z-5.000 F420.000
G1 X334.354 Y-301.633 Z-5.000 F420.000
G1 X334.695 Y-302.655 Z-5.000 F420.000
G1 X335.077 Y-303.568 Z-5.000 F420.000
G1 X335.498 Y-304.382 Z-5.000 F420.000
G1 X335.954 Y-305.102 Z-5.000 F420.000
G1 X336.443 Y-305.736 Z-5.000 F420.000
G1 X336.963 Y-306.290 Z-5.000 F420.000
G1 X337.516 Y-306.771 Z-5.000 F420.000
G1 X338.101 Y-307.182 Z-5.000 F420.000
G1 X338.722 Y-307.527 Z-5.000 F420.000
G1 X339.380 Y-307.808 Z-5.000 F420.000
G1 X340.079 Y-308.026 Z-5.000 F420.000
G1 X340.824 Y-308.180 Z-5.000 F420.000
G1 X341.618 Y-308.268 Z-5.000 F420.000
G1 X342.480 Y-308.287 Z-5.000 F420.000
G0 Z12.000
G0 Z12.000
G0 X374.789 Y-285.427
G0 Z0.000
G1 X374.789 Y-285.427 Z-5.000 F420.000
G1 X374.024 Y-288.128 Z-5.000 F420.000
G1 X373.158 Y-291.045 Z-5.000 F420.000
G1 X372.319 Y-293.632 Z-5.000 F420.000
G1 X371.511 Y-295.883 Z-5.000 F420.000
G1 X370.730 Y-297.840 Z-5.000 F420.000
G1 X369.974 Y-299.531 Z-5.000 F420.000
G1 X369.244 Y-300.982 Z-5.000 F420.000
G1 X368.542 Y-302.213 Z-5.000 F420.000
G1 X367.867 Y-303.246 Z-5.000 F420.000
G1 X367.220 Y-304.102 Z-5.000 F420.000
G1 X366.600 Y-304.802 Z-5.000 F420.000
G1 X366.004 Y-305.365 Z-5.000 F420.000
G1 X365.430 Y-305.805 Z-5.000 F420.000
G1 X364.877 Y-306.138 Z-5.000 F420.000
G1 X364.340 Y-306.376 Z-5.000 F420.000
G1 X363.816 Y-306.529 Z-5.000 F420.000
G1 X363.300 Y-306.602 Z-5.000 F420.000
G1 X363.178 Y-306.608 Z-5.000 F420.000
G1 X363.054 Y-306.611 Z-5.000 F420.000
G1 X362.591 Y-306.547 Z-5.000 F420.000
G1 X362.170 Y-306.418 Z-5.000 F420.000
G1 X361.785 Y-306.225 Z-5.000 F420.000
G1 X361.430 Y-305.966 Z-5.000 F420.000
G1 X361.102 Y-305.636 Z-5.000 F420.000
G1 X360.797 Y-305.226 Z-5.000 F420.000
G1 X360.516 Y-304.727 Z-5.000 F420.000
G1 X360.261 Y-304.125 Z-5.000 F420.000
G1 X360.036 Y-303.405 Z-5.000 F420.000
G1 X359.846 Y-302.550 Z-5.000 F420.000
G1 X359.697 Y-301.544 Z-5.000 F420.000
G1 X359.595 Y-300.366 Z-5.000 F420.000
G1 X359.549 Y-298.686 Z-5.000 F420.000
G1 X359.584 Y-297.328 Z-5.000 F420.000
G1 X359.703 Y-295.613 Z-5.000 F420.000
G1 X359.923 Y-293.479 Z-5.000 F420.000
G1 X360.265 Y-290.863 Z-5.000 F420.000
G1 X360.752 Y-287.694 Z-5.000 F420.000
G1 X361.407 Y-283.897 Z-5.000 F420.000
G1 X362.255 Y-279.381 Z-5.000 F420.000
G1 X363.330 Y-274.028 Z-5.000 F420.000
G1 X364.680 Y-267.614 Z-5.000 F420.000
G1 X365.340 Y-264.548 Z-5.000 F420.000
G1 X373.417 Y-264.548 Z-5.000 F420.000
G0 Z12.000
G0 Z12.000
G0 X368.083 Y-252.661
G0 Z0.000
G1 X368.083 Y-252.661 Z-5.000 F420.000
G1 X366.661 Y-252.697 Z-5.000 F420.000
G1 X365.490 Y-252.798 Z-5.000 F420.000
G1 X364.518 Y-252.952 Z-5.000 F420.000
G1 X363.706 Y-253.152 Z-5.000 F420.000
G1 X363.021 Y-253.394 Z-5.000 F420.000
G1 X362.439 Y-253.674 Z-5.000 F420.000
G1 X361.940 Y-253.993 Z-5.000 F420.000
G1 X361.508 Y-254.353 Z-5.000 F420.000
G1 X361.131 Y-254.762 Z-5.000 F420.000
G1 X360.797 Y-255.228 Z-5.000 F420.000
G1 X360.501 Y-255.767 Z-5.000 F420.000
G1 X360.233 Y-256.400 Z-5.000 F420.000
G1 X359.989 Y-257.163 Z-5.000 F420.000
G1 X359.758 Y-258.114 Z-5.000 F420.000
G1 X359.650 Y-258.651 Z-5.000 F420.000
G1 X359.549 Y-259.214 Z-5.000 F420.000
G1 X359.342 Y-260.058 Z-5.000 F420.000
G1 X359.113 Y-261.256 Z-5.000 F420.000
G1 X358.962 Y-262.104 Z-5.000 F420.000
G1 X358.787 Y-263.024 Z-5.000 F420.000
G0 Z12.000
G0 Z12.000
G0 X352.081 Y-264.548
G0 Z0.000
G1 X352.081 Y-264.548 Z-5.000 F420.000
G1 X358.482 Y-264.548 Z-5.000 F420.000
G1 X357.183 Y-270.721 Z-5.000 F420.000
G1 X356.094 Y-276.254 Z-5.000 F420.000
G1 X355.232 Y-281.008 Z-5.000 F420.000
G1 X354.583 Y-284.988 Z-5.000 F420.000
G1 X354.124 Y-288.253 Z-5.000 F420.000
G1 X353.826 Y-290.878 Z-5.000 F420.000
G1 X353.662 Y-292.946 Z-5.000 F420.000
G1 X353.605 Y-294.723 Z-5.000 F420.000
G1 X353.644 Y-296.341 Z-5.000 F420.000
G1 X353.758 Y-297.851 Z-5.000 F420.000
G1 X353.938 Y-299.236 Z-5.000 F420.000
G1 X354.178 Y-300.495 Z-5.000 F420.000
G1 X354.471 Y-301.633 Z-5.000 F420.000
G1 X354.812 Y-302.655 Z-5.000 F420.000
G1 X355.194 Y-303.568 Z-5.000 F420.000
G1 X355.615 Y-304.382 Z-5.000 F420.000
G1 X356.071 Y-305.102 Z-5.000 F420.000
G1 X356.559 Y-305.736 Z-5.000 F420.000
G1 X357.080 Y-306.290 Z-5.000 F420.000
G1 X357.633 Y-306.771 Z-5.000 F420.000
G1 X358.218 Y-307.182 Z-5.000 F420.000
G1 X358.839 Y-307.527 Z-5.000 F420.000
G1 X359.497 Y-307.808 Z-5.000 F420.000
G1 X360.196 Y-308.026 Z-5.000 F420.000
G1 X360.940 Y-308.180 Z-5.000 F420.000
G1 X361.735 Y-308.268 Z-5.000 F420.000
G1 X362.597 Y-308.287 Z-5.000 F420.000
G0 Z12.000
G0 Z12.000
G0 X404.659 Y-298.686
G0 Z0.000
G1 X404.659 Y-298.686 Z-5.000 F420.000
G1 X404.695 Y-297.041 Z-5.000 F420.000
G1 X404.807 Y-295.163 Z-5.000 F420.000
G1 X405.005 Y-293.032 Z-5.000 F420.000
G1 X405.301 Y-290.628 Z-5.000 F420.000
G1 X405.702 Y-287.931 Z-5.000 F420.000
G1 X406.221 Y-284.920 Z-5.000 F420.000
G1 X406.865 Y-281.575 Z-5.000 F420.000
G1 X407.646 Y-277.867 Z-5.000 F420.000
G1 X408.579 Y-273.733 Z-5.000 F420.000
G1 X409.763 Y-268.647 Z-5.000 F420.000
G1 X410.146 Y-266.834 Z-5.000 F420.000
G1 X408.723 Y-266.871 Z-5.000 F420.000
G1 X407.560 Y-266.972 Z-5.000 F420.000
G1 X406.598 Y-267.126 Z-5.000 F420.000
G1 X405.793 Y-267.327 Z-5.000 F420.000
G1 X405.114 Y-267.569 Z-5.000 F420.000
G1 X404.535 Y-267.851 Z-5.000 F420.000
G1 X404.036 Y-268.173 Z-5.000 F420.000
G1 X403.600 Y-268.540 Z-5.000 F420.000
G1 X403.215 Y-268.957 Z-5.000 F420.000
G1 X402.871 Y-269.436 Z-5.000 F420.000
G1 X402.560 Y-269.993 Z-5.000 F420.000
G1 X402.275 Y-270.651 Z-5.000 F420.000
G1 X402.007 Y-271.448 Z-5.000 F420.000
G1 X401.747 Y-272.446 Z-5.000 F420.000
G1 X401.600 Y-273.124 Z-5.000 F420.000
G1 X401.459 Y-273.845 Z-5.000 F420.000
G1 X401.149 Y-272.914 Z-5.000 F420.000
G1 X400.784 Y-272.052 Z-5.000 F420.000
G1 X400.369 Y-271.260 Z-5.000 F420.000
G1 X399.908 Y-270.540 Z-5.000 F420.000
G1 X399.404 Y-269.890 Z-5.000 F420.000
G1 X398.861 Y-269.309 Z-5.000 F420.000
G1 X398.279 Y-268.794 Z-5.000 F420.000
G1 X397.659 Y-268.346 Z-5.000 F420.000
G1 X397.001 Y-267.960 Z-5.000 F420.000
G1 X396.304 Y-267.638 Z-5.000 F420.000
G1 X395.565 Y-267.378 Z-5.000 F420.000
G1 X394.782 Y-267.182 Z-5.000 F420.000
G1 X393.953 Y-267.050 Z-5.000 F420.000
G1 X393.077 Y-266.987 Z-5.000 F420.000
G1 X392.064 Y-267.023 Z-5.000 F420.000
G1 X391.067 Y-267.130 Z-5.000 F420.000
G1 X390.083 Y-267.308 Z-5.000 F420.000
G1 X389.111 Y-267.557 Z-5.000 F420.000
G1 X388.151 Y-267.877 Z-5.000 F420.000
G1 X387.203 Y-268.269 Z-5.000 F420.000
G1 X386.265 Y-268.735 Z-5.000 F420.000
G1 X385.339 Y-269.275 Z-5.000 F420.000
G1 X384.424 Y-269.893 Z-5.000 F420.000
G1 X383.522 Y-270.589 Z-5.000 F420.000
G1 X382.634 Y-271.365 Z-5.000 F420.000
G1 X381.764 Y-272.222 Z-5.000 F420.000
G1 X380.912 Y-273.161 Z-5.000 F420.000
G1 X380.083 Y-274.183 Z-5.000 F420.000
G1 X379.281 Y-275.287 Z-5.000 F420.000
G1 X378.511 Y-276.470 Z-5.000 F420.000
G1 X377.776 Y-277.730 Z-5.000 F420.000
G1 X377.083 Y-279.062 Z-5.000 F420.000
G1 X376.438 Y-280.460 Z-5.000 F420.000
G1 X375.846 Y-281.914 Z-5.000 F420.000
G1 X375.312 Y-283.416 Z-5.000 F420.000
G1 X374.843 Y-284.952 Z-5.000 F420.000
G1 X374.444 Y-286.510 Z-5.000 F420.000
G1 X374.116 Y-288.075 Z-5.000 F420.000
G1 X373.865 Y-289.632 Z-5.000 F420.000
G1 X373.690 Y-291.166 Z-5.000 F420.000
G1 X373.593 Y-292.664 Z-5.000 F420.000
G1 X373.570 Y-293.809 Z-5.000 F420.000
G1 X373.606 Y-295.127 Z-5.000 F420.000
G1 X373.712 Y-296.387 Z-5.000 F420.000
G1 X373.886 Y-297.586 Z-5.000 F420.000
G1 X374.122 Y-298.723 Z-5.000 F420.000
G1 X374.420 Y-299.796 Z-5.000 F420.000
G1 X374.774 Y-300.804 Z-5.000 F420.000
G1 X375.181 Y-301.748 Z-5.000 F420.000
G1 X375.639 Y-302.627 Z-5.000 F420.000
G1 X376.145 Y-303.441 Z-5.000 F420.000
G1 X376.697 Y-304.191 Z-5.000 F420.000
G1 X377.292 Y-304.878 Z-5.000 F420.000
G1 X377.928 Y-305.501 Z-5.000 F420.000
G1 X378.604 Y-306.063 Z-5.000 F420.000
G1 X379.320 Y-306.562 Z-5.000 F420.000
G1 X380.075 Y-306.999 Z-5.000 F420.000
G1 X380.868 Y-307.374 Z-5.000 F420.000
G1 X381.701 Y-307.687 Z-5.000 F420.000
G1 X382.572 Y-307.936 Z-5.000 F420.000
G1 X383.484 Y-308.120 Z-5.000 F420.000
G1 X384.436 Y-308.238 Z-5.000 F420.000
G1 X385.017 Y-308.275 Z-5.000 F420.000
G1 X385.609 Y-308.287 Z-5.000 F420.000
G1 X386.450 Y-308.251 Z-5.000 F420.000
G1 X387.263 Y-308.145 Z-5.000 F420.000
G1 X388.052 Y-307.970 Z-5.000 F420.000
G1 X388.821 Y-307.726 Z-5.000 F420.000
G1 X389.573 Y-307.412 Z-5.000 F420.000
G1 X390.310 Y-307.027 Z-5.000 F420.000
G1 X391.034 Y-306.568 Z-5.000 F420.000
G1 X391.747 Y-306.030 Z-5.000 F420.000
G1 X392.451 Y-305.410 Z-5.000 F420.000
G1 X393.147 Y-304.701 Z-5.000 F420.000
G1 X393.835 Y-303.898 Z-5.000 F420.000
G1 X394.515 Y-302.993 Z-5.000 F420.000
G1 X395.187 Y-301.980 Z-5.000 F420.000
G1 X395.852 Y-300.851 Z-5.000 F420.000
G1 X396.508 Y-299.596 Z-5.000 F420.000
G1 X397.154 Y-298.207 Z-5.000 F420.000
G1 X397.792 Y-296.672 Z-5.000 F420.000
G1 X398.420 Y-294.978 Z-5.000 F420.000
G1 X398.716 Y-294.114 Z-5.000 F420.000
G1 X398.716 Y-294.723 Z-5.000 F420.000
G1 X398.755 Y-296.341 Z-5.000 F420.000
G1 X398.868 Y-297.851 Z-5.000 F420.000
G1 X399.049 Y-299.236 Z-5.000 F420.000
G1 X399.289 Y-300.495 Z-5.000 F420.000
G1 X399.582 Y-301.633 Z-5.000 F420.000
G1 X399.922 Y-302.655 Z-5.000 F420.000
G1 X400.304 Y-303.568 Z-5.000 F420.000
G1 X400.725 Y-304.382 Z-5.000 F420.000
G1 X401.181 Y-305.102 Z-5.000 F420.000
G1 X401.670 Y-305.736 Z-5.000 F420.000
G1 X402.190 Y-306.290 Z-5.000 F420.000
G1 X402.743 Y-306.771 Z-5.000 F420.000
G1 X403.329 Y-307.182 Z-5.000 F420.000
G1 X403.949 Y-307.527 Z-5.000 F420.000
G1 X404.607 Y-307.808 Z-5.000 F420.000
G1 X405.306 Y-308.026 Z-5.000 F420.000
G1 X406.051 Y-308.180 Z-5.000 F420.000
G1 X406.845 Y-308.268 Z-5.000 F420.000
G1 X407.707 Y-308.287 Z-5.000 F420.000
G1 X408.369 Y-308.239 Z-5.000 F420.000
G1 X409.019 Y-308.119 Z-5.000 F420.000
G1 X409.661 Y-307.929 Z-5.000 F420.000
G1 X410.298 Y-307.664 Z-5.000 F420.000
G1 X410.934 Y-307.323 Z-5.000 F420.000
G1 X411.570 Y-306.899 Z-5.000 F420.000
G1 X412.210 Y-306.386 Z-5.000 F420.000
G1 X412.854 Y-305.777 Z-5.000 F420.000
G1 X413.505 Y-305.063 Z-5.000 F420.000
G1 X414.162 Y-304.235 Z-5.000 F420.000
G1 X414.826 Y-303.283 Z-5.000 F420.000
G1 X415.498 Y-302.195 Z-5.000 F420.000
G1 X416.178 Y-300.960 Z-5.000 F420.000
G1 X416.865 Y-299.564 Z-5.000 F420.000
G1 X417.560 Y-297.993 Z-5.000 F420.000
G1 X418.265 Y-296.229 Z-5.000 F420.000
G1 X418.984 Y-294.246 Z-5.000 F420.000
G1 X419.728 Y-292.003 Z-5.000 F420.000
G1 X420.530 Y-289.392 Z-5.000 F420.000
G1 X421.576 Y-285.884 Z-5.000 F420.000
G1 X420.052 Y-285.427 Z-5.000 F420.000
G0 Z12.000
G0 Z12.000
G0 X452.056 Y-285.427
G0 Z0.000
G1 X452.056 Y-285.427 Z-5.000 F420.000
G1 X451.542 Y-287.112 Z-5.000 F420.000
G1 X450.573 Y-290.350 Z-5.000 F420.000
G1 X449.685 Y-293.120 Z-5.000 F420.000
G1 X448.856 Y-295.471 Z-5.000 F420.000
G1 X448.067 Y-297.490 Z-5.000 F420.000
G1 X447.308 Y-299.226 Z-5.000 F420.000
G1 X446.576 Y-300.714 Z-5.000 F420.000
G1 X445.871 Y-301.979 Z-5.000 F420.000
G1 X445.193 Y-303.042 Z-5.000 F420.000
G1 X444.543 Y-303.927 Z-5.000 F420.000
G1 X443.917 Y-304.654 Z-5.000 F420.000
G1 X443.314 Y-305.241 Z-5.000 F420.000
G1 X442.733 Y-305.706 Z-5.000 F420.000
G1 X442.171 Y-306.063 Z-5.000 F420.000
G1 X441.624 Y-306.323 Z-5.000 F420.000
G1 X441.089 Y-306.496 Z-5.000 F420.000
G1 X440.562 Y-306.590 Z-5.000 F420.000
G1 X440.366 Y-306.605 Z-5.000 F420.000
G1 X440.169 Y-306.611 Z-5.000 F420.000
G1 X439.705 Y-306.547 Z-5.000 F420.000
G1 X439.285 Y-306.418 Z-5.000 F420.000
G1 X438.900 Y-306.225 Z-5.000 F420.000
G1 X438.545 Y-305.966 Z-5.000 F420.000
G1 X438.216 Y-305.636 Z-5.000 F420.000
G1 X437.911 Y-305.226 Z-5.000 F420.000
G1 X437.630 Y-304.727 Z-5.000 F420.000
G1 X437.376 Y-304.125 Z-5.000 F420.000
G1 X437.151 Y-303.405 Z-5.000 F420.000
G1 X436.960 Y-302.550 Z-5.000 F420.000
G1 X436.811 Y-301.544 Z-5.000 F420.000
G1 X436.710 Y-300.366 Z-5.000 F420.000
G1 X436.664 Y-298.686 Z-5.000 F420.000
G1 X436.699 Y-297.006 Z-5.000 F420.000
G1 X436.811 Y-295.102 Z-5.000 F420.000
G1 X437.008 Y-292.957 Z-5.000 F420.000
G1 X437.301 Y-290.557 Z-5.000 F420.000
G1 X437.696 Y-287.893 Z-5.000 F420.000
G1 X438.202 Y-284.961 Z-5.000 F420.000
G1 X438.822 Y-281.768 Z-5.000 F420.000
G1 X439.712 Y-277.655 Z-5.000 F420.000
G1 X440.219 Y-275.383 Z-5.000 F420.000
G1 X440.420 Y-274.265 Z-5.000 F420.000
G1 X440.498 Y-273.458 Z-5.000 F420.000
G1 X440.489 Y-272.813 Z-5.000 F420.000
G1 X440.408 Y-272.265 Z-5.000 F420.000
G1 X440.261 Y-271.781 Z-5.000 F420.000
G1 X440.046 Y-271.332 Z-5.000 F420.000
G1 X439.757 Y-270.899 Z-5.000 F420.000
G1 X439.377 Y-270.467 Z-5.000 F420.000
G1 X438.886 Y-270.021 Z-5.000 F420.000
G1 X438.252 Y-269.548 Z-5.000 F420.000
G1 X437.432 Y-269.030 Z-5.000 F420.000
G1 X436.366 Y-268.446 Z-5.000 F420.000
G1 X434.965 Y-267.763 Z-5.000 F420.000
G1 X433.086 Y-266.931 Z-5.000 F420.000
G1 X430.480 Y-265.856 Z-5.000 F420.000
G1 X426.758 Y-264.396 Z-5.000 F420.000
G1 X427.020 Y-262.605 Z-5.000 F420.000
G1 X427.169 Y-261.119 Z-5.000 F420.000
G1 X427.203 Y-260.515 Z-5.000 F420.000
G1 X427.215 Y-259.976 Z-5.000 F420.000
G1 X427.177 Y-259.268 Z-5.000 F420.000
G1 X427.065 Y-258.583 Z-5.000 F420.000
G1 X426.887 Y-257.964 Z-5.000 F420.000
G1 X426.656 Y-257.427 Z-5.000 F420.000
G1 X426.381 Y-256.979 Z-5.000 F420.000
G1 X426.070 Y-256.613 Z-5.000 F420.000
G1 X425.727 Y-256.326 Z-5.000 F420.000
G1 X425.352 Y-256.109 Z-5.000 F420.000
G1 X424.944 Y-255.960 Z-5.000 F420.000
G1 X424.497 Y-255.878 Z-5.000 F420.000
G1 X424.167 Y-255.861 Z-5.000 F420.000
G1 X423.716 Y-255.897 Z-5.000 F420.000
G1 X423.289 Y-256.001 Z-5.000 F420.000
G1 X422.886 Y-256.173 Z-5.000 F420.000
G1 X422.505 Y-256.411 Z-5.000 F420.000
G1 X422.152 Y-256.718 Z-5.000 F420.000
G1 X421.829 Y-257.092 Z-5.000 F420.000
G1 X421.545 Y-257.532 Z-5.000 F420.000
G1 X421.307 Y-258.032 Z-5.000 F420.000
G1 X421.127 Y-258.582 Z-5.000 F420.000
G1 X421.011 Y-259.165 Z-5.000 F420.000
G1 X420.966 Y-259.824 Z-5.000 F420.000
G1 X421.002 Y-260.473 Z-5.000 F420.000
G1 X421.106 Y-261.086 Z-5.000 F420.000
G1 X421.277 Y-261.670 Z-5.000 F420.000
G1 X421.515 Y-262.230 Z-5.000 F420.000
G1 X421.823 Y-262.775 Z-5.000 F420.000
G1 X422.206 Y-263.308 Z-5.000 F420.000
G1 X422.673 Y-263.838 Z-5.000 F420.000
G1 X423.237 Y-264.370 Z-5.000 F420.000
G1 X423.916 Y-264.917 Z-5.000 F420.000
G1 X424.929 Y-265.615 Z-5.000 F420.000
G1 X424.800 Y-266.481 Z-5.000 F420.000
G1 X424.564 Y-267.628 Z-5.000 F420.000
G1 X424.283 Y-268.875 Z-5.000 F420.000
G1 X424.014 Y-270.187 Z-5.000 F420.000
G1 X423.264 Y-273.408 Z-5.000 F420.000
G1 X422.323 Y-277.153 Z-5.000 F420.000
G1 X421.193 Y-281.382 Z-5.000 F420.000
G1 X419.921 Y-285.920 Z-5.000 F420.000
G1 X419.138 Y-288.627 Z-5.000 F420.000
G0 Z12.000
G0 Z12.000
G0 X460.590 Y-263.177
G0 Z0.000
G1 X460.590 Y-263.177 Z-5.000 F420.000
G1 X461.136 Y-263.141 Z-5.000 F420.000
G1 X461.660 Y-263.036 Z-5.000 F420.000
G1 X462.160 Y-262.863 Z-5.000 F420.000
G1 X462.630 Y-262.626 Z-5.000 F420.000
G1 X463.064 Y-262.326 Z-5.000 F420.000
G1 X463.455 Y-261.968 Z-5.000 F420.000
G1 X463.796 Y-261.559 Z-5.000 F420.000
G1 X464.081 Y-261.104 Z-5.000 F420.000
G1 X464.302 Y-260.613 Z-5.000 F420.000
G1 X464.456 Y-260.094 Z-5.000 F420.000
G1 X464.538 Y-259.557 Z-5.000 F420.000
G1 X464.549 Y-259.386 Z-5.000 F420.000
G1 X464.553 Y-259.214 Z-5.000 F420.000
G1 X464.517 Y-258.645 Z-5.000 F420.000
G1 X464.412 Y-258.104 Z-5.000 F420.000
G1 X464.240 Y-257.595 Z-5.000 F420.000
G1 X464.006 Y-257.123 Z-5.000 F420.000
G1 X463.712 Y-256.694 Z-5.000 F420.000
G1 X463.363 Y-256.312 Z-5.000 F420.000
G1 X462.963 Y-255.982 Z-5.000 F420.000
G1 X462.517 Y-255.708 Z-5.000 F420.000
G1 X462.030 Y-255.495 Z-5.000 F420.000
G1 X461.507 Y-255.346 Z-5.000 F420.000
G1 X460.953 Y-255.266 Z-5.000 F420.000
G1 X460.773 Y-255.255 Z-5.000 F420.000
G1 X460.590 Y-255.252 Z-5.000 F420.000
G1 X460.021 Y-255.287 Z-5.000 F420.000
G1 X459.480 Y-255.393 Z-5.000 F420.000
G1 X458.971 Y-255.564 Z-5.000 F420.000
G1 X458.500 Y-255.798 Z-5.000 F420.000
G1 X458.070 Y-256.092 Z-5.000 F420.000
G1 X457.688 Y-256.441 Z-5.000 F420.000
G1 X457.358 Y-256.841 Z-5.000 F420.000
G1 X457.084 Y-257.287 Z-5.000 F420.000
G1 X456.871 Y-257.774 Z-5.000 F420.000
G1 X456.723 Y-258.297 Z-5.000 F420.000
G1 X456.642 Y-258.852 Z-5.000 F420.000
G1 X456.631 Y-259.032 Z-5.000 F420.000
G1 X456.628 Y-259.214 Z-5.000 F420.000
G1 X456.664 Y-259.751 Z-5.000 F420.000
G1 X456.770 Y-260.276 Z-5.000 F420.000
G1 X456.946 Y-260.782 Z-5.000 F420.000
G1 X457.188 Y-261.260 Z-5.000 F420.000
G1 X457.492 Y-261.701 Z-5.000 F420.000
G1 X457.853 Y-262.096 Z-5.000 F420.000
G1 X458.264 Y-262.438 Z-5.000 F420.000
G1 X458.718 Y-262.719 Z-5.000 F420.000
G1 X459.206 Y-262.936 Z-5.000 F420.000
G1 X459.724 Y-263.085 Z-5.000 F420.000
G1 X460.265 Y-263.164 Z-5.000 F420.000
G1 X460.427 Y-263.173 Z-5.000 F420.000
G1 X460.590 Y-263.177 Z-5.000 F420.000
G0 Z12.000
G0 Z12.000
G0 X462.571 Y-266.834
G0 Z0.000
G1 X462.571 Y-266.834 Z-5.000 F420.000
G1 X461.119 Y-266.871 Z-5.000 F420.000
G1 X459.931 Y-266.971 Z-5.000 F420.000
G1 X458.949 Y-267.124 Z-5.000 F420.000
G1 X458.131 Y-267.323 Z-5.000 F420.000
G1 X457.445 Y-267.563 Z-5.000 F420.000
G1 X456.862 Y-267.841 Z-5.000 F420.000
G1 X456.363 Y-268.158 Z-5.000 F420.000
G1 X455.931 Y-268.517 Z-5.000 F420.000
G1 X455.551 Y-268.924 Z-5.000 F420.000
G1 X455.214 Y-269.391 Z-5.000 F420.000
G1 X454.911 Y-269.934 Z-5.000 F420.000
G1 X454.633 Y-270.578 Z-5.000 F420.000
G1 X454.370 Y-271.366 Z-5.000 F420.000
G1 X454.106 Y-272.377 Z-5.000 F420.000
G1 X453.994 Y-272.871 Z-5.000 F420.000
G1 X453.885 Y-273.387 Z-5.000 F420.000
G1 X452.999 Y-278.156 Z-5.000 F420.000
G1 X452.343 Y-282.042 Z-5.000 F420.000
G1 X451.866 Y-285.309 Z-5.000 F420.000
G1 X451.526 Y-288.146 Z-5.000 F420.000
G1 X451.301 Y-290.649 Z-5.000 F420.000
G1 X451.177 Y-292.864 Z-5.000 F420.000
G1 X451.141 Y-294.723 Z-5.000 F420.000
G1 X451.180 Y-296.341 Z-5.000 F420.000
G1 X451.294 Y-297.851 Z-5.000 F420.000
G1 X451.474 Y-299.236 Z-5.000 F420.000
G1 X451.714 Y-300.495 Z-5.000 F420.000
G1 X452.007 Y-301.633 Z-5.000 F420.000
G1 X452.348 Y-302.655 Z-5.000 F420.000
G1 X452.730 Y-303.568 Z-5.000 F420.000
G1 X453.151 Y-304.382 Z-5.000 F420.000
G1 X453.607 Y-305.102 Z-5.000 F420.000
G1 X454.095 Y-305.736 Z-5.000 F420.000
G1 X454.616 Y-306.290 Z-5.000 F420.000
G1 X455.169 Y-306.771 Z-5.000 F420.000
G1 X455.754 Y-307.182 Z-5.000 F420.000
G1 X456.375 Y-307.527 Z-5.000 F420.000
G1 X457.033 Y-307.808 Z-5.000 F420.000
G1 X457.732 Y-308.026 Z-5.000 F420.000
G1 X458.476 Y-308.180 Z-5.000 F420.000
G1 X459.271 Y-308.268 Z-5.000 F420.000
G1 X460.133 Y-308.287 Z-5.000 F420.000
G1 X460.795 Y-308.239 Z-5.000 F420.000
G1 X461.447 Y-308.119 Z-5.000 F420.000
G1 X462.091 Y-307.928 Z-5.000 F420.000
G1 X462.731 Y-307.663 Z-5.000 F420.000
G1 X463.370 Y-307.321 Z-5.000 F420.000
G1 X464.011 Y-306.896 Z-5.000 F420.000
G1 X464.656 Y-306.382 Z-5.000 F420.000
G1 X465.306 Y-305.771 Z-5.000 F420.000
G1 X465.962 Y-305.056 Z-5.000 F420.000
G1 X466.625 Y-304.227 Z-5.000 F420.000
G1 X467.295 Y-303.274 Z-5.000 F420.000
G1 X467.972 Y-302.188 Z-5.000 F420.000
G1 X468.656 Y-300.956 Z-5.000 F420.000
G1 X469.345 Y-299.567 Z-5.000 F420.000
G1 X470.040 Y-298.010 Z-5.000 F420.000
G1 X470.741 Y-296.271 Z-5.000 F420.000
G1 X471.447 Y-294.334 Z-5.000 F420.000
G1 X472.163 Y-292.176 Z-5.000 F420.000
G1 X472.901 Y-289.752 Z-5.000 F420.000
G1 X474.001 Y-285.884 Z-5.000 F420.000
G0 Z12.000
(Finish operation: Engrave)
(Begin postamble)
M5
G17 G90
M2
