%
(Header)
(Generated by gcodetools from Inkscape.)
(Using default header. To add your own header create file "header" in the output dir.)
M3
(Header end.)
G21 (All units in mm)

(Start cutting path id: path1)
(Change tool to Default tool)

G00 X250.000000 Y150.000000

G01 Z-3 F100.0(Penetrate)
G02 X242.387953 Y111.731657 I-100.000000 J0.000000 F400.000000
G02 X220.710678 Y79.289322 I-92.387953 J38.268343
G02 X188.268343 Y57.612047 I-70.710678 J70.710678
G02 X150.000000 Y50.000000 I-38.268343 J92.387953
G02 X111.731657 Y57.612047 I0.000000 J100.000000
G02 X79.289322 Y79.289322 I38.268343 J92.387953
G02 X57.612047 Y111.731657 I70.710678 J70.710678
G02 X50.000000 Y150.000000 I92.387953 J38.268343
G02 X57.612047 Y188.268343 I100.000000 J0.000000
G02 X79.289322 Y220.710678 I92.387953 J-38.268343
G02 X111.731657 Y242.387953 I70.710678 J-70.710678
G02 X150.000000 Y250.000000 I38.268343 J-92.387953
G02 X188.268343 Y242.387953 I0.000000 J-100.000000
G02 X220.710678 Y220.710678 I-38.268343 J-92.387953
G02 X242.387953 Y188.268343 I-70.710678 J-70.710678
G02 X250.000000 Y150.000000 I-92.387953 J-38.268343
G01 X250.000000 Y150.000000 
G00 Z3.000000

(End cutting path id: path1)


(Footer)
M5
G00 X0.0000 Y0.0000 Z0.000
M2
(Using default footer. To add your own footer create file "footer" in the output dir.)
(end)
%
