(Exported by FreeCAD)
(Post Processor: grbl_post)
(Output Time:2026-01-09 08:07:56.482816)
(Begin preamble)
G17 G90
G21
(Begin operation: Fixture)
(Path: Fixture)
G54
(Finish operation: Fixture)
(Begin operation: TC: Default Tool)
(Path: TC: Default Tool)
(TC: Default Tool)
(Begin toolchange)
( M6 T1 )
(Finish operation: TC: Default Tool)
(Begin operation: Profile)
(Path: Profile)
(Profile)
(Compensated Tool Path. Diameter: 5.0)
G0 Z26.000
G0 X-15.696 Y334.551
G0 Z24.000
G1 X-15.696 Y334.551 Z-4.000 F100.000
G1 X-1.319 Y317.856 Z-4.000 F400.000
G2 X0.799 Y315.033 Z-4.000 I-19.957 J-17.183 K0.000 F400.000
G1 X7.019 Y305.464 Z-4.000 F400.000
G2 X9.384 Y300.906 Z-4.000 I-22.082 J-14.351 K0.000 F400.000
G1 X14.170 Y288.942 Z-4.000 F400.000
G2 X15.539 Y284.340 Z-4.000 I-24.453 J-9.779 K0.000 F400.000
G1 X17.932 Y272.376 Z-4.000 F400.000
G2 X18.352 Y269.407 Z-4.000 I-25.824 J-5.164 K0.000 F400.000
G1 X19.309 Y257.926 Z-4.000 F400.000
G2 X19.019 Y251.280 Z-4.000 I-26.241 J-2.185 K0.000 F400.000
G1 X16.626 Y237.403 Z-4.000 F400.000
G2 X16.219 Y235.474 Z-4.000 I-25.978 J4.481 K0.000 F400.000
G2 X14.187 Y228.087 Z-4.000 I-503.362 J134.467 K0.000 F400.000
G2 X13.278 Y224.977 Z-4.000 I-51.691 J13.420 K0.000 F400.000
G2 X8.399 Y210.823 Z-4.000 I-1214.644 J410.768 K0.000 F400.000
G2 X5.842 Y205.464 Z-4.000 I-24.893 J8.586 K0.000 F400.000
G1 X-8.507 Y182.505 Z-4.000 F400.000
G2 X-10.958 Y179.191 Z-4.000 I-22.332 J13.959 K0.000 F400.000
G1 X-20.346 Y168.396 Z-4.000 F400.000
G1 X-29.731 Y157.134 Z-4.000 F400.000
G2 X-33.499 Y153.439 Z-4.000 I-20.230 J16.861 K0.000 F400.000
G1 X-44.093 Y144.963 Z-4.000 F400.000
G1 X-53.401 Y135.232 Z-4.000 F400.000
G2 X-54.633 Y134.026 Z-4.000 I-19.031 J18.204 K0.000 F400.000
G1 X-66.111 Y123.505 Z-4.000 F400.000
G2 X-67.844 Y122.048 Z-4.000 I-17.795 J19.414 K0.000 F400.000
G1 X-80.032 Y112.673 Z-4.000 F400.000
G1 X-91.362 Y103.522 Z-4.000 F400.000
G1 X-101.561 Y93.766 Z-4.000 F400.000
G2 X-103.310 Y92.235 Z-4.000 I-18.203 J19.032 K0.000 F400.000
G1 X-110.293 Y86.650 Z-4.000 F400.000
G1 X-116.660 Y78.775 Z-4.000 F400.000
G2 X-120.317 Y75.071 Z-4.000 I-20.478 J16.559 K0.000 F400.000
G1 X-126.285 Y70.121 Z-4.000 F400.000
G2 X-129.486 Y65.413 Z-4.000 I-253.553 J168.975 K0.000 F400.000
G2 X-131.485 Y62.660 Z-4.000 I-30.301 J19.897 K0.000 F400.000
G2 X-135.970 Y57.316 Z-4.000 I-282.802 J232.789 K0.000 F400.000
G2 X-138.727 Y51.691 Z-4.000 I-170.279 J79.974 K0.000 F400.000
G2 X-141.448 Y46.948 Z-4.000 I-122.069 J66.884 K0.000 F400.000
G1 X-142.453 Y44.532 Z-4.000 F400.000
G1 X-144.975 Y36.286 Z-4.000 F400.000
G2 X-167.221 Y17.825 Z-4.000 I-25.170 J7.696 K0.000 F400.000
G2 X-195.310 Y36.273 Z-4.000 I-2.924 J26.157 K0.000 F400.000
G1 X-197.836 Y44.532 Z-4.000 F400.000
G1 X-198.840 Y46.947 Z-4.000 F400.000
G2 X-201.937 Y52.411 Z-4.000 I121.258 J72.336 K0.000 F400.000
G2 X-204.318 Y57.313 Z-4.000 I359.982 J177.806 K0.000 F400.000
G2 X-207.756 Y61.389 Z-4.000 I216.372 J186.041 K0.000 F400.000
G2 X-209.790 Y63.960 Z-4.000 I26.535 J23.086 K0.000 F400.000
G2 X-214.003 Y70.120 Z-4.000 I321.320 J224.256 K0.000 F400.000
G1 X-219.963 Y75.063 Z-4.000 F400.000
G2 X-223.622 Y78.765 Z-4.000 I16.813 J20.270 K0.000 F400.000
G1 X-229.997 Y86.650 Z-4.000 F400.000
G1 X-236.975 Y92.231 Z-4.000 F400.000
G2 X-238.724 Y93.762 Z-4.000 I16.450 J20.566 K0.000 F400.000
G1 X-248.928 Y103.522 Z-4.000 F400.000
G1 X-260.258 Y112.673 Z-4.000 F400.000
G1 X-272.441 Y122.045 Z-4.000 F400.000
G2 X-274.174 Y123.501 Z-4.000 I16.058 J20.873 K0.000 F400.000
G1 X-285.653 Y134.023 Z-4.000 F400.000
G2 X-286.885 Y135.229 Z-4.000 I17.796 J19.413 K0.000 F400.000
G1 X-296.196 Y144.963 Z-4.000 F400.000
G1 X-306.781 Y153.431 Z-4.000 F400.000
G2 X-310.550 Y157.124 Z-4.000 I16.453 J20.563 K0.000 F400.000
G1 X-319.944 Y168.396 Z-4.000 F400.000
G1 X-329.324 Y179.184 Z-4.000 F400.000
G2 X-331.777 Y182.497 Z-4.000 I19.874 J17.279 K0.000 F400.000
G1 X-346.126 Y205.454 Z-4.000 F400.000
G2 X-348.685 Y210.813 Z-4.000 I22.331 J13.954 K0.000 F400.000
G1 X-353.470 Y224.689 Z-4.000 F400.000
G2 X-353.836 Y225.834 Z-4.000 I24.922 J8.592 K0.000 F400.000
G2 X-356.338 Y234.830 Z-4.000 I576.709 J165.252 K0.000 F400.000
G2 X-356.914 Y237.397 Z-4.000 I25.375 J7.047 K0.000 F400.000
G1 X-359.306 Y251.268 Z-4.000 F400.000
G2 X-359.599 Y257.913 Z-4.000 I25.950 J4.472 K0.000 F400.000
G1 X-358.641 Y269.400 Z-4.000 F400.000
G2 X-358.223 Y272.369 Z-4.000 I26.244 J-2.188 K0.000 F400.000
G1 X-355.831 Y284.329 Z-4.000 F400.000
G2 X-354.463 Y288.931 Z-4.000 I25.824 J-5.167 K0.000 F400.000
G1 X-349.678 Y300.895 Z-4.000 F400.000
G2 X-347.315 Y305.454 Z-4.000 I24.451 J-9.783 K0.000 F400.000
G1 X-341.093 Y315.026 Z-4.000 F400.000
G2 X-338.975 Y317.850 Z-4.000 I22.080 J-14.354 K0.000 F400.000
G1 X-324.149 Y335.068 Z-4.000 F400.000
G2 X-317.578 Y340.562 Z-4.000 I19.949 J-17.180 K0.000 F400.000
G1 X-290.792 Y356.347 Z-4.000 F400.000
G2 X-282.811 Y359.435 Z-4.000 I13.364 J-22.682 K0.000 F400.000
G1 X-259.849 Y364.219 Z-4.000 F400.000
G2 X-252.781 Y364.717 Z-4.000 I5.368 J-25.779 K0.000 F400.000
G1 X-230.775 Y363.282 Z-4.000 F400.000
G2 X-222.725 Y361.460 Z-4.000 I-1.715 J-26.271 K0.000 F400.000
G1 X-196.417 Y350.937 Z-4.000 F400.000
G2 X-188.130 Y345.644 Z-4.000 I-9.779 J-24.442 K0.000 F400.000
G1 X-170.908 Y329.379 Z-4.000 F400.000
G2 X-170.145 Y328.627 Z-4.000 I-17.283 J-18.311 K0.000 F400.000
G2 X-169.384 Y329.376 Z-4.000 I16.828 J-16.322 K0.000 F400.000
G1 X-152.169 Y345.635 Z-4.000 F400.000
G2 X-143.885 Y350.932 Z-4.000 I18.075 J-19.140 K0.000 F400.000
G1 X-117.576 Y361.456 Z-4.000 F400.000
G2 X-109.527 Y363.281 Z-4.000 I9.776 J-24.444 K0.000 F400.000
G1 X-87.521 Y364.717 Z-4.000 F400.000
G2 X-80.454 Y364.222 Z-4.000 I1.711 J-26.277 K0.000 F400.000
G1 X-57.491 Y359.438 Z-4.000 F400.000
G2 X-49.509 Y356.354 Z-4.000 I-5.371 J-25.773 K0.000 F400.000
G1 X-22.723 Y340.570 Z-4.000 F400.000
G2 X-16.150 Y335.078 Z-4.000 I-13.367 J-22.681 K0.000 F400.000
G1 X-15.696 Y334.551 Z-4.000 F400.000
G1 X-15.696 Y334.551 Z-8.000 F100.000
G1 X-1.319 Y317.856 Z-8.000 F400.000
G2 X0.799 Y315.033 Z-8.000 I-19.957 J-17.183 K0.000 F400.000
G1 X7.019 Y305.464 Z-8.000 F400.000
G2 X9.384 Y300.906 Z-8.000 I-22.082 J-14.351 K0.000 F400.000
G1 X14.170 Y288.942 Z-8.000 F400.000
G2 X15.539 Y284.340 Z-8.000 I-24.453 J-9.779 K0.000 F400.000
G1 X17.932 Y272.376 Z-8.000 F400.000
G2 X18.352 Y269.407 Z-8.000 I-25.824 J-5.164 K0.000 F400.000
G1 X19.309 Y257.926 Z-8.000 F400.000
G2 X19.019 Y251.280 Z-8.000 I-26.241 J-2.185 K0.000 F400.000
G1 X16.626 Y237.403 Z-8.000 F400.000
G2 X16.219 Y235.474 Z-8.000 I-25.978 J4.481 K0.000 F400.000
G2 X14.187 Y228.087 Z-8.000 I-503.362 J134.467 K0.000 F400.000
G2 X13.278 Y224.977 Z-8.000 I-51.691 J13.420 K0.000 F400.000
G2 X8.399 Y210.823 Z-8.000 I-1214.644 J410.768 K0.000 F400.000
G2 X5.842 Y205.464 Z-8.000 I-24.893 J8.586 K0.000 F400.000
G1 X-8.507 Y182.505 Z-8.000 F400.000
G2 X-10.958 Y179.191 Z-8.000 I-22.332 J13.959 K0.000 F400.000
G1 X-20.346 Y168.396 Z-8.000 F400.000
G1 X-29.731 Y157.134 Z-8.000 F400.000
G2 X-33.499 Y153.439 Z-8.000 I-20.230 J16.861 K0.000 F400.000
G1 X-44.093 Y144.963 Z-8.000 F400.000
G1 X-53.401 Y135.232 Z-8.000 F400.000
G2 X-54.633 Y134.026 Z-8.000 I-19.031 J18.204 K0.000 F400.000
G1 X-66.111 Y123.505 Z-8.000 F400.000
G2 X-67.844 Y122.048 Z-8.000 I-17.795 J19.414 K0.000 F400.000
G1 X-80.032 Y112.673 Z-8.000 F400.000
G1 X-91.362 Y103.522 Z-8.000 F400.000
G1 X-101.561 Y93.766 Z-8.000 F400.000
G2 X-103.310 Y92.235 Z-8.000 I-18.203 J19.032 K0.000 F400.000
G1 X-110.293 Y86.650 Z-8.000 F400.000
G1 X-116.660 Y78.775 Z-8.000 F400.000
G2 X-120.317 Y75.071 Z-8.000 I-20.478 J16.559 K0.000 F400.000
G1 X-126.285 Y70.121 Z-8.000 F400.000
G2 X-129.486 Y65.413 Z-8.000 I-253.553 J168.975 K0.000 F400.000
G2 X-131.485 Y62.660 Z-8.000 I-30.301 J19.897 K0.000 F400.000
G2 X-135.970 Y57.316 Z-8.000 I-282.802 J232.789 K0.000 F400.000
G2 X-138.727 Y51.691 Z-8.000 I-170.279 J79.974 K0.000 F400.000
G2 X-141.448 Y46.948 Z-8.000 I-122.069 J66.884 K0.000 F400.000
G1 X-142.453 Y44.532 Z-8.000 F400.000
G1 X-144.975 Y36.286 Z-8.000 F400.000
G2 X-167.221 Y17.825 Z-8.000 I-25.170 J7.696 K0.000 F400.000
G2 X-195.310 Y36.273 Z-8.000 I-2.924 J26.157 K0.000 F400.000
G1 X-197.836 Y44.532 Z-8.000 F400.000
G1 X-198.840 Y46.947 Z-8.000 F400.000
G2 X-201.937 Y52.411 Z-8.000 I121.258 J72.336 K0.000 F400.000
G2 X-204.318 Y57.313 Z-8.000 I359.982 J177.806 K0.000 F400.000
G2 X-207.756 Y61.389 Z-8.000 I216.372 J186.041 K0.000 F400.000
G2 X-209.790 Y63.960 Z-8.000 I26.535 J23.086 K0.000 F400.000
G2 X-214.003 Y70.120 Z-8.000 I321.320 J224.256 K0.000 F400.000
G1 X-219.963 Y75.063 Z-8.000 F400.000
G2 X-223.622 Y78.765 Z-8.000 I16.813 J20.270 K0.000 F400.000
G1 X-229.997 Y86.650 Z-8.000 F400.000
G1 X-236.975 Y92.231 Z-8.000 F400.000
G2 X-238.724 Y93.762 Z-8.000 I16.450 J20.566 K0.000 F400.000
G1 X-248.928 Y103.522 Z-8.000 F400.000
G1 X-260.258 Y112.673 Z-8.000 F400.000
G1 X-272.441 Y122.045 Z-8.000 F400.000
G2 X-274.174 Y123.501 Z-8.000 I16.058 J20.873 K0.000 F400.000
G1 X-285.653 Y134.023 Z-8.000 F400.000
G2 X-286.885 Y135.229 Z-8.000 I17.796 J19.413 K0.000 F400.000
G1 X-296.196 Y144.963 Z-8.000 F400.000
G1 X-306.781 Y153.431 Z-8.000 F400.000
G2 X-310.550 Y157.124 Z-8.000 I16.453 J20.563 K0.000 F400.000
G1 X-319.944 Y168.396 Z-8.000 F400.000
G1 X-329.324 Y179.184 Z-8.000 F400.000
G2 X-331.777 Y182.497 Z-8.000 I19.874 J17.279 K0.000 F400.000
G1 X-346.126 Y205.454 Z-8.000 F400.000
G2 X-348.685 Y210.813 Z-8.000 I22.331 J13.954 K0.000 F400.000
G1 X-353.470 Y224.689 Z-8.000 F400.000
G2 X-353.836 Y225.834 Z-8.000 I24.922 J8.592 K0.000 F400.000
G2 X-356.338 Y234.830 Z-8.000 I576.709 J165.252 K0.000 F400.000
G2 X-356.914 Y237.397 Z-8.000 I25.375 J7.047 K0.000 F400.000
G1 X-359.306 Y251.268 Z-8.000 F400.000
G2 X-359.599 Y257.913 Z-8.000 I25.950 J4.472 K0.000 F400.000
G1 X-358.641 Y269.400 Z-8.000 F400.000
G2 X-358.223 Y272.369 Z-8.000 I26.244 J-2.188 K0.000 F400.000
G1 X-355.831 Y284.329 Z-8.000 F400.000
G2 X-354.463 Y288.931 Z-8.000 I25.824 J-5.167 K0.000 F400.000
G1 X-349.678 Y300.895 Z-8.000 F400.000
G2 X-347.315 Y305.454 Z-8.000 I24.451 J-9.783 K0.000 F400.000
G1 X-341.093 Y315.026 Z-8.000 F400.000
G2 X-338.975 Y317.850 Z-8.000 I22.080 J-14.354 K0.000 F400.000
G1 X-324.149 Y335.068 Z-8.000 F400.000
G2 X-317.578 Y340.562 Z-8.000 I19.949 J-17.180 K0.000 F400.000
G1 X-290.792 Y356.347 Z-8.000 F400.000
G2 X-282.811 Y359.435 Z-8.000 I13.364 J-22.682 K0.000 F400.000
G1 X-259.849 Y364.219 Z-8.000 F400.000
G2 X-252.781 Y364.717 Z-8.000 I5.368 J-25.779 K0.000 F400.000
G1 X-230.775 Y363.282 Z-8.000 F400.000
G2 X-222.725 Y361.460 Z-8.000 I-1.715 J-26.271 K0.000 F400.000
G1 X-196.417 Y350.937 Z-8.000 F400.000
G2 X-188.130 Y345.644 Z-8.000 I-9.779 J-24.442 K0.000 F400.000
G1 X-170.908 Y329.379 Z-8.000 F400.000
G2 X-170.145 Y328.627 Z-8.000 I-17.283 J-18.311 K0.000 F400.000
G2 X-169.384 Y329.376 Z-8.000 I16.828 J-16.322 K0.000 F400.000
G1 X-152.169 Y345.635 Z-8.000 F400.000
G2 X-143.885 Y350.932 Z-8.000 I18.075 J-19.140 K0.000 F400.000
G1 X-117.576 Y361.456 Z-8.000 F400.000
G2 X-109.527 Y363.281 Z-8.000 I9.776 J-24.444 K0.000 F400.000
G1 X-87.521 Y364.717 Z-8.000 F400.000
G2 X-80.454 Y364.222 Z-8.000 I1.711 J-26.277 K0.000 F400.000
G1 X-57.491 Y359.438 Z-8.000 F400.000
G2 X-49.509 Y356.354 Z-8.000 I-5.371 J-25.773 K0.000 F400.000
G1 X-22.723 Y340.570 Z-8.000 F400.000
G2 X-16.150 Y335.078 Z-8.000 I-13.367 J-22.681 K0.000 F400.000
G1 X-15.696 Y334.551 Z-8.000 F400.000
G1 X-15.696 Y334.551 Z-12.000 F100.000
G1 X-1.319 Y317.856 Z-12.000 F400.000
G2 X0.799 Y315.033 Z-12.000 I-19.957 J-17.183 K0.000 F400.000
G1 X7.019 Y305.464 Z-12.000 F400.000
G2 X9.384 Y300.906 Z-12.000 I-22.082 J-14.351 K0.000 F400.000
G1 X14.170 Y288.942 Z-12.000 F400.000
G2 X15.539 Y284.340 Z-12.000 I-24.453 J-9.779 K0.000 F400.000
G1 X17.932 Y272.376 Z-12.000 F400.000
G2 X18.352 Y269.407 Z-12.000 I-25.824 J-5.164 K0.000 F400.000
G1 X19.309 Y257.926 Z-12.000 F400.000
G2 X19.019 Y251.280 Z-12.000 I-26.241 J-2.185 K0.000 F400.000
G1 X16.626 Y237.403 Z-12.000 F400.000
G2 X16.219 Y235.474 Z-12.000 I-25.978 J4.481 K0.000 F400.000
G2 X14.187 Y228.087 Z-12.000 I-503.362 J134.467 K0.000 F400.000
G2 X13.278 Y224.977 Z-12.000 I-51.691 J13.420 K0.000 F400.000
G2 X8.399 Y210.823 Z-12.000 I-1214.644 J410.768 K0.000 F400.000
G2 X5.842 Y205.464 Z-12.000 I-24.893 J8.586 K0.000 F400.000
G1 X-8.507 Y182.505 Z-12.000 F400.000
G2 X-10.958 Y179.191 Z-12.000 I-22.332 J13.959 K0.000 F400.000
G1 X-20.346 Y168.396 Z-12.000 F400.000
G1 X-29.731 Y157.134 Z-12.000 F400.000
G2 X-33.499 Y153.439 Z-12.000 I-20.230 J16.861 K0.000 F400.000
G1 X-44.093 Y144.963 Z-12.000 F400.000
G1 X-53.401 Y135.232 Z-12.000 F400.000
G2 X-54.633 Y134.026 Z-12.000 I-19.031 J18.204 K0.000 F400.000
G1 X-66.111 Y123.505 Z-12.000 F400.000
G2 X-67.844 Y122.048 Z-12.000 I-17.795 J19.414 K0.000 F400.000
G1 X-80.032 Y112.673 Z-12.000 F400.000
G1 X-91.362 Y103.522 Z-12.000 F400.000
G1 X-101.561 Y93.766 Z-12.000 F400.000
G2 X-103.310 Y92.235 Z-12.000 I-18.203 J19.032 K0.000 F400.000
G1 X-110.293 Y86.650 Z-12.000 F400.000
G1 X-116.660 Y78.775 Z-12.000 F400.000
G2 X-120.317 Y75.071 Z-12.000 I-20.478 J16.559 K0.000 F400.000
G1 X-126.285 Y70.121 Z-12.000 F400.000
G2 X-129.486 Y65.413 Z-12.000 I-253.553 J168.975 K0.000 F400.000
G2 X-131.485 Y62.660 Z-12.000 I-30.301 J19.897 K0.000 F400.000
G2 X-135.970 Y57.316 Z-12.000 I-282.802 J232.789 K0.000 F400.000
G2 X-138.727 Y51.691 Z-12.000 I-170.279 J79.974 K0.000 F400.000
G2 X-141.448 Y46.948 Z-12.000 I-122.069 J66.884 K0.000 F400.000
G1 X-142.453 Y44.532 Z-12.000 F400.000
G1 X-144.975 Y36.286 Z-12.000 F400.000
G2 X-167.221 Y17.825 Z-12.000 I-25.170 J7.696 K0.000 F400.000
G2 X-195.310 Y36.273 Z-12.000 I-2.924 J26.157 K0.000 F400.000
G1 X-197.836 Y44.532 Z-12.000 F400.000
G1 X-198.840 Y46.947 Z-12.000 F400.000
G2 X-201.937 Y52.411 Z-12.000 I121.258 J72.336 K0.000 F400.000
G2 X-204.318 Y57.313 Z-12.000 I359.982 J177.806 K0.000 F400.000
G2 X-207.756 Y61.389 Z-12.000 I216.372 J186.041 K0.000 F400.000
G2 X-209.790 Y63.960 Z-12.000 I26.535 J23.086 K0.000 F400.000
G2 X-214.003 Y70.120 Z-12.000 I321.320 J224.256 K0.000 F400.000
G1 X-219.963 Y75.063 Z-12.000 F400.000
G2 X-223.622 Y78.765 Z-12.000 I16.813 J20.270 K0.000 F400.000
G1 X-229.997 Y86.650 Z-12.000 F400.000
G1 X-236.975 Y92.231 Z-12.000 F400.000
G2 X-238.724 Y93.762 Z-12.000 I16.450 J20.566 K0.000 F400.000
G1 X-248.928 Y103.522 Z-12.000 F400.000
G1 X-260.258 Y112.673 Z-12.000 F400.000
G1 X-272.441 Y122.045 Z-12.000 F400.000
G2 X-274.174 Y123.501 Z-12.000 I16.058 J20.873 K0.000 F400.000
G1 X-285.653 Y134.023 Z-12.000 F400.000
G2 X-286.885 Y135.229 Z-12.000 I17.796 J19.413 K0.000 F400.000
G1 X-296.196 Y144.963 Z-12.000 F400.000
G1 X-306.781 Y153.431 Z-12.000 F400.000
G2 X-310.550 Y157.124 Z-12.000 I16.453 J20.563 K0.000 F400.000
G1 X-319.944 Y168.396 Z-12.000 F400.000
G1 X-329.324 Y179.184 Z-12.000 F400.000
G2 X-331.777 Y182.497 Z-12.000 I19.874 J17.279 K0.000 F400.000
G1 X-346.126 Y205.454 Z-12.000 F400.000
G2 X-348.685 Y210.813 Z-12.000 I22.331 J13.954 K0.000 F400.000
G1 X-353.470 Y224.689 Z-12.000 F400.000
G2 X-353.836 Y225.834 Z-12.000 I24.922 J8.592 K0.000 F400.000
G2 X-356.338 Y234.830 Z-12.000 I576.709 J165.252 K0.000 F400.000
G2 X-356.914 Y237.397 Z-12.000 I25.375 J7.047 K0.000 F400.000
G1 X-359.306 Y251.268 Z-12.000 F400.000
G2 X-359.599 Y257.913 Z-12.000 I25.950 J4.472 K0.000 F400.000
G1 X-358.641 Y269.400 Z-12.000 F400.000
G2 X-358.223 Y272.369 Z-12.000 I26.244 J-2.188 K0.000 F400.000
G1 X-355.831 Y284.329 Z-12.000 F400.000
G2 X-354.463 Y288.931 Z-12.000 I25.824 J-5.167 K0.000 F400.000
G1 X-349.678 Y300.895 Z-12.000 F400.000
G2 X-347.315 Y305.454 Z-12.000 I24.451 J-9.783 K0.000 F400.000
G1 X-341.093 Y315.026 Z-12.000 F400.000
G2 X-338.975 Y317.850 Z-12.000 I22.080 J-14.354 K0.000 F400.000
G1 X-324.149 Y335.068 Z-12.000 F400.000
G2 X-317.578 Y340.562 Z-12.000 I19.949 J-17.180 K0.000 F400.000
G1 X-290.792 Y356.347 Z-12.000 F400.000
G2 X-282.811 Y359.435 Z-12.000 I13.364 J-22.682 K0.000 F400.000
G1 X-259.849 Y364.219 Z-12.000 F400.000
G2 X-252.781 Y364.717 Z-12.000 I5.368 J-25.779 K0.000 F400.000
G1 X-230.775 Y363.282 Z-12.000 F400.000
G2 X-222.725 Y361.460 Z-12.000 I-1.715 J-26.271 K0.000 F400.000
G1 X-196.417 Y350.937 Z-12.000 F400.000
G2 X-188.130 Y345.644 Z-12.000 I-9.779 J-24.442 K0.000 F400.000
G1 X-170.908 Y329.379 Z-12.000 F400.000
G2 X-170.145 Y328.627 Z-12.000 I-17.283 J-18.311 K0.000 F400.000
G2 X-169.384 Y329.376 Z-12.000 I16.828 J-16.322 K0.000 F400.000
G1 X-152.169 Y345.635 Z-12.000 F400.000
G2 X-143.885 Y350.932 Z-12.000 I18.075 J-19.140 K0.000 F400.000
G1 X-117.576 Y361.456 Z-12.000 F400.000
G2 X-109.527 Y363.281 Z-12.000 I9.776 J-24.444 K0.000 F400.000
G1 X-87.521 Y364.717 Z-12.000 F400.000
G2 X-80.454 Y364.222 Z-12.000 I1.711 J-26.277 K0.000 F400.000
G1 X-57.491 Y359.438 Z-12.000 F400.000
G2 X-49.509 Y356.354 Z-12.000 I-5.371 J-25.773 K0.000 F400.000
G1 X-22.723 Y340.570 Z-12.000 F400.000
G2 X-16.150 Y335.078 Z-12.000 I-13.367 J-22.681 K0.000 F400.000
G1 X-15.696 Y334.551 Z-12.000 F400.000
G1 X-15.696 Y334.551 Z-16.000 F100.000
G1 X-1.319 Y317.856 Z-16.000 F400.000
G2 X0.799 Y315.033 Z-16.000 I-19.957 J-17.183 K0.000 F400.000
G1 X7.019 Y305.464 Z-16.000 F400.000
G2 X9.384 Y300.906 Z-16.000 I-22.082 J-14.351 K0.000 F400.000
G1 X14.170 Y288.942 Z-16.000 F400.000
G2 X15.539 Y284.340 Z-16.000 I-24.453 J-9.779 K0.000 F400.000
G1 X17.932 Y272.376 Z-16.000 F400.000
G2 X18.352 Y269.407 Z-16.000 I-25.824 J-5.164 K0.000 F400.000
G1 X19.309 Y257.926 Z-16.000 F400.000
G2 X19.019 Y251.280 Z-16.000 I-26.241 J-2.185 K0.000 F400.000
G1 X16.626 Y237.403 Z-16.000 F400.000
G2 X16.219 Y235.474 Z-16.000 I-25.978 J4.481 K0.000 F400.000
G2 X14.187 Y228.087 Z-16.000 I-503.362 J134.467 K0.000 F400.000
G2 X13.278 Y224.977 Z-16.000 I-51.691 J13.420 K0.000 F400.000
G2 X8.399 Y210.823 Z-16.000 I-1214.644 J410.768 K0.000 F400.000
G2 X5.842 Y205.464 Z-16.000 I-24.893 J8.586 K0.000 F400.000
G1 X-8.507 Y182.505 Z-16.000 F400.000
G2 X-10.958 Y179.191 Z-16.000 I-22.332 J13.959 K0.000 F400.000
G1 X-20.346 Y168.396 Z-16.000 F400.000
G1 X-29.731 Y157.134 Z-16.000 F400.000
G2 X-33.499 Y153.439 Z-16.000 I-20.230 J16.861 K0.000 F400.000
G1 X-44.093 Y144.963 Z-16.000 F400.000
G1 X-53.401 Y135.232 Z-16.000 F400.000
G2 X-54.633 Y134.026 Z-16.000 I-19.031 J18.204 K0.000 F400.000
G1 X-66.111 Y123.505 Z-16.000 F400.000
G2 X-67.844 Y122.048 Z-16.000 I-17.795 J19.414 K0.000 F400.000
G1 X-80.032 Y112.673 Z-16.000 F400.000
G1 X-91.362 Y103.522 Z-16.000 F400.000
G1 X-101.561 Y93.766 Z-16.000 F400.000
G2 X-103.310 Y92.235 Z-16.000 I-18.203 J19.032 K0.000 F400.000
G1 X-110.293 Y86.650 Z-16.000 F400.000
G1 X-116.660 Y78.775 Z-16.000 F400.000
G2 X-120.317 Y75.071 Z-16.000 I-20.478 J16.559 K0.000 F400.000
G1 X-126.285 Y70.121 Z-16.000 F400.000
G2 X-129.486 Y65.413 Z-16.000 I-253.553 J168.975 K0.000 F400.000
G2 X-131.485 Y62.660 Z-16.000 I-30.301 J19.897 K0.000 F400.000
G2 X-135.970 Y57.316 Z-16.000 I-282.802 J232.789 K0.000 F400.000
G2 X-138.727 Y51.691 Z-16.000 I-170.279 J79.974 K0.000 F400.000
G2 X-141.448 Y46.948 Z-16.000 I-122.069 J66.884 K0.000 F400.000
G1 X-142.453 Y44.532 Z-16.000 F400.000
G1 X-144.975 Y36.286 Z-16.000 F400.000
G2 X-167.221 Y17.825 Z-16.000 I-25.170 J7.696 K0.000 F400.000
G2 X-195.310 Y36.273 Z-16.000 I-2.924 J26.157 K0.000 F400.000
G1 X-197.836 Y44.532 Z-16.000 F400.000
G1 X-198.840 Y46.947 Z-16.000 F400.000
G2 X-201.937 Y52.411 Z-16.000 I121.258 J72.336 K0.000 F400.000
G2 X-204.318 Y57.313 Z-16.000 I359.982 J177.806 K0.000 F400.000
G2 X-207.756 Y61.389 Z-16.000 I216.372 J186.041 K0.000 F400.000
G2 X-209.790 Y63.960 Z-16.000 I26.535 J23.086 K0.000 F400.000
G2 X-214.003 Y70.120 Z-16.000 I321.320 J224.256 K0.000 F400.000
G1 X-219.963 Y75.063 Z-16.000 F400.000
G2 X-223.622 Y78.765 Z-16.000 I16.813 J20.270 K0.000 F400.000
G1 X-229.997 Y86.650 Z-16.000 F400.000
G1 X-236.975 Y92.231 Z-16.000 F400.000
G2 X-238.724 Y93.762 Z-16.000 I16.450 J20.566 K0.000 F400.000
G1 X-248.928 Y103.522 Z-16.000 F400.000
G1 X-260.258 Y112.673 Z-16.000 F400.000
G1 X-272.441 Y122.045 Z-16.000 F400.000
G2 X-274.174 Y123.501 Z-16.000 I16.058 J20.873 K0.000 F400.000
G1 X-285.653 Y134.023 Z-16.000 F400.000
G2 X-286.885 Y135.229 Z-16.000 I17.796 J19.413 K0.000 F400.000
G1 X-296.196 Y144.963 Z-16.000 F400.000
G1 X-306.781 Y153.431 Z-16.000 F400.000
G2 X-310.550 Y157.124 Z-16.000 I16.453 J20.563 K0.000 F400.000
G1 X-319.944 Y168.396 Z-16.000 F400.000
G1 X-329.324 Y179.184 Z-16.000 F400.000
G2 X-331.777 Y182.497 Z-16.000 I19.874 J17.279 K0.000 F400.000
G1 X-346.126 Y205.454 Z-16.000 F400.000
G2 X-348.685 Y210.813 Z-16.000 I22.331 J13.954 K0.000 F400.000
G1 X-353.470 Y224.689 Z-16.000 F400.000
G2 X-353.836 Y225.834 Z-16.000 I24.922 J8.592 K0.000 F400.000
G2 X-356.338 Y234.830 Z-16.000 I576.709 J165.252 K0.000 F400.000
G2 X-356.914 Y237.397 Z-16.000 I25.375 J7.047 K0.000 F400.000
G1 X-359.306 Y251.268 Z-16.000 F400.000
G2 X-359.599 Y257.913 Z-16.000 I25.950 J4.472 K0.000 F400.000
G1 X-358.641 Y269.400 Z-16.000 F400.000
G2 X-358.223 Y272.369 Z-16.000 I26.244 J-2.188 K0.000 F400.000
G1 X-355.831 Y284.329 Z-16.000 F400.000
G2 X-354.463 Y288.931 Z-16.000 I25.824 J-5.167 K0.000 F400.000
G1 X-349.678 Y300.895 Z-16.000 F400.000
G2 X-347.315 Y305.454 Z-16.000 I24.451 J-9.783 K0.000 F400.000
G1 X-341.093 Y315.026 Z-16.000 F400.000
G2 X-338.975 Y317.850 Z-16.000 I22.080 J-14.354 K0.000 F400.000
G1 X-324.149 Y335.068 Z-16.000 F400.000
G2 X-317.578 Y340.562 Z-16.000 I19.949 J-17.180 K0.000 F400.000
G1 X-290.792 Y356.347 Z-16.000 F400.000
G2 X-282.811 Y359.435 Z-16.000 I13.364 J-22.682 K0.000 F400.000
G1 X-259.849 Y364.219 Z-16.000 F400.000
G2 X-252.781 Y364.717 Z-16.000 I5.368 J-25.779 K0.000 F400.000
G1 X-230.775 Y363.282 Z-16.000 F400.000
G2 X-222.725 Y361.460 Z-16.000 I-1.715 J-26.271 K0.000 F400.000
G1 X-196.417 Y350.937 Z-16.000 F400.000
G2 X-188.130 Y345.644 Z-16.000 I-9.779 J-24.442 K0.000 F400.000
G1 X-170.908 Y329.379 Z-16.000 F400.000
G2 X-170.145 Y328.627 Z-16.000 I-17.283 J-18.311 K0.000 F400.000
G2 X-169.384 Y329.376 Z-16.000 I16.828 J-16.322 K0.000 F400.000
G1 X-152.169 Y345.635 Z-16.000 F400.000
G2 X-143.885 Y350.932 Z-16.000 I18.075 J-19.140 K0.000 F400.000
G1 X-117.576 Y361.456 Z-16.000 F400.000
G2 X-109.527 Y363.281 Z-16.000 I9.776 J-24.444 K0.000 F400.000
G1 X-87.521 Y364.717 Z-16.000 F400.000
G2 X-80.454 Y364.222 Z-16.000 I1.711 J-26.277 K0.000 F400.000
G1 X-57.491 Y359.438 Z-16.000 F400.000
G2 X-49.509 Y356.354 Z-16.000 I-5.371 J-25.773 K0.000 F400.000
G1 X-22.723 Y340.570 Z-16.000 F400.000
G2 X-16.150 Y335.078 Z-16.000 I-13.367 J-22.681 K0.000 F400.000
G1 X-15.696 Y334.551 Z-16.000 F400.000
G0 Z26.000
G0 Z26.000
(Finish operation: Profile)
(Begin operation: Profile001)
(Path: Profile001)
(Profile001)
(Compensated Tool Path. Diameter: 5.0)
G0 Z26.000
G0 X-38.434 Y310.384
G0 Z24.000
G1 X-38.434 Y310.384 Z-4.000 F100.000
G1 X-26.619 Y296.664 Z-4.000 F400.000
G1 X-21.007 Y288.030 Z-4.000 F400.000
G1 X-16.697 Y277.256 Z-4.000 F400.000
G1 X-14.502 Y266.279 Z-4.000 F400.000
G1 X-13.648 Y256.035 Z-4.000 F400.000
G1 X-15.839 Y243.326 Z-4.000 F400.000
G2 X-18.083 Y235.254 Z-4.000 I-544.291 J146.942 K0.000 F400.000
G1 X-22.550 Y222.300 Z-4.000 F400.000
G1 X-36.212 Y200.441 Z-4.000 F400.000
G1 X-45.251 Y190.046 Z-4.000 F400.000
G1 X-54.649 Y178.779 Z-4.000 F400.000
G1 X-64.734 Y170.711 Z-4.000 F400.000
G3 X-67.918 Y167.797 Z-4.000 I20.303 J-25.378 K0.000 F400.000
G1 X-77.097 Y158.201 Z-4.000 F400.000
G1 X-88.197 Y148.025 Z-4.000 F400.000
G1 X-100.157 Y138.826 Z-4.000 F400.000
G1 X-112.113 Y129.181 Z-4.000 F400.000
G3 X-114.157 Y127.383 Z-4.000 I20.421 J-25.283 K0.000 F400.000
G1 X-124.157 Y117.817 Z-4.000 F400.000
G1 X-130.947 Y112.387 Z-4.000 F400.000
G3 X-135.920 Y107.440 Z-4.000 I20.300 J-25.380 K0.000 F400.000
G1 X-141.903 Y100.040 Z-4.000 F400.000
G1 X-147.405 Y95.477 Z-4.000 F400.000
G3 X-152.721 Y89.878 Z-4.000 I20.746 J-25.017 K0.000 F400.000
G2 X-157.276 Y83.256 Z-4.000 I-26269.740 J18065.711 K0.000 F400.000
G1 X-161.274 Y78.499 Z-4.000 F400.000
G3 X-164.991 Y73.031 Z-4.000 I24.880 J-20.910 K0.000 F400.000
G3 X-167.782 Y67.345 Z-4.000 I550.612 J-273.853 K0.000 F400.000
G3 X-170.147 Y63.234 Z-4.000 I138.533 J-82.433 K0.000 F400.000
G2 X-172.504 Y67.339 Z-4.000 I769.951 J444.673 K0.000 F400.000
G1 X-174.653 Y71.771 Z-4.000 F400.000
G3 X-178.174 Y77.455 Z-4.000 I-29.243 J-14.182 K0.000 F400.000
G3 X-183.008 Y83.249 Z-4.000 I-7871.448 J-6562.090 K0.000 F400.000
G1 X-186.791 Y88.789 Z-4.000 F400.000
G3 X-192.884 Y95.477 Z-4.000 I-26.839 J-18.329 K0.000 F400.000
G1 X-198.386 Y100.040 Z-4.000 F400.000
G1 X-204.369 Y107.440 Z-4.000 F400.000
G3 X-209.342 Y112.387 Z-4.000 I-25.273 J-20.433 K0.000 F400.000
G1 X-216.132 Y117.817 Z-4.000 F400.000
G1 X-226.132 Y127.383 Z-4.000 F400.000
G3 X-228.176 Y129.181 Z-4.000 I-22.465 J-23.486 K0.000 F400.000
G1 X-239.527 Y138.349 Z-4.000 F400.000
G1 X-252.091 Y148.024 Z-4.000 F400.000
G1 X-263.192 Y158.201 Z-4.000 F400.000
G1 X-272.372 Y167.797 Z-4.000 F400.000
G3 X-275.555 Y170.711 Z-4.000 I-23.486 J-22.465 K0.000 F400.000
G1 X-285.639 Y178.778 Z-4.000 F400.000
G1 X-294.596 Y189.526 Z-4.000 F400.000
G1 X-304.077 Y200.439 Z-4.000 F400.000
G1 X-317.739 Y222.300 Z-4.000 F400.000
G1 X-322.206 Y235.253 Z-4.000 F400.000
G1 X-324.452 Y243.340 Z-4.000 F400.000
G1 X-326.641 Y256.035 Z-4.000 F400.000
G1 X-325.787 Y266.279 Z-4.000 F400.000
G1 X-323.592 Y277.256 Z-4.000 F400.000
G1 X-319.282 Y288.030 Z-4.000 F400.000
G1 X-313.670 Y296.664 Z-4.000 F400.000
G1 X-299.862 Y312.699 Z-4.000 F400.000
G1 X-274.988 Y327.357 Z-4.000 F400.000
G1 X-254.008 Y331.727 Z-4.000 F400.000
G1 X-233.983 Y330.421 Z-4.000 F400.000
G1 X-209.854 Y320.770 Z-4.000 F400.000
G1 X-193.706 Y305.519 Z-4.000 F400.000
G3 X-146.583 Y305.519 Z-4.000 I23.561 J22.386 K0.000 F400.000
G1 X-130.435 Y320.770 Z-4.000 F400.000
G1 X-106.307 Y330.421 Z-4.000 F400.000
G1 X-86.281 Y331.727 Z-4.000 F400.000
G1 X-65.301 Y327.357 Z-4.000 F400.000
G1 X-40.427 Y312.699 Z-4.000 F400.000
G1 X-38.434 Y310.384 Z-4.000 F400.000
G1 X-38.434 Y310.384 Z-8.000 F100.000
G1 X-26.619 Y296.664 Z-8.000 F400.000
G1 X-21.007 Y288.030 Z-8.000 F400.000
G1 X-16.697 Y277.256 Z-8.000 F400.000
G1 X-14.502 Y266.279 Z-8.000 F400.000
G1 X-13.648 Y256.035 Z-8.000 F400.000
G1 X-15.839 Y243.326 Z-8.000 F400.000
G2 X-18.083 Y235.254 Z-8.000 I-544.291 J146.942 K0.000 F400.000
G1 X-22.550 Y222.300 Z-8.000 F400.000
G1 X-36.212 Y200.441 Z-8.000 F400.000
G1 X-45.251 Y190.046 Z-8.000 F400.000
G1 X-54.649 Y178.779 Z-8.000 F400.000
G1 X-64.734 Y170.711 Z-8.000 F400.000
G3 X-67.918 Y167.797 Z-8.000 I20.303 J-25.378 K0.000 F400.000
G1 X-77.097 Y158.201 Z-8.000 F400.000
G1 X-88.197 Y148.025 Z-8.000 F400.000
G1 X-100.157 Y138.826 Z-8.000 F400.000
G1 X-112.113 Y129.181 Z-8.000 F400.000
G3 X-114.157 Y127.383 Z-8.000 I20.421 J-25.283 K0.000 F400.000
G1 X-124.157 Y117.817 Z-8.000 F400.000
G1 X-130.947 Y112.387 Z-8.000 F400.000
G3 X-135.920 Y107.440 Z-8.000 I20.300 J-25.380 K0.000 F400.000
G1 X-141.903 Y100.040 Z-8.000 F400.000
G1 X-147.405 Y95.477 Z-8.000 F400.000
G3 X-152.721 Y89.878 Z-8.000 I20.746 J-25.017 K0.000 F400.000
G2 X-157.276 Y83.256 Z-8.000 I-26269.740 J18065.711 K0.000 F400.000
G1 X-161.274 Y78.499 Z-8.000 F400.000
G3 X-164.991 Y73.031 Z-8.000 I24.880 J-20.910 K0.000 F400.000
G3 X-167.782 Y67.345 Z-8.000 I550.612 J-273.853 K0.000 F400.000
G3 X-170.147 Y63.234 Z-8.000 I138.533 J-82.433 K0.000 F400.000
G2 X-172.504 Y67.339 Z-8.000 I769.951 J444.673 K0.000 F400.000
G1 X-174.653 Y71.771 Z-8.000 F400.000
G3 X-178.174 Y77.455 Z-8.000 I-29.243 J-14.182 K0.000 F400.000
G3 X-183.008 Y83.249 Z-8.000 I-7871.448 J-6562.090 K0.000 F400.000
G1 X-186.791 Y88.789 Z-8.000 F400.000
G3 X-192.884 Y95.477 Z-8.000 I-26.839 J-18.329 K0.000 F400.000
G1 X-198.386 Y100.040 Z-8.000 F400.000
G1 X-204.369 Y107.440 Z-8.000 F400.000
G3 X-209.342 Y112.387 Z-8.000 I-25.273 J-20.433 K0.000 F400.000
G1 X-216.132 Y117.817 Z-8.000 F400.000
G1 X-226.132 Y127.383 Z-8.000 F400.000
G3 X-228.176 Y129.181 Z-8.000 I-22.465 J-23.486 K0.000 F400.000
G1 X-239.527 Y138.349 Z-8.000 F400.000
G1 X-252.091 Y148.024 Z-8.000 F400.000
G1 X-263.192 Y158.201 Z-8.000 F400.000
G1 X-272.372 Y167.797 Z-8.000 F400.000
G3 X-275.555 Y170.711 Z-8.000 I-23.486 J-22.465 K0.000 F400.000
G1 X-285.639 Y178.778 Z-8.000 F400.000
G1 X-294.596 Y189.526 Z-8.000 F400.000
G1 X-304.077 Y200.439 Z-8.000 F400.000
G1 X-317.739 Y222.300 Z-8.000 F400.000
G1 X-322.206 Y235.253 Z-8.000 F400.000
G1 X-324.452 Y243.340 Z-8.000 F400.000
G1 X-326.641 Y256.035 Z-8.000 F400.000
G1 X-325.787 Y266.279 Z-8.000 F400.000
G1 X-323.592 Y277.256 Z-8.000 F400.000
G1 X-319.282 Y288.030 Z-8.000 F400.000
G1 X-313.670 Y296.664 Z-8.000 F400.000
G1 X-299.862 Y312.699 Z-8.000 F400.000
G1 X-274.988 Y327.357 Z-8.000 F400.000
G1 X-254.008 Y331.727 Z-8.000 F400.000
G1 X-233.983 Y330.421 Z-8.000 F400.000
G1 X-209.854 Y320.770 Z-8.000 F400.000
G1 X-193.706 Y305.519 Z-8.000 F400.000
G3 X-146.583 Y305.519 Z-8.000 I23.561 J22.386 K0.000 F400.000
G1 X-130.435 Y320.770 Z-8.000 F400.000
G1 X-106.307 Y330.421 Z-8.000 F400.000
G1 X-86.281 Y331.727 Z-8.000 F400.000
G1 X-65.301 Y327.357 Z-8.000 F400.000
G1 X-40.427 Y312.699 Z-8.000 F400.000
G1 X-38.434 Y310.384 Z-8.000 F400.000
G0 Z26.000
G0 Z26.000
(Finish operation: Profile001)
(Begin postamble)
M5
G17 G90
M2
