G21 G90
G0 Z5
M3 S1000

G0 X171.664 Y299.898
G1 Z-2 F400
G1 X165.569 Y294.723 F800
G1 X100.214 Y231.466 F800
G1 X74.093 Y201.203 F800
G1 X58.957 Y180.082 F800
G1 X48.819 Y162.855 F800
G1 X41.994 Y148.395 F800
G1 X37.537 Y136.190 F800
G1 X34.465 Y124.598 F800
G1 X32.816 Y114.741 F800
G1 X32.171 Y105.770 F800
G1 X32.364 Y97.777 F800
G1 X33.171 Y90.828 F800
G1 X34.612 Y83.983 F800
G1 X36.716 Y77.311 F800
G1 X39.058 Y71.791 F800
G1 X41.893 Y66.507 F800
G1 X45.205 Y61.509 F800
G1 X48.968 Y56.840 F800
G1 X53.144 Y52.537 F800
G1 X57.689 Y48.625 F800
G1 X63.384 Y44.562 F800
G1 X69.419 Y41.022 F800
G1 X76.663 Y37.640 F800
G1 X84.204 Y34.986 F800
G1 X91.970 Y33.085 F800
G1 X99.884 Y31.949 F800
G1 X107.868 Y31.539 F800
G1 X115.856 Y31.881 F800
G1 X122.788 Y32.827 F800
G1 X129.605 Y34.397 F800
G1 X136.241 Y36.609 F800
G1 X141.730 Y39.025 F800
G1 X146.980 Y41.922 F800
G1 X151.939 Y45.293 F800
G1 X156.551 Y49.124 F800
G1 X161.458 Y54.110 F800
G1 X165.871 Y59.539 F800
G1 X175.491 Y73.545 F800
G1 X176.250 Y74.168 F800
G1 X176.985 Y73.554 F800
G1 X190.855 Y55.238 F800
G1 X196.478 Y49.554 F800
G1 X201.844 Y45.065 F800
G1 X206.779 Y41.659 F800
G1 X212.005 Y38.718 F800
G1 X217.478 Y36.269 F800
G1 X224.102 Y34.019 F800
G1 X230.900 Y32.368 F800
G1 X236.835 Y31.510 F800
G1 X244.820 Y31.114 F800
G1 X255.805 Y31.547 F800
G1 X261.742 Y32.388 F800
G1 X270.477 Y34.534 F800
G1 X278.024 Y37.172 F800
G1 X284.380 Y40.093 F800
G1 X290.435 Y43.597 F800
G1 X296.115 Y47.680 F800
G1 X300.631 Y51.626 F800
G1 X304.775 Y55.960 F800
G1 X308.509 Y60.652 F800
G1 X311.804 Y65.662 F800
G1 X314.638 Y70.946 F800
G1 X317.349 Y77.395 F800
G1 X319.418 Y84.077 F800
G1 X320.860 Y90.923 F800
G1 X321.376 Y95.893 F800
G1 X321.513 Y107.885 F800
G1 X321.034 Y114.865 F800
G1 X319.413 Y123.713 F800
G1 X316.227 Y135.274 F800
G1 X311.630 Y147.426 F800
G1 X305.094 Y160.918 F800
G1 X295.326 Y177.201 F800
G1 X279.996 Y198.182 F800
G1 X256.285 Y225.244 F800
G1 X194.519 Y283.574 F800
G1 X176.243 Y299.117 F800
G1 X174.575 Y300.215 F800
G1 X173.637 Y300.549 F800
G1 X172.655 Y300.443 F800
G1 X171.775 Y299.971 F800
G0 Z5
G0 X177.685 Y276.401
G1 Z-2 F400
G1 X245.537 Y212.874 F800
G1 X266.137 Y189.735 F800
G1 X281.057 Y169.692 F800
G1 X290.484 Y154.371 F800
G1 X296.745 Y141.858 F800
G1 X301.109 Y130.687 F800
G1 X303.835 Y121.073 F800
G1 X305.442 Y112.223 F800
G1 X306.027 Y105.252 F800
G1 X305.969 Y99.256 F800
G1 X305.328 Y93.295 F800
G1 X304.324 Y88.399 F800
G1 X302.563 Y82.668 F800
G1 X300.237 Y77.141 F800
G1 X297.868 Y72.741 F800
G1 X295.074 Y68.599 F800
G1 X291.891 Y64.747 F800
G1 X288.357 Y61.214 F800
G1 X284.515 Y58.019 F800
G1 X279.553 Y54.653 F800
G1 X274.273 Y51.814 F800
G1 X268.728 Y49.530 F800
G1 X262.985 Y47.807 F800
G1 X256.122 Y46.452 F800
G1 X250.162 Y45.792 F800
G1 X245.165 Y45.717 F800
G1 X239.186 Y46.177 F800
G1 X232.291 Y47.354 F800
G1 X226.497 Y48.900 F800
G1 X221.804 Y50.617 F800
G1 X218.195 Y52.335 F800
G1 X213.914 Y54.911 F800
G1 X209.938 Y57.938 F800
G1 X205.569 Y62.044 F800
G1 X199.013 Y69.587 F800
G1 X176.964 Y100.502 F800
G1 X176.214 Y101.161 F800
G1 X175.317 Y101.588 F800
G1 X174.326 Y101.566 F800
G1 X173.383 Y101.238 F800
G1 X172.549 Y100.695 F800
G1 X171.899 Y99.938 F800
G1 X153.017 Y68.178 F800
G1 X149.124 Y63.617 F800
G1 X144.153 Y58.694 F800
G1 X141.084 Y56.132 F800
G1 X137.735 Y53.950 F800
G1 X133.309 Y51.632 F800
G1 X128.684 Y49.739 F800
G1 X123.908 Y48.269 F800
G1 X118.037 Y47.055 F800
G1 X112.074 Y46.420 F800
G1 X106.078 Y46.342 F800
G1 X99.107 Y46.919 F800
G1 X93.205 Y47.983 F800
G1 X87.427 Y49.584 F800
G1 X81.821 Y51.714 F800
G1 X76.442 Y54.363 F800
G1 X71.345 Y57.520 F800
G1 X66.590 Y61.173 F800
G1 X62.938 Y64.583 F800
G1 X59.612 Y68.313 F800
G1 X56.658 Y72.343 F800
G1 X54.123 Y76.649 F800
G1 X52.049 Y81.195 F800
G1 X50.102 Y86.865 F800
G1 X48.971 Y91.733 F800
G1 X48.219 Y97.681 F800
G1 X48.035 Y105.674 F800
G1 X48.483 Y112.655 F800
G1 X49.642 Y119.554 F800
G1 X52.648 Y131.164 F800
G1 X56.388 Y141.502 F800
G1 X62.318 Y154.174 F800
G1 X71.405 Y169.700 F800
G1 X85.939 Y190.023 F800
G1 X109.411 Y217.290 F800
G1 X171.036 Y277.211 F800
G1 X173.328 Y279.144 F800
G1 X174.233 Y279.140 F800
G1 X177.374 Y276.669 F800
G0 Z5

M5
G0 X0 Y0
M30
