%
(Header)
(Generated by gcodetools from Inkscape.)
(Using default header. To add your own header create file "header" in the output dir.)
M3
(Header end.)
G21 (All units in mm)

(Start cutting path id: rect1)
(Change tool to Default tool)

(G00 Z5.000000)
(G00 X25.000000 Y75.000000)

G01 Z-3 F400.0(Penetrate)
(G01 X75.000000 Y75.000000 Z-0.125000 F400.000000)
G01 X50.000000 
G01 Y50.000000 
G01 X0.000000 
G01 Y0.000000 

(End cutting path id: rect1)


(Footer)
M5
G00 X0.0000 Y0.0000  Z0.0000 
M2
(Using default footer. To add your own footer create file "footer" in the output dir.)
(end)
%
