%
(Header)
(Generated by gcodetools from Inkscape.)
(Using default header. To add your own header create file "header" in the output dir.)
M3
(Header end.)
G21 (All units in mm)

(Start cutting path id: path5)
(Change tool to Default tool)

(G00 Z49.000000)
G00 X293.877280 Y56.617460
G01 Z-7 F100.0
G01 X200.335710 Y105.483900  F800.000000
G01 X107.050554 Y56.129710 
G01 X124.619360 Y160.193600 
G01 X48.854041 Y233.661770 
G01 X153.253740 Y249.110350 
G01 X199.713350 Y343.870365 
G01 X246.667100 Y249.354228 
G01 X351.146040 Y234.450970 
G01 X275.765360 Y160.588200 
G01 X293.877280 Y56.617460 
G01 Z7 F100.0

(End cutting path id: path5)


(Footer)
M5
G00 X0.0000 Y0.0000 Z0.0000
M2
(Using default footer. To add your own footer create file "footer" in the output dir.)
(end)
%
