(Exported by FreeCAD)
(Post Processor: grbl_post)
(Output Time:2026-02-08 19:08:58.530578)
(Begin preamble)
G17 G90
G21
(Begin operation: Fixture)
(Path: Fixture)
G54
(Finish operation: Fixture)
(Begin operation: TC: Default Tool)
(Path: TC: Default Tool)
(TC: Default Tool)
(Begin toolchange)
( M6 T1 )
(Finish operation: TC: Default Tool)
(Begin operation: Profile)
(Path: Profile)
(Profile)
(Compensated Tool Path. Diameter: 5.0)
G0 Z16.000
G0 X-152.157 Y-260.382
G0 Z0.000
G1 X-152.157 Y-260.382 Z-4.000 F6000.000
G2 X-14.218 Y-395.625 Z-4.000 I-939.589 J-1096.286 K0.000 F24000.000
G2 X-14.209 Y-399.845 Z-4.000 I-2.379 J-2.115 K0.000 F24000.000
G2 X-298.854 Y-647.382 Z-4.000 I-1085.181 J960.435 K0.000 F24000.000
G2 X-453.388 Y-698.384 Z-4.000 I-170.630 J257.386 K0.000 F24000.000
G2 X-537.217 Y-417.971 Z-4.000 I-8.699 J150.136 K0.000 F24000.000
G1 X-502.218 Y-397.794 Z-4.000 F24000.000
G1 X-537.166 Y-377.545 Z-4.000 F24000.000
G2 X-458.446 Y-98.547 Z-4.000 I74.998 J129.444 K0.000 F24000.000
G2 X-300.864 Y-148.704 Z-4.000 I-11.258 J-307.993 K0.000 F24000.000
G2 X-152.157 Y-260.382 Z-4.000 I-790.881 J-1207.964 K0.000 F24000.000
G1 X-152.157 Y-260.382 Z-8.000 F6000.000
G2 X-14.218 Y-395.625 Z-8.000 I-939.589 J-1096.286 K0.000 F24000.000
G2 X-14.209 Y-399.845 Z-8.000 I-2.379 J-2.115 K0.000 F24000.000
G2 X-298.854 Y-647.382 Z-8.000 I-1085.181 J960.435 K0.000 F24000.000
G2 X-453.388 Y-698.384 Z-8.000 I-170.630 J257.386 K0.000 F24000.000
G2 X-537.217 Y-417.971 Z-8.000 I-8.699 J150.136 K0.000 F24000.000
G1 X-502.218 Y-397.794 Z-8.000 F24000.000
G1 X-537.166 Y-377.545 Z-8.000 F24000.000
G2 X-458.446 Y-98.547 Z-8.000 I74.998 J129.444 K0.000 F24000.000
G2 X-300.864 Y-148.704 Z-8.000 I-11.258 J-307.993 K0.000 F24000.000
G2 X-152.157 Y-260.382 Z-8.000 I-790.881 J-1207.964 K0.000 F24000.000
G0 Z16.000
G0 Z16.000
(Finish operation: Profile)
(Begin postamble)
M5
G17 G90
M2
