(Exported by FreeCAD)
(Post Processor: grbl_post)
(Output Time:2025-10-25 00:50:56.423308)
(Begin preamble)
G17 G90
G21
(Begin operation: Fixture)
(Path: Fixture)
G54
(Finish operation: Fixture)
(Begin operation: TC: Default Tool)
(Path: TC: Default Tool)
(TC: Default Tool)
(Begin toolchange)
( M6 T1 )
(Finish operation: TC: Default Tool)
(Begin operation: Engrave)
(Path: Engrave)
(Engrave)
G0 Z6.000
G0 Z6.000
G0 X-394.592 Y99.089
G0 Z0.000
G1 X-394.592 Y99.089 Z0.000
G1 X-395.892 Y99.089 Z0.000
G1 X-396.254 Y99.125 Z0.000
G1 X-396.518 Y99.221 Z0.000
G1 X-396.707 Y99.366 Z0.000
G1 X-396.838 Y99.558 Z0.000
G1 X-396.918 Y99.806 Z0.000
G1 X-396.936 Y99.941 Z0.000
G1 X-396.942 Y100.088 Z0.000
G1 X-396.942 Y132.788 Z0.000
G1 X-396.979 Y133.371 Z0.000
G1 X-397.083 Y133.896 Z0.000
G1 X-397.252 Y134.373 Z0.000
G1 X-397.482 Y134.808 Z0.000
G1 X-397.776 Y135.207 Z0.000
G1 X-397.869 Y135.312 Z0.000
G1 X-397.968 Y135.414 Z0.000
G1 X-398.353 Y135.748 Z0.000
G1 X-398.769 Y136.013 Z0.000
G1 X-399.219 Y136.214 Z0.000
G1 X-399.708 Y136.352 Z0.000
G1 X-400.243 Y136.426 Z0.000
G1 X-400.416 Y136.436 Z0.000
G1 X-400.593 Y136.439 Z0.000
G1 X-401.152 Y136.403 Z0.000
G1 X-401.664 Y136.297 Z0.000
G1 X-402.135 Y136.127 Z0.000
G1 X-402.571 Y135.891 Z0.000
G1 X-402.977 Y135.589 Z0.000
G1 X-403.086 Y135.492 Z0.000
G1 X-403.192 Y135.389 Z0.000
G1 X-403.540 Y134.990 Z0.000
G1 X-403.813 Y134.567 Z0.000
G1 X-404.018 Y134.116 Z0.000
G1 X-404.157 Y133.632 Z0.000
G1 X-404.230 Y133.111 Z0.000
G1 X-404.239 Y132.951 Z0.000
G1 X-404.242 Y132.788 Z0.000
G1 X-404.242 Y121.089 Z0.000
G1 X-404.278 Y120.518 Z0.000
G1 X-404.382 Y120.008 Z0.000
G1 X-404.549 Y119.553 Z0.000
G1 X-404.776 Y119.143 Z0.000
G1 X-405.168 Y118.664 Z0.000
G1 X-405.530 Y118.353 Z0.000
G1 X-405.927 Y118.109 Z0.000
G1 X-406.362 Y117.926 Z0.000
G1 X-406.842 Y117.804 Z0.000
G1 X-407.592 Y117.740 Z0.000
G1 X-416.942 Y117.740 Z0.000
G1 X-417.531 Y117.776 Z0.000
G1 X-418.049 Y117.879 Z0.000
G1 X-418.507 Y118.044 Z0.000
G1 X-418.911 Y118.266 Z0.000
G1 X-419.392 Y118.664 Z0.000
G1 X-419.692 Y119.025 Z0.000
G1 X-419.930 Y119.425 Z0.000
G1 X-420.109 Y119.869 Z0.000
G1 X-420.229 Y120.363 Z0.000
G1 X-420.292 Y121.140 Z0.000
G1 X-420.292 Y132.788 Z0.000
G1 X-420.328 Y133.371 Z0.000
G1 X-420.433 Y133.897 Z0.000
G1 X-420.601 Y134.374 Z0.000
G1 X-420.832 Y134.808 Z0.000
G1 X-421.125 Y135.206 Z0.000
G1 X-421.219 Y135.311 Z0.000
G1 X-421.317 Y135.414 Z0.000
G1 X-421.702 Y135.748 Z0.000
G1 X-422.118 Y136.013 Z0.000
G1 X-422.568 Y136.214 Z0.000
G1 X-423.058 Y136.352 Z0.000
G1 X-423.592 Y136.426 Z0.000
G1 X-423.766 Y136.436 Z0.000
G1 X-423.942 Y136.439 Z0.000
G1 X-424.525 Y136.403 Z0.000
G1 X-425.050 Y136.298 Z0.000
G1 X-425.527 Y136.130 Z0.000
G1 X-425.962 Y135.899 Z0.000
G1 X-426.361 Y135.605 Z0.000
G1 X-426.466 Y135.512 Z0.000
G1 X-426.568 Y135.414 Z0.000
G1 X-426.902 Y135.027 Z0.000
G1 X-427.167 Y134.611 Z0.000
G1 X-427.367 Y134.160 Z0.000
G1 X-427.505 Y133.670 Z0.000
G1 X-427.579 Y133.135 Z0.000
G1 X-427.588 Y132.963 Z0.000
G1 X-427.592 Y132.788 Z0.000
G1 X-427.592 Y100.090 Z0.000
G1 X-427.628 Y99.767 Z0.000
G1 X-427.726 Y99.525 Z0.000
G1 X-427.876 Y99.344 Z0.000
G1 X-428.083 Y99.211 Z0.000
G1 X-428.357 Y99.123 Z0.000
G1 X-428.494 Y99.101 Z0.000
G1 X-428.641 Y99.089 Z0.000
G1 X-429.942 Y99.038 Z0.000
G0 Z6.000
G0 Z6.000
G0 X-352.930 Y99.089
G0 Z0.000
G1 X-352.930 Y99.089 Z0.000
G1 X-354.231 Y99.089 Z0.000
G1 X-361.229 Y113.106 Z0.000
G1 X-376.130 Y113.106 Z0.000
G1 X-376.489 Y113.142 Z0.000
G1 X-376.752 Y113.238 Z0.000
G1 X-376.941 Y113.383 Z0.000
G1 X-377.073 Y113.576 Z0.000
G1 X-377.154 Y113.826 Z0.000
G1 X-377.173 Y113.967 Z0.000
G1 X-377.180 Y114.120 Z0.000
G1 X-377.143 Y114.446 Z0.000
G1 X-377.046 Y114.685 Z0.000
G1 X-376.898 Y114.861 Z0.000
G1 X-376.697 Y114.985 Z0.000
G1 X-376.430 Y115.062 Z0.000
G1 X-376.286 Y115.079 Z0.000
G1 X-376.130 Y115.085 Z0.000
G1 X-362.279 Y115.085 Z0.000
G1 X-372.929 Y136.647 Z0.000
G1 X-374.480 Y136.647 Z0.000
G1 X-393.379 Y99.089 Z0.000
G1 X-394.629 Y99.089 Z0.000
G0 Z6.000
G0 Z6.000
G0 X-322.159 Y99.043
G0 Z0.000
G1 X-322.159 Y99.043 Z0.000
G1 X-343.208 Y99.043 Z0.000
G1 X-343.208 Y114.035 Z0.000
G1 X-343.172 Y114.389 Z0.000
G1 X-343.075 Y114.650 Z0.000
G1 X-342.929 Y114.839 Z0.000
G1 X-342.734 Y114.972 Z0.000
G1 X-342.480 Y115.056 Z0.000
G1 X-342.326 Y115.078 Z0.000
G1 X-342.159 Y115.085 Z0.000
G1 X-335.158 Y115.085 Z0.000
G1 X-334.198 Y115.121 Z0.000
G1 X-333.275 Y115.229 Z0.000
G1 X-332.388 Y115.405 Z0.000
G1 X-331.532 Y115.649 Z0.000
G1 X-330.704 Y115.960 Z0.000
G1 X-329.902 Y116.340 Z0.000
G1 X-329.122 Y116.789 Z0.000
G1 X-328.459 Y117.240 Z0.000
G1 X-327.782 Y117.783 Z0.000
G1 X-327.176 Y118.363 Z0.000
G1 X-326.637 Y118.978 Z0.000
G1 X-326.161 Y119.632 Z0.000
G1 X-325.746 Y120.326 Z0.000
G1 X-325.390 Y121.064 Z0.000
G1 X-325.092 Y121.848 Z0.000
G1 X-324.853 Y122.682 Z0.000
G1 X-324.675 Y123.572 Z0.000
G1 X-324.560 Y124.522 Z0.000
G1 X-324.509 Y125.762 Z0.000
G1 X-324.545 Y126.814 Z0.000
G1 X-324.651 Y127.795 Z0.000
G1 X-324.822 Y128.710 Z0.000
G1 X-325.056 Y129.565 Z0.000
G1 X-325.349 Y130.364 Z0.000
G1 X-325.700 Y131.112 Z0.000
G1 X-326.110 Y131.813 Z0.000
G1 X-326.578 Y132.471 Z0.000
G1 X-327.107 Y133.088 Z0.000
G1 X-327.699 Y133.667 Z0.000
G1 X-328.459 Y134.284 Z0.000
G1 X-329.228 Y134.801 Z0.000
G1 X-330.016 Y135.244 Z0.000
G1 X-330.825 Y135.614 Z0.000
G1 X-331.657 Y135.916 Z0.000
G1 X-332.514 Y136.149 Z0.000
G1 X-333.400 Y136.314 Z0.000
G1 X-334.318 Y136.411 Z0.000
G1 X-335.158 Y136.439 Z0.000
G1 X-350.508 Y136.439 Z0.000
G1 X-350.508 Y100.044 Z0.000
G1 X-350.545 Y99.722 Z0.000
G1 X-350.643 Y99.480 Z0.000
G1 X-350.793 Y99.298 Z0.000
G1 X-350.999 Y99.165 Z0.000
G1 X-351.274 Y99.077 Z0.000
G1 X-351.410 Y99.055 Z0.000
G1 X-351.558 Y99.043 Z0.000
G1 X-352.859 Y99.043 Z0.000
G0 Z6.000
G0 Z6.000
G0 X-291.534 Y99.043
G0 Z0.000
G1 X-291.534 Y99.043 Z0.000
G1 X-312.583 Y99.043 Z0.000
G1 X-312.583 Y114.035 Z0.000
G1 X-312.547 Y114.389 Z0.000
G1 X-312.450 Y114.650 Z0.000
G1 X-312.304 Y114.839 Z0.000
G1 X-312.109 Y114.972 Z0.000
G1 X-311.855 Y115.056 Z0.000
G1 X-311.701 Y115.078 Z0.000
G1 X-311.534 Y115.085 Z0.000
G1 X-304.533 Y115.085 Z0.000
G1 X-303.573 Y115.121 Z0.000
G1 X-302.650 Y115.229 Z0.000
G1 X-301.763 Y115.405 Z0.000
G1 X-300.907 Y115.649 Z0.000
G1 X-300.079 Y115.960 Z0.000
G1 X-299.277 Y116.340 Z0.000
G1 X-298.497 Y116.789 Z0.000
G1 X-297.834 Y117.240 Z0.000
G1 X-297.157 Y117.783 Z0.000
G1 X-296.551 Y118.363 Z0.000
G1 X-296.012 Y118.978 Z0.000
G1 X-295.536 Y119.632 Z0.000
G1 X-295.121 Y120.326 Z0.000
G1 X-294.765 Y121.064 Z0.000
G1 X-294.467 Y121.848 Z0.000
G1 X-294.228 Y122.682 Z0.000
G1 X-294.050 Y123.572 Z0.000
G1 X-293.935 Y124.522 Z0.000
G1 X-293.884 Y125.762 Z0.000
G1 X-293.920 Y126.814 Z0.000
G1 X-294.026 Y127.795 Z0.000
G1 X-294.197 Y128.710 Z0.000
G1 X-294.431 Y129.565 Z0.000
G1 X-294.724 Y130.364 Z0.000
G1 X-295.075 Y131.112 Z0.000
G1 X-295.485 Y131.813 Z0.000
G1 X-295.953 Y132.471 Z0.000
G1 X-296.482 Y133.088 Z0.000
G1 X-297.074 Y133.667 Z0.000
G1 X-297.834 Y134.284 Z0.000
G1 X-298.603 Y134.801 Z0.000
G1 X-299.391 Y135.244 Z0.000
G1 X-300.200 Y135.614 Z0.000
G1 X-301.032 Y135.916 Z0.000
G1 X-301.889 Y136.149 Z0.000
G1 X-302.775 Y136.314 Z0.000
G1 X-303.693 Y136.411 Z0.000
G1 X-304.533 Y136.439 Z0.000
G1 X-319.883 Y136.439 Z0.000
G1 X-319.883 Y100.044 Z0.000
G1 X-319.920 Y99.722 Z0.000
G1 X-320.018 Y99.480 Z0.000
G1 X-320.168 Y99.298 Z0.000
G1 X-320.374 Y99.165 Z0.000
G1 X-320.649 Y99.077 Z0.000
G1 X-320.785 Y99.055 Z0.000
G1 X-320.933 Y99.043 Z0.000
G1 X-322.234 Y99.043 Z0.000
G0 Z6.000
G0 Z6.000
G0 X-265.609 Y99.043
G0 Z0.000
G1 X-265.609 Y99.043 Z0.000
G1 X-280.909 Y99.043 Z0.000
G1 X-281.272 Y99.079 Z0.000
G1 X-281.536 Y99.176 Z0.000
G1 X-281.725 Y99.320 Z0.000
G1 X-281.856 Y99.511 Z0.000
G1 X-281.935 Y99.758 Z0.000
G1 X-281.953 Y99.890 Z0.000
G1 X-281.958 Y100.033 Z0.000
G1 X-281.922 Y100.367 Z0.000
G1 X-281.825 Y100.613 Z0.000
G1 X-281.678 Y100.792 Z0.000
G1 X-281.478 Y100.919 Z0.000
G1 X-281.215 Y100.998 Z0.000
G1 X-281.069 Y101.016 Z0.000
G1 X-280.909 Y101.022 Z0.000
G1 X-278.609 Y101.022 Z0.000
G1 X-277.551 Y101.059 Z0.000
G1 X-276.567 Y101.165 Z0.000
G1 X-275.651 Y101.336 Z0.000
G1 X-274.798 Y101.568 Z0.000
G1 X-274.002 Y101.860 Z0.000
G1 X-273.259 Y102.210 Z0.000
G1 X-272.564 Y102.617 Z0.000
G1 X-271.913 Y103.081 Z0.000
G1 X-271.305 Y103.606 Z0.000
G1 X-270.737 Y104.192 Z0.000
G1 X-270.108 Y104.979 Z0.000
G1 X-269.595 Y105.746 Z0.000
G1 X-269.155 Y106.534 Z0.000
G1 X-268.786 Y107.345 Z0.000
G1 X-268.485 Y108.180 Z0.000
G1 X-268.252 Y109.044 Z0.000
G1 X-268.085 Y109.939 Z0.000
G1 X-267.987 Y110.868 Z0.000
G1 X-267.958 Y111.742 Z0.000
G1 X-267.958 Y132.782 Z0.000
G1 X-267.994 Y133.365 Z0.000
G1 X-268.099 Y133.892 Z0.000
G1 X-268.267 Y134.370 Z0.000
G1 X-268.498 Y134.805 Z0.000
G1 X-268.791 Y135.204 Z0.000
G1 X-268.885 Y135.310 Z0.000
G1 X-268.983 Y135.412 Z0.000
G1 X-269.369 Y135.747 Z0.000
G1 X-269.785 Y136.013 Z0.000
G1 X-270.236 Y136.214 Z0.000
G1 X-270.725 Y136.352 Z0.000
G1 X-271.259 Y136.426 Z0.000
G1 X-271.432 Y136.436 Z0.000
G1 X-271.609 Y136.439 Z0.000
G1 X-272.169 Y136.403 Z0.000
G1 X-272.680 Y136.297 Z0.000
G1 X-273.151 Y136.127 Z0.000
G1 X-273.588 Y135.891 Z0.000
G1 X-273.994 Y135.589 Z0.000
G1 X-274.103 Y135.492 Z0.000
G1 X-274.209 Y135.389 Z0.000
G1 X-274.557 Y134.990 Z0.000
G1 X-274.830 Y134.567 Z0.000
G1 X-275.035 Y134.116 Z0.000
G1 X-275.174 Y133.632 Z0.000
G1 X-275.247 Y133.111 Z0.000
G1 X-275.256 Y132.951 Z0.000
G1 X-275.259 Y132.788 Z0.000
G1 X-275.259 Y121.089 Z0.000
G1 X-275.296 Y120.518 Z0.000
G1 X-275.400 Y120.008 Z0.000
G1 X-275.566 Y119.553 Z0.000
G1 X-275.793 Y119.143 Z0.000
G1 X-276.185 Y118.664 Z0.000
G1 X-276.548 Y118.353 Z0.000
G1 X-276.944 Y118.109 Z0.000
G1 X-277.379 Y117.926 Z0.000
G1 X-277.859 Y117.804 Z0.000
G1 X-278.609 Y117.740 Z0.000
G1 X-279.198 Y117.776 Z0.000
G1 X-279.716 Y117.879 Z0.000
G1 X-280.173 Y118.044 Z0.000
G1 X-280.578 Y118.266 Z0.000
G1 X-281.058 Y118.664 Z0.000
G1 X-281.358 Y119.025 Z0.000
G1 X-281.596 Y119.425 Z0.000
G1 X-281.775 Y119.869 Z0.000
G1 X-281.895 Y120.363 Z0.000
G1 X-281.958 Y121.140 Z0.000
G1 X-281.958 Y132.788 Z0.000
G1 X-281.995 Y133.371 Z0.000
G1 X-282.099 Y133.897 Z0.000
G1 X-282.268 Y134.374 Z0.000
G1 X-282.498 Y134.808 Z0.000
G1 X-282.792 Y135.206 Z0.000
G1 X-282.885 Y135.311 Z0.000
G1 X-282.984 Y135.414 Z0.000
G1 X-283.369 Y135.748 Z0.000
G1 X-283.785 Y136.013 Z0.000
G1 X-284.235 Y136.214 Z0.000
G1 X-284.724 Y136.352 Z0.000
G1 X-285.259 Y136.426 Z0.000
G1 X-285.432 Y136.436 Z0.000
G1 X-285.609 Y136.439 Z0.000
G1 X-286.191 Y136.403 Z0.000
G1 X-286.716 Y136.298 Z0.000
G1 X-287.193 Y136.130 Z0.000
G1 X-287.628 Y135.899 Z0.000
G1 X-288.026 Y135.605 Z0.000
G1 X-288.132 Y135.511 Z0.000
G1 X-288.234 Y135.412 Z0.000
G1 X-288.569 Y135.026 Z0.000
G1 X-288.834 Y134.609 Z0.000
G1 X-289.034 Y134.158 Z0.000
G1 X-289.172 Y133.668 Z0.000
G1 X-289.246 Y133.133 Z0.000
G1 X-289.255 Y132.961 Z0.000
G1 X-289.258 Y132.785 Z0.000
G1 X-289.258 Y100.044 Z0.000
G1 X-289.295 Y99.722 Z0.000
G1 X-289.393 Y99.480 Z0.000
G1 X-289.543 Y99.298 Z0.000
G1 X-289.749 Y99.165 Z0.000
G1 X-290.024 Y99.077 Z0.000
G1 X-290.160 Y99.055 Z0.000
G1 X-290.308 Y99.043 Z0.000
G1 X-291.609 Y99.043 Z0.000
G0 Z6.000
G0 Z6.000
G0 X-334.219 Y44.278
G0 Z0.000
G1 X-334.219 Y44.278 Z0.000
G1 X-335.520 Y44.278 Z0.000
G1 X-342.518 Y58.294 Z0.000
G1 X-357.419 Y58.294 Z0.000
G1 X-357.778 Y58.331 Z0.000
G1 X-358.041 Y58.427 Z0.000
G1 X-358.230 Y58.572 Z0.000
G1 X-358.362 Y58.765 Z0.000
G1 X-358.443 Y59.015 Z0.000
G1 X-358.462 Y59.155 Z0.000
G1 X-358.469 Y59.308 Z0.000
G1 X-358.432 Y59.634 Z0.000
G1 X-358.335 Y59.874 Z0.000
G1 X-358.187 Y60.049 Z0.000
G1 X-357.986 Y60.174 Z0.000
G1 X-357.719 Y60.250 Z0.000
G1 X-357.575 Y60.268 Z0.000
G1 X-357.419 Y60.274 Z0.000
G1 X-343.568 Y60.274 Z0.000
G1 X-354.217 Y81.836 Z0.000
G1 X-355.769 Y81.836 Z0.000
G1 X-374.668 Y44.278 Z0.000
G1 X-375.918 Y44.278 Z0.000
G0 Z6.000
G0 Z6.000
G0 X-303.549 Y44.278
G0 Z0.000
G1 X-303.549 Y44.278 Z0.000
G1 X-304.847 Y44.278 Z0.000
G1 X-305.201 Y44.314 Z0.000
G1 X-305.461 Y44.411 Z0.000
G1 X-305.650 Y44.557 Z0.000
G1 X-305.784 Y44.752 Z0.000
G1 X-305.868 Y45.007 Z0.000
G1 X-305.890 Y45.161 Z0.000
G1 X-305.897 Y45.331 Z0.000
G1 X-305.897 Y77.967 Z0.000
G1 X-305.934 Y78.575 Z0.000
G1 X-306.038 Y79.116 Z0.000
G1 X-306.204 Y79.600 Z0.000
G1 X-306.430 Y80.035 Z0.000
G1 X-306.715 Y80.426 Z0.000
G1 X-306.804 Y80.527 Z0.000
G1 X-306.898 Y80.625 Z0.000
G1 X-307.271 Y80.948 Z0.000
G1 X-307.680 Y81.205 Z0.000
G1 X-308.129 Y81.402 Z0.000
G1 X-308.624 Y81.539 Z0.000
G1 X-309.172 Y81.614 Z0.000
G1 X-309.358 Y81.624 Z0.000
G1 X-309.548 Y81.628 Z0.000
G1 X-310.129 Y81.591 Z0.000
G1 X-310.654 Y81.487 Z0.000
G1 X-311.130 Y81.318 Z0.000
G1 X-311.565 Y81.088 Z0.000
G1 X-311.963 Y80.794 Z0.000
G1 X-312.070 Y80.699 Z0.000
G1 X-312.173 Y80.599 Z0.000
G1 X-312.507 Y80.213 Z0.000
G1 X-312.772 Y79.795 Z0.000
G1 X-312.972 Y79.344 Z0.000
G1 X-313.110 Y78.853 Z0.000
G1 X-313.184 Y78.317 Z0.000
G1 X-313.194 Y78.144 Z0.000
G1 X-313.197 Y77.967 Z0.000
G1 X-313.197 Y48.527 Z0.000
G1 X-329.746 Y81.628 Z0.000
G1 X-331.797 Y81.628 Z0.000
G1 X-331.797 Y45.327 Z0.000
G1 X-331.834 Y44.973 Z0.000
G1 X-331.930 Y44.713 Z0.000
G1 X-332.076 Y44.524 Z0.000
G1 X-332.272 Y44.390 Z0.000
G1 X-332.526 Y44.307 Z0.000
G1 X-332.679 Y44.285 Z0.000
G1 X-332.847 Y44.278 Z0.000
G1 X-334.148 Y44.278 Z0.000
G0 Z6.000
G0 Z6.000
G0 X-272.924 Y44.278
G0 Z0.000
G1 X-272.924 Y44.278 Z0.000
G1 X-274.222 Y44.278 Z0.000
G1 X-274.576 Y44.314 Z0.000
G1 X-274.836 Y44.411 Z0.000
G1 X-275.025 Y44.557 Z0.000
G1 X-275.159 Y44.752 Z0.000
G1 X-275.243 Y45.007 Z0.000
G1 X-275.265 Y45.161 Z0.000
G1 X-275.272 Y45.331 Z0.000
G1 X-275.272 Y77.967 Z0.000
G1 X-275.309 Y78.575 Z0.000
G1 X-275.413 Y79.116 Z0.000
G1 X-275.579 Y79.600 Z0.000
G1 X-275.805 Y80.035 Z0.000
G1 X-276.090 Y80.426 Z0.000
G1 X-276.179 Y80.527 Z0.000
G1 X-276.273 Y80.625 Z0.000
G1 X-276.646 Y80.948 Z0.000
G1 X-277.055 Y81.205 Z0.000
G1 X-277.504 Y81.402 Z0.000
G1 X-277.999 Y81.539 Z0.000
G1 X-278.547 Y81.614 Z0.000
G1 X-278.733 Y81.624 Z0.000
G1 X-278.923 Y81.628 Z0.000
G1 X-279.504 Y81.591 Z0.000
G1 X-280.029 Y81.487 Z0.000
G1 X-280.505 Y81.318 Z0.000
G1 X-280.940 Y81.088 Z0.000
G1 X-281.338 Y80.794 Z0.000
G1 X-281.445 Y80.699 Z0.000
G1 X-281.548 Y80.599 Z0.000
G1 X-281.882 Y80.213 Z0.000
G1 X-282.147 Y79.795 Z0.000
G1 X-282.347 Y79.344 Z0.000
G1 X-282.485 Y78.853 Z0.000
G1 X-282.559 Y78.317 Z0.000
G1 X-282.569 Y78.144 Z0.000
G1 X-282.572 Y77.967 Z0.000
G1 X-282.572 Y48.527 Z0.000
G1 X-299.121 Y81.628 Z0.000
G1 X-301.172 Y81.628 Z0.000
G1 X-301.172 Y45.327 Z0.000
G1 X-301.209 Y44.973 Z0.000
G1 X-301.305 Y44.713 Z0.000
G1 X-301.451 Y44.524 Z0.000
G1 X-301.647 Y44.390 Z0.000
G1 X-301.901 Y44.307 Z0.000
G1 X-302.054 Y44.285 Z0.000
G1 X-302.222 Y44.278 Z0.000
G1 X-303.523 Y44.278 Z0.000
G0 Z6.000
G0 Z6.000
G0 X-260.897 Y44.227
G0 Z0.000
G1 X-260.897 Y44.227 Z0.000
G1 X-262.198 Y44.278 Z0.000
G1 X-262.568 Y44.332 Z0.000
G1 X-262.836 Y44.441 Z0.000
G1 X-263.026 Y44.595 Z0.000
G1 X-263.155 Y44.793 Z0.000
G1 X-263.229 Y45.044 Z0.000
G1 X-263.243 Y45.157 Z0.000
G1 X-263.247 Y45.278 Z0.000
G1 X-263.247 Y73.327 Z0.000
G1 X-263.284 Y73.870 Z0.000
G1 X-263.391 Y74.382 Z0.000
G1 X-263.566 Y74.868 Z0.000
G1 X-263.812 Y75.334 Z0.000
G1 X-264.048 Y75.677 Z0.000
G1 X-263.745 Y76.114 Z0.000
G1 X-263.517 Y76.570 Z0.000
G1 X-263.359 Y77.047 Z0.000
G1 X-263.270 Y77.551 Z0.000
G1 X-263.247 Y77.977 Z0.000
G1 X-263.284 Y78.514 Z0.000
G1 X-263.390 Y79.012 Z0.000
G1 X-263.563 Y79.477 Z0.000
G1 X-263.803 Y79.914 Z0.000
G1 X-264.114 Y80.328 Z0.000
G1 X-264.216 Y80.441 Z0.000
G1 X-264.323 Y80.552 Z0.000
G1 X-264.735 Y80.913 Z0.000
G1 X-265.166 Y81.195 Z0.000
G1 X-265.617 Y81.404 Z0.000
G1 X-266.094 Y81.544 Z0.000
G1 X-266.601 Y81.617 Z0.000
G1 X-266.748 Y81.625 Z0.000
G1 X-266.898 Y81.628 Z0.000
G1 X-267.435 Y81.591 Z0.000
G1 X-267.933 Y81.485 Z0.000
G1 X-268.397 Y81.312 Z0.000
G1 X-268.835 Y81.072 Z0.000
G1 X-269.249 Y80.760 Z0.000
G1 X-269.362 Y80.659 Z0.000
G1 X-269.473 Y80.552 Z0.000
G1 X-269.834 Y80.140 Z0.000
G1 X-270.115 Y79.709 Z0.000
G1 X-270.324 Y79.257 Z0.000
G1 X-270.464 Y78.780 Z0.000
G1 X-270.536 Y78.273 Z0.000
G1 X-270.545 Y78.126 Z0.000
G1 X-270.547 Y77.977 Z0.000
G1 X-270.511 Y77.436 Z0.000
G1 X-270.405 Y76.933 Z0.000
G1 X-270.231 Y76.461 Z0.000
G1 X-269.989 Y76.014 Z0.000
G1 X-269.748 Y75.677 Z0.000
G1 X-270.055 Y75.215 Z0.000
G1 X-270.284 Y74.738 Z0.000
G1 X-270.440 Y74.245 Z0.000
G1 X-270.528 Y73.729 Z0.000
G1 X-270.547 Y73.327 Z0.000
G1 X-270.547 Y45.278 Z0.000
G1 X-270.584 Y44.956 Z0.000
G1 X-270.681 Y44.714 Z0.000
G1 X-270.832 Y44.532 Z0.000
G1 X-271.038 Y44.399 Z0.000
G1 X-271.313 Y44.311 Z0.000
G1 X-271.449 Y44.290 Z0.000
G1 X-271.597 Y44.278 Z0.000
G1 X-272.898 Y44.227 Z0.000
G0 Z6.000
G0 Z6.000
G0 X-220.913 Y44.278
G0 Z0.000
G1 X-220.913 Y44.278 Z0.000
G1 X-229.613 Y44.278 Z0.000
G1 X-230.186 Y44.314 Z0.000
G1 X-230.652 Y44.414 Z0.000
G1 X-231.028 Y44.567 Z0.000
G1 X-231.329 Y44.768 Z0.000
G1 X-231.569 Y45.013 Z0.000
G1 X-231.754 Y45.308 Z0.000
G1 X-231.888 Y45.658 Z0.000
G1 X-231.967 Y46.077 Z0.000
G1 X-231.986 Y46.576 Z0.000
G1 X-231.934 Y47.172 Z0.000
G1 X-231.796 Y47.883 Z0.000
G1 X-231.734 Y48.126 Z0.000
G1 X-231.664 Y48.377 Z0.000
G1 X-230.643 Y51.977 Z0.000
G1 X-228.697 Y59.138 Z0.000
G1 X-226.571 Y67.124 Z0.000
G1 X-223.964 Y77.028 Z0.000
G1 X-223.839 Y77.622 Z0.000
G1 X-223.814 Y77.977 Z0.000
G1 X-223.850 Y78.593 Z0.000
G1 X-223.953 Y79.133 Z0.000
G1 X-224.117 Y79.605 Z0.000
G1 X-224.337 Y80.020 Z0.000
G1 X-224.612 Y80.385 Z0.000
G1 X-224.945 Y80.706 Z0.000
G1 X-225.341 Y80.985 Z0.000
G1 X-225.808 Y81.224 Z0.000
G1 X-226.171 Y81.362 Z0.000
G1 X-226.564 Y81.478 Z0.000
G1 X-227.206 Y81.601 Z0.000
G1 X-227.614 Y81.628 Z0.000
G1 X-228.144 Y81.591 Z0.000
G1 X-228.626 Y81.486 Z0.000
G1 X-229.066 Y81.316 Z0.000
G1 X-229.471 Y81.082 Z0.000
G1 X-229.847 Y80.780 Z0.000
G1 X-230.196 Y80.405 Z0.000
G1 X-230.564 Y79.878 Z0.000
G1 X-230.843 Y79.371 Z0.000
G1 X-231.014 Y78.877 Z0.000
G1 X-239.265 Y48.078 Z0.000
G1 X-239.418 Y47.818 Z0.000
G1 X-239.623 Y47.613 Z0.000
G1 X-239.884 Y47.456 Z0.000
G1 X-240.213 Y47.345 Z0.000
G1 X-240.626 Y47.285 Z0.000
G1 X-240.743 Y47.279 Z0.000
G1 X-240.865 Y47.277 Z0.000
G1 X-241.389 Y47.314 Z0.000
G1 X-241.784 Y47.411 Z0.000
G1 X-242.077 Y47.555 Z0.000
G1 X-242.289 Y47.739 Z0.000
G1 X-242.465 Y48.028 Z0.000
G1 X-242.521 Y48.228 Z0.000
G1 X-244.038 Y53.876 Z0.000
G1 X-246.722 Y63.936 Z0.000
G1 X-250.715 Y78.928 Z0.000
G1 X-250.895 Y79.461 Z0.000
G1 X-251.128 Y79.927 Z0.000
G1 X-251.413 Y80.335 Z0.000
G1 X-251.749 Y80.691 Z0.000
G1 X-252.142 Y80.999 Z0.000
G1 X-252.264 Y81.078 Z0.000
G1 X-252.390 Y81.153 Z0.000
G1 X-252.863 Y81.380 Z0.000
G1 X-253.342 Y81.530 Z0.000
G1 X-253.832 Y81.608 Z0.000
G1 X-254.338 Y81.614 Z0.000
G1 X-254.865 Y81.547 Z0.000
G1 X-255.014 Y81.515 Z0.000
G1 X-255.165 Y81.478 Z0.000
G1 X-255.765 Y81.273 Z0.000
G1 X-256.270 Y81.026 Z0.000
G1 X-256.692 Y80.740 Z0.000
G1 X-257.040 Y80.416 Z0.000
G1 X-257.324 Y80.055 Z0.000
G1 X-257.547 Y79.651 Z0.000
G1 X-257.712 Y79.201 Z0.000
G1 X-257.819 Y78.696 Z0.000
G1 X-257.854 Y78.370 Z0.000
G1 X-257.865 Y78.028 Z0.000
G1 X-257.829 Y77.379 Z0.000
G1 X-257.766 Y77.028 Z0.000
G1 X-250.114 Y48.327 Z0.000
G1 X-249.939 Y47.522 Z0.000
G1 X-249.864 Y46.678 Z0.000
G1 X-249.900 Y46.112 Z0.000
G1 X-250.000 Y45.650 Z0.000
G1 X-250.155 Y45.274 Z0.000
G1 X-250.357 Y44.970 Z0.000
G1 X-250.606 Y44.725 Z0.000
G1 X-250.905 Y44.534 Z0.000
G1 X-251.262 Y44.394 Z0.000
G1 X-251.688 Y44.306 Z0.000
G1 X-251.919 Y44.285 Z0.000
G1 X-252.163 Y44.278 Z0.000
G1 X-260.814 Y44.278 Z0.000
G0 Z6.000
G0 Z6.000
G0 X-187.919 Y44.232
G0 Z0.000
G1 X-187.919 Y44.232 Z0.000
G1 X-210.218 Y44.232 Z0.000
G1 X-210.582 Y44.268 Z0.000
G1 X-210.846 Y44.364 Z0.000
G1 X-211.035 Y44.508 Z0.000
G1 X-211.166 Y44.699 Z0.000
G1 X-211.245 Y44.947 Z0.000
G1 X-211.262 Y45.079 Z0.000
G1 X-211.268 Y45.222 Z0.000
G1 X-211.232 Y45.555 Z0.000
G1 X-211.135 Y45.801 Z0.000
G1 X-210.987 Y45.980 Z0.000
G1 X-210.788 Y46.107 Z0.000
G1 X-210.525 Y46.186 Z0.000
G1 X-210.378 Y46.205 Z0.000
G1 X-210.218 Y46.211 Z0.000
G1 X-193.918 Y46.211 Z0.000
G1 X-193.359 Y46.247 Z0.000
G1 X-192.846 Y46.353 Z0.000
G1 X-192.371 Y46.524 Z0.000
G1 X-191.929 Y46.762 Z0.000
G1 X-191.514 Y47.067 Z0.000
G1 X-191.403 Y47.164 Z0.000
G1 X-191.294 Y47.267 Z0.000
G1 X-190.941 Y47.666 Z0.000
G1 X-190.662 Y48.088 Z0.000
G1 X-190.453 Y48.536 Z0.000
G1 X-190.310 Y49.016 Z0.000
G1 X-190.233 Y49.533 Z0.000
G1 X-190.222 Y49.707 Z0.000
G1 X-190.218 Y49.885 Z0.000
G1 X-190.255 Y50.465 Z0.000
G1 X-190.360 Y50.991 Z0.000
G1 X-190.529 Y51.472 Z0.000
G1 X-190.762 Y51.914 Z0.000
G1 X-191.059 Y52.322 Z0.000
G1 X-191.161 Y52.438 Z0.000
G1 X-191.268 Y52.551 Z0.000
G1 X-191.662 Y52.895 Z0.000
G1 X-192.083 Y53.167 Z0.000
G1 X-192.535 Y53.373 Z0.000
G1 X-193.022 Y53.515 Z0.000
G1 X-193.551 Y53.592 Z0.000
G1 X-193.733 Y53.603 Z0.000
G1 X-193.918 Y53.607 Z0.000
G1 X-207.919 Y53.607 Z0.000
G1 X-208.582 Y53.643 Z0.000
G1 X-209.144 Y53.745 Z0.000
G1 X-209.619 Y53.904 Z0.000
G1 X-210.020 Y54.113 Z0.000
G1 X-210.357 Y54.369 Z0.000
G1 X-210.638 Y54.675 Z0.000
G1 X-210.868 Y55.033 Z0.000
G1 X-211.048 Y55.451 Z0.000
G1 X-211.178 Y55.938 Z0.000
G1 X-211.253 Y56.505 Z0.000
G1 X-211.268 Y56.940 Z0.000
G1 X-211.232 Y57.510 Z0.000
G1 X-211.128 Y58.017 Z0.000
G1 X-210.961 Y58.470 Z0.000
G1 X-210.735 Y58.878 Z0.000
G1 X-210.344 Y59.352 Z0.000
G1 X-209.981 Y59.662 Z0.000
G1 X-209.583 Y59.907 Z0.000
G1 X-209.146 Y60.089 Z0.000
G1 X-208.665 Y60.210 Z0.000
G1 X-207.919 Y60.274 Z0.000
G1 X-198.568 Y60.274 Z0.000
G1 X-197.966 Y60.310 Z0.000
G1 X-197.430 Y60.414 Z0.000
G1 X-196.949 Y60.581 Z0.000
G1 X-196.517 Y60.807 Z0.000
G1 X-196.127 Y61.093 Z0.000
G1 X-196.022 Y61.187 Z0.000
G1 X-195.920 Y61.286 Z0.000
G1 X-195.599 Y61.663 Z0.000
G1 X-195.341 Y62.077 Z0.000
G1 X-195.145 Y62.532 Z0.000
G1 X-195.008 Y63.033 Z0.000
G1 X-194.933 Y63.589 Z0.000
G1 X-194.922 Y63.778 Z0.000
G1 X-194.919 Y63.972 Z0.000
G1 X-194.955 Y64.561 Z0.000
G1 X-195.060 Y65.094 Z0.000
G1 X-195.228 Y65.577 Z0.000
G1 X-195.459 Y66.017 Z0.000
G1 X-195.752 Y66.420 Z0.000
G1 X-195.845 Y66.527 Z0.000
G1 X-195.944 Y66.631 Z0.000
G1 X-196.329 Y66.969 Z0.000
G1 X-196.743 Y67.237 Z0.000
G1 X-197.190 Y67.440 Z0.000
G1 X-197.676 Y67.579 Z0.000
G1 X-198.206 Y67.656 Z0.000
G1 X-198.385 Y67.666 Z0.000
G1 X-198.568 Y67.669 Z0.000
G1 X-207.919 Y67.669 Z0.000
G1 X-208.492 Y67.706 Z0.000
G1 X-209.003 Y67.810 Z0.000
G1 X-209.460 Y67.976 Z0.000
G1 X-209.870 Y68.203 Z0.000
G1 X-210.344 Y68.589 Z0.000
G1 X-210.655 Y68.950 Z0.000
G1 X-210.900 Y69.346 Z0.000
G1 X-211.083 Y69.780 Z0.000
G1 X-211.204 Y70.258 Z0.000
G1 X-211.268 Y71.003 Z0.000
G1 X-211.232 Y71.572 Z0.000
G1 X-211.128 Y72.079 Z0.000
G1 X-210.961 Y72.533 Z0.000
G1 X-210.735 Y72.940 Z0.000
G1 X-210.344 Y73.415 Z0.000
G1 X-209.981 Y73.725 Z0.000
G1 X-209.583 Y73.969 Z0.000
G1 X-209.146 Y74.151 Z0.000
G1 X-208.665 Y74.273 Z0.000
G1 X-207.919 Y74.336 Z0.000
G1 X-193.918 Y74.336 Z0.000
G1 X-193.334 Y74.372 Z0.000
G1 X-192.805 Y74.477 Z0.000
G1 X-192.323 Y74.647 Z0.000
G1 X-191.880 Y74.878 Z0.000
G1 X-191.473 Y75.174 Z0.000
G1 X-191.369 Y75.265 Z0.000
G1 X-191.268 Y75.360 Z0.000
G1 X-190.927 Y75.743 Z0.000
G1 X-190.657 Y76.156 Z0.000
G1 X-190.452 Y76.601 Z0.000
G1 X-190.311 Y77.084 Z0.000
G1 X-190.233 Y77.610 Z0.000
G1 X-190.222 Y77.794 Z0.000
G1 X-190.218 Y77.982 Z0.000
G1 X-190.255 Y78.557 Z0.000
G1 X-190.360 Y79.077 Z0.000
G1 X-190.528 Y79.549 Z0.000
G1 X-190.760 Y79.981 Z0.000
G1 X-191.055 Y80.377 Z0.000
G1 X-191.158 Y80.492 Z0.000
G1 X-191.268 Y80.604 Z0.000
G1 X-191.665 Y80.940 Z0.000
G1 X-192.091 Y81.206 Z0.000
G1 X-192.549 Y81.406 Z0.000
G1 X-193.045 Y81.543 Z0.000
G1 X-193.584 Y81.616 Z0.000
G1 X-193.750 Y81.625 Z0.000
G1 X-193.918 Y81.628 Z0.000
G1 X-218.568 Y81.628 Z0.000
G1 X-218.568 Y45.233 Z0.000
G1 X-218.604 Y44.910 Z0.000
G1 X-218.702 Y44.668 Z0.000
G1 X-218.853 Y44.487 Z0.000
G1 X-219.059 Y44.354 Z0.000
G1 X-219.333 Y44.266 Z0.000
G1 X-219.470 Y44.244 Z0.000
G1 X-219.618 Y44.232 Z0.000
G1 X-220.918 Y44.232 Z0.000
G0 Z6.000
G0 Z6.000
G0 X-157.302 Y44.278
G0 Z0.000
G1 X-157.302 Y44.278 Z0.000
G1 X-160.451 Y44.278 Z0.000
G1 X-176.501 Y60.327 Z0.000
G1 X-170.301 Y60.327 Z0.000
G1 X-169.340 Y60.364 Z0.000
G1 X-168.416 Y60.471 Z0.000
G1 X-167.528 Y60.647 Z0.000
G1 X-166.671 Y60.891 Z0.000
G1 X-165.843 Y61.202 Z0.000
G1 X-165.040 Y61.582 Z0.000
G1 X-164.259 Y62.031 Z0.000
G1 X-163.602 Y62.477 Z0.000
G1 X-162.925 Y63.020 Z0.000
G1 X-162.319 Y63.598 Z0.000
G1 X-161.780 Y64.212 Z0.000
G1 X-161.303 Y64.865 Z0.000
G1 X-160.888 Y65.557 Z0.000
G1 X-160.532 Y66.293 Z0.000
G1 X-160.234 Y67.075 Z0.000
G1 X-159.996 Y67.908 Z0.000
G1 X-159.818 Y68.796 Z0.000
G1 X-159.703 Y69.744 Z0.000
G1 X-159.652 Y70.978 Z0.000
G1 X-159.688 Y72.028 Z0.000
G1 X-159.794 Y73.006 Z0.000
G1 X-159.966 Y73.919 Z0.000
G1 X-160.199 Y74.771 Z0.000
G1 X-160.492 Y75.568 Z0.000
G1 X-160.844 Y76.314 Z0.000
G1 X-161.253 Y77.014 Z0.000
G1 X-161.722 Y77.670 Z0.000
G1 X-162.251 Y78.286 Z0.000
G1 X-162.844 Y78.863 Z0.000
G1 X-163.602 Y79.478 Z0.000
G1 X-164.372 Y79.994 Z0.000
G1 X-165.161 Y80.436 Z0.000
G1 X-165.970 Y80.806 Z0.000
G1 X-166.803 Y81.106 Z0.000
G1 X-167.661 Y81.339 Z0.000
G1 X-168.548 Y81.504 Z0.000
G1 X-169.467 Y81.600 Z0.000
G1 X-170.301 Y81.628 Z0.000
G1 X-185.651 Y81.628 Z0.000
G1 X-185.651 Y45.278 Z0.000
G1 X-185.688 Y44.956 Z0.000
G1 X-185.786 Y44.714 Z0.000
G1 X-185.936 Y44.532 Z0.000
G1 X-186.142 Y44.399 Z0.000
G1 X-186.417 Y44.311 Z0.000
G1 X-186.553 Y44.290 Z0.000
G1 X-186.701 Y44.278 Z0.000
G1 X-188.002 Y44.227 Z0.000
G0 Z6.000
G0 Z6.000
G0 X-129.027 Y44.278
G0 Z0.000
G1 X-129.027 Y44.278 Z0.000
G1 X-135.477 Y44.278 Z0.000
G1 X-134.790 Y44.860 Z0.000
G1 X-134.172 Y45.479 Z0.000
G1 X-133.620 Y46.134 Z0.000
G1 X-133.130 Y46.828 Z0.000
G1 X-132.701 Y47.562 Z0.000
G1 X-132.331 Y48.339 Z0.000
G1 X-132.020 Y49.164 Z0.000
G1 X-131.768 Y50.039 Z0.000
G1 X-131.576 Y50.969 Z0.000
G1 X-131.447 Y51.958 Z0.000
G1 X-131.377 Y53.475 Z0.000
G1 X-131.414 Y54.584 Z0.000
G1 X-131.520 Y55.620 Z0.000
G1 X-131.691 Y56.590 Z0.000
G1 X-131.925 Y57.498 Z0.000
G1 X-132.219 Y58.349 Z0.000
G1 X-132.572 Y59.149 Z0.000
G1 X-132.982 Y59.900 Z0.000
G1 X-133.451 Y60.606 Z0.000
G1 X-133.980 Y61.270 Z0.000
G1 X-134.570 Y61.895 Z0.000
G1 X-135.224 Y62.482 Z0.000
G1 X-135.472 Y62.681 Z0.000
G1 X-135.728 Y62.875 Z0.000
G1 X-136.546 Y63.424 Z0.000
G1 X-137.381 Y63.899 Z0.000
G1 X-138.236 Y64.300 Z0.000
G1 X-139.111 Y64.631 Z0.000
G1 X-140.010 Y64.894 Z0.000
G1 X-140.935 Y65.088 Z0.000
G1 X-141.890 Y65.214 Z0.000
G1 X-143.177 Y65.274 Z0.000
G1 X-143.765 Y65.310 Z0.000
G1 X-144.347 Y65.419 Z0.000
G1 X-144.927 Y65.602 Z0.000
G1 X-145.627 Y65.925 Z0.000
G1 X-146.115 Y66.234 Z0.000
G1 X-146.529 Y66.581 Z0.000
G1 X-146.876 Y66.966 Z0.000
G1 X-147.162 Y67.393 Z0.000
G1 X-147.391 Y67.864 Z0.000
G1 X-147.562 Y68.386 Z0.000
G1 X-147.675 Y68.965 Z0.000
G1 X-147.727 Y69.777 Z0.000
G1 X-147.690 Y70.475 Z0.000
G1 X-147.586 Y71.094 Z0.000
G1 X-147.421 Y71.646 Z0.000
G1 X-147.199 Y72.137 Z0.000
G1 X-146.921 Y72.575 Z0.000
G1 X-146.587 Y72.967 Z0.000
G1 X-146.194 Y73.316 Z0.000
G1 X-145.627 Y73.685 Z0.000
G1 X-145.070 Y73.959 Z0.000
G1 X-144.504 Y74.156 Z0.000
G1 X-143.926 Y74.280 Z0.000
G1 X-143.177 Y74.336 Z0.000
G1 X-142.592 Y74.300 Z0.000
G1 X-142.021 Y74.191 Z0.000
G1 X-141.460 Y74.011 Z0.000
G1 X-140.777 Y73.685 Z0.000
G1 X-140.293 Y73.378 Z0.000
G1 X-139.882 Y73.033 Z0.000
G1 X-139.536 Y72.647 Z0.000
G1 X-139.249 Y72.219 Z0.000
G1 X-139.020 Y71.745 Z0.000
G1 X-138.847 Y71.219 Z0.000
G1 X-138.733 Y70.634 Z0.000
G1 X-138.677 Y69.782 Z0.000
G1 X-138.677 Y68.631 Z0.000
G1 X-138.641 Y68.048 Z0.000
G1 X-138.536 Y67.521 Z0.000
G1 X-138.368 Y67.044 Z0.000
G1 X-138.137 Y66.608 Z0.000
G1 X-137.843 Y66.209 Z0.000
G1 X-137.751 Y66.104 Z0.000
G1 X-137.653 Y66.003 Z0.000
G1 X-137.267 Y65.668 Z0.000
G1 X-136.851 Y65.403 Z0.000
G1 X-136.400 Y65.202 Z0.000
G1 X-135.911 Y65.064 Z0.000
G1 X-135.376 Y64.990 Z0.000
G1 X-135.204 Y64.981 Z0.000
G1 X-135.028 Y64.977 Z0.000
G1 X-134.445 Y65.014 Z0.000
G1 X-133.920 Y65.118 Z0.000
G1 X-133.443 Y65.287 Z0.000
G1 X-133.008 Y65.517 Z0.000
G1 X-132.610 Y65.811 Z0.000
G1 X-132.505 Y65.904 Z0.000
G1 X-132.403 Y66.003 Z0.000
G1 X-132.068 Y66.389 Z0.000
G1 X-131.803 Y66.805 Z0.000
G1 X-131.602 Y67.256 Z0.000
G1 X-131.464 Y67.745 Z0.000
G1 X-131.390 Y68.280 Z0.000
G1 X-131.380 Y68.452 Z0.000
G1 X-131.377 Y68.628 Z0.000
G1 X-131.377 Y69.777 Z0.000
G1 X-131.414 Y70.894 Z0.000
G1 X-131.520 Y71.938 Z0.000
G1 X-131.691 Y72.915 Z0.000
G1 X-131.925 Y73.828 Z0.000
G1 X-132.218 Y74.684 Z0.000
G1 X-132.570 Y75.486 Z0.000
G1 X-132.980 Y76.240 Z0.000
G1 X-133.447 Y76.948 Z0.000
G1 X-133.973 Y77.613 Z0.000
G1 X-134.561 Y78.238 Z0.000
G1 X-135.212 Y78.824 Z0.000
G1 X-135.466 Y79.028 Z0.000
G1 X-135.728 Y79.227 Z0.000
G1 X-136.546 Y79.777 Z0.000
G1 X-137.381 Y80.252 Z0.000
G1 X-138.235 Y80.653 Z0.000
G1 X-139.110 Y80.985 Z0.000
G1 X-140.009 Y81.248 Z0.000
G1 X-140.934 Y81.442 Z0.000
G1 X-141.888 Y81.568 Z0.000
G1 X-143.177 Y81.628 Z0.000
G1 X-144.186 Y81.591 Z0.000
G1 X-145.158 Y81.484 Z0.000
G1 X-146.097 Y81.307 Z0.000
G1 X-147.006 Y81.062 Z0.000
G1 X-147.887 Y80.750 Z0.000
G1 X-148.745 Y80.368 Z0.000
G1 X-149.580 Y79.917 Z0.000
G1 X-150.627 Y79.229 Z0.000
G1 X-151.342 Y78.664 Z0.000
G1 X-151.986 Y78.063 Z0.000
G1 X-152.563 Y77.425 Z0.000
G1 X-153.076 Y76.749 Z0.000
G1 X-153.529 Y76.033 Z0.000
G1 X-153.923 Y75.274 Z0.000
G1 X-154.259 Y74.469 Z0.000
G1 X-154.536 Y73.614 Z0.000
G1 X-154.753 Y72.705 Z0.000
G1 X-154.909 Y71.738 Z0.000
G1 X-155.001 Y70.708 Z0.000
G1 X-155.020 Y70.248 Z0.000
G1 X-155.026 Y69.780 Z0.000
G1 X-154.990 Y68.678 Z0.000
G1 X-154.884 Y67.647 Z0.000
G1 X-154.712 Y66.682 Z0.000
G1 X-154.478 Y65.777 Z0.000
G1 X-154.184 Y64.929 Z0.000
G1 X-153.831 Y64.132 Z0.000
G1 X-153.420 Y63.383 Z0.000
G1 X-152.950 Y62.678 Z0.000
G1 X-152.420 Y62.014 Z0.000
G1 X-151.828 Y61.389 Z0.000
G1 X-151.171 Y60.802 Z0.000
G1 X-150.903 Y60.588 Z0.000
G1 X-150.627 Y60.381 Z0.000
G1 X-149.808 Y59.831 Z0.000
G1 X-148.973 Y59.357 Z0.000
G1 X-148.118 Y58.955 Z0.000
G1 X-147.242 Y58.624 Z0.000
G1 X-146.343 Y58.361 Z0.000
G1 X-145.417 Y58.167 Z0.000
G1 X-144.463 Y58.041 Z0.000
G1 X-143.177 Y57.982 Z0.000
G1 X-142.610 Y57.946 Z0.000
G1 X-142.040 Y57.836 Z0.000
G1 X-141.464 Y57.650 Z0.000
G1 X-140.777 Y57.331 Z0.000
G1 X-140.289 Y57.022 Z0.000
G1 X-139.875 Y56.675 Z0.000
G1 X-139.528 Y56.289 Z0.000
G1 X-139.242 Y55.863 Z0.000
G1 X-139.013 Y55.391 Z0.000
G1 X-138.842 Y54.870 Z0.000
G1 X-138.729 Y54.290 Z0.000
G1 X-138.677 Y53.475 Z0.000
G1 X-138.713 Y52.778 Z0.000
G1 X-138.817 Y52.159 Z0.000
G1 X-138.982 Y51.608 Z0.000
G1 X-139.205 Y51.117 Z0.000
G1 X-139.482 Y50.679 Z0.000
G1 X-139.817 Y50.288 Z0.000
G1 X-140.210 Y49.939 Z0.000
G1 X-140.777 Y49.570 Z0.000
G1 X-141.334 Y49.297 Z0.000
G1 X-141.900 Y49.100 Z0.000
G1 X-142.478 Y48.975 Z0.000
G1 X-143.226 Y48.919 Z0.000
G1 X-143.812 Y48.956 Z0.000
G1 X-144.383 Y49.064 Z0.000
G1 X-144.944 Y49.245 Z0.000
G1 X-145.627 Y49.570 Z0.000
G1 X-146.111 Y49.877 Z0.000
G1 X-146.522 Y50.223 Z0.000
G1 X-146.868 Y50.609 Z0.000
G1 X-147.154 Y51.036 Z0.000
G1 X-147.384 Y51.510 Z0.000
G1 X-147.556 Y52.036 Z0.000
G1 X-147.671 Y52.621 Z0.000
G1 X-147.727 Y53.473 Z0.000
G1 X-147.727 Y55.775 Z0.000
G1 X-147.763 Y56.380 Z0.000
G1 X-147.867 Y56.920 Z0.000
G1 X-148.033 Y57.403 Z0.000
G1 X-148.259 Y57.837 Z0.000
G1 X-148.545 Y58.228 Z0.000
G1 X-148.634 Y58.329 Z0.000
G1 X-148.728 Y58.426 Z0.000
G1 X-149.101 Y58.748 Z0.000
G1 X-149.510 Y59.006 Z0.000
G1 X-149.959 Y59.202 Z0.000
G1 X-150.454 Y59.339 Z0.000
G1 X-151.003 Y59.414 Z0.000
G1 X-151.188 Y59.424 Z0.000
G1 X-151.377 Y59.427 Z0.000
G1 X-151.982 Y59.391 Z0.000
G1 X-152.522 Y59.287 Z0.000
G1 X-153.005 Y59.120 Z0.000
G1 X-153.438 Y58.894 Z0.000
G1 X-153.829 Y58.609 Z0.000
G1 X-153.930 Y58.520 Z0.000
G1 X-154.027 Y58.426 Z0.000
G1 X-154.349 Y58.053 Z0.000
G1 X-154.606 Y57.644 Z0.000
G1 X-154.802 Y57.194 Z0.000
G1 X-154.939 Y56.698 Z0.000
G1 X-155.013 Y56.150 Z0.000
G1 X-155.023 Y55.966 Z0.000
G1 X-155.026 Y55.778 Z0.000
G1 X-155.026 Y45.277 Z0.000
G1 X-155.063 Y44.955 Z0.000
G1 X-155.161 Y44.713 Z0.000
G1 X-155.311 Y44.532 Z0.000
G1 X-155.518 Y44.399 Z0.000
G1 X-155.792 Y44.311 Z0.000
G1 X-155.929 Y44.290 Z0.000
G1 X-156.076 Y44.278 Z0.000
G1 X-157.377 Y44.227 Z0.000
G0 Z6.000
G0 Z6.000
G0 X-87.344 Y44.278
G0 Z0.000
G1 X-87.344 Y44.278 Z0.000
G1 X-88.645 Y44.278 Z0.000
G1 X-95.643 Y58.294 Z0.000
G1 X-110.544 Y58.294 Z0.000
G1 X-110.903 Y58.331 Z0.000
G1 X-111.166 Y58.427 Z0.000
G1 X-111.355 Y58.572 Z0.000
G1 X-111.487 Y58.765 Z0.000
G1 X-111.568 Y59.015 Z0.000
G1 X-111.587 Y59.155 Z0.000
G1 X-111.594 Y59.308 Z0.000
G1 X-111.557 Y59.634 Z0.000
G1 X-111.460 Y59.874 Z0.000
G1 X-111.312 Y60.049 Z0.000
G1 X-111.111 Y60.174 Z0.000
G1 X-110.844 Y60.250 Z0.000
G1 X-110.700 Y60.268 Z0.000
G1 X-110.544 Y60.274 Z0.000
G1 X-96.693 Y60.274 Z0.000
G1 X-107.342 Y81.836 Z0.000
G1 X-108.894 Y81.836 Z0.000
G1 X-127.793 Y44.278 Z0.000
G1 X-129.043 Y44.278 Z0.000
G0 Z6.000
G0 Z6.000
G0 X-56.573 Y44.278
G0 Z0.000
G1 X-56.573 Y44.278 Z0.000
G1 X-59.722 Y44.278 Z0.000
G1 X-75.772 Y60.327 Z0.000
G1 X-69.572 Y60.327 Z0.000
G1 X-68.610 Y60.364 Z0.000
G1 X-67.687 Y60.471 Z0.000
G1 X-66.799 Y60.647 Z0.000
G1 X-65.942 Y60.891 Z0.000
G1 X-65.114 Y61.202 Z0.000
G1 X-64.310 Y61.582 Z0.000
G1 X-63.530 Y62.031 Z0.000
G1 X-62.873 Y62.477 Z0.000
G1 X-62.196 Y63.020 Z0.000
G1 X-61.590 Y63.598 Z0.000
G1 X-61.050 Y64.212 Z0.000
G1 X-60.574 Y64.865 Z0.000
G1 X-60.159 Y65.557 Z0.000
G1 X-59.803 Y66.293 Z0.000
G1 X-59.505 Y67.075 Z0.000
G1 X-59.267 Y67.908 Z0.000
G1 X-59.089 Y68.796 Z0.000
G1 X-58.974 Y69.744 Z0.000
G1 X-58.923 Y70.978 Z0.000
G1 X-58.959 Y72.028 Z0.000
G1 X-59.065 Y73.006 Z0.000
G1 X-59.236 Y73.919 Z0.000
G1 X-59.470 Y74.771 Z0.000
G1 X-59.763 Y75.568 Z0.000
G1 X-60.114 Y76.314 Z0.000
G1 X-60.524 Y77.014 Z0.000
G1 X-60.993 Y77.670 Z0.000
G1 X-61.522 Y78.286 Z0.000
G1 X-62.115 Y78.863 Z0.000
G1 X-62.873 Y79.478 Z0.000
G1 X-63.643 Y79.994 Z0.000
G1 X-64.432 Y80.436 Z0.000
G1 X-65.241 Y80.806 Z0.000
G1 X-66.074 Y81.106 Z0.000
G1 X-66.932 Y81.339 Z0.000
G1 X-67.819 Y81.504 Z0.000
G1 X-68.738 Y81.600 Z0.000
G1 X-69.572 Y81.628 Z0.000
G1 X-84.922 Y81.628 Z0.000
G1 X-84.922 Y45.278 Z0.000
G1 X-84.959 Y44.956 Z0.000
G1 X-85.056 Y44.714 Z0.000
G1 X-85.207 Y44.532 Z0.000
G1 X-85.413 Y44.399 Z0.000
G1 X-85.688 Y44.311 Z0.000
G1 X-85.824 Y44.290 Z0.000
G1 X-85.972 Y44.278 Z0.000
G1 X-87.273 Y44.227 Z0.000
G0 Z6.000
G0 Z6.000
G0 X-30.648 Y44.232
G0 Z0.000
G1 X-30.648 Y44.232 Z0.000
G1 X-45.948 Y44.232 Z0.000
G1 X-46.311 Y44.268 Z0.000
G1 X-46.575 Y44.364 Z0.000
G1 X-46.764 Y44.508 Z0.000
G1 X-46.895 Y44.699 Z0.000
G1 X-46.974 Y44.947 Z0.000
G1 X-46.992 Y45.079 Z0.000
G1 X-46.997 Y45.222 Z0.000
G1 X-46.961 Y45.555 Z0.000
G1 X-46.864 Y45.801 Z0.000
G1 X-46.717 Y45.980 Z0.000
G1 X-46.517 Y46.107 Z0.000
G1 X-46.254 Y46.186 Z0.000
G1 X-46.108 Y46.205 Z0.000
G1 X-45.948 Y46.211 Z0.000
G1 X-43.648 Y46.211 Z0.000
G1 X-42.590 Y46.247 Z0.000
G1 X-41.606 Y46.353 Z0.000
G1 X-40.690 Y46.524 Z0.000
G1 X-39.837 Y46.757 Z0.000
G1 X-39.041 Y47.049 Z0.000
G1 X-38.298 Y47.398 Z0.000
G1 X-37.603 Y47.805 Z0.000
G1 X-36.952 Y48.270 Z0.000
G1 X-36.344 Y48.795 Z0.000
G1 X-35.776 Y49.381 Z0.000
G1 X-35.147 Y50.168 Z0.000
G1 X-34.634 Y50.935 Z0.000
G1 X-34.194 Y51.723 Z0.000
G1 X-33.825 Y52.533 Z0.000
G1 X-33.524 Y53.369 Z0.000
G1 X-33.290 Y54.233 Z0.000
G1 X-33.124 Y55.127 Z0.000
G1 X-33.026 Y56.056 Z0.000
G1 X-32.997 Y56.930 Z0.000
G1 X-32.997 Y77.971 Z0.000
G1 X-33.033 Y78.554 Z0.000
G1 X-33.138 Y79.081 Z0.000
G1 X-33.306 Y79.558 Z0.000
G1 X-33.537 Y79.994 Z0.000
G1 X-33.830 Y80.393 Z0.000
G1 X-33.924 Y80.498 Z0.000
G1 X-34.022 Y80.601 Z0.000
G1 X-34.408 Y80.936 Z0.000
G1 X-34.824 Y81.202 Z0.000
G1 X-35.275 Y81.402 Z0.000
G1 X-35.764 Y81.541 Z0.000
G1 X-36.298 Y81.615 Z0.000
G1 X-36.471 Y81.625 Z0.000
G1 X-36.648 Y81.628 Z0.000
G1 X-37.208 Y81.591 Z0.000
G1 X-37.719 Y81.486 Z0.000
G1 X-38.190 Y81.315 Z0.000
G1 X-38.627 Y81.080 Z0.000
G1 X-39.033 Y80.778 Z0.000
G1 X-39.142 Y80.681 Z0.000
G1 X-39.248 Y80.578 Z0.000
G1 X-39.596 Y80.179 Z0.000
G1 X-39.869 Y79.755 Z0.000
G1 X-40.074 Y79.304 Z0.000
G1 X-40.213 Y78.821 Z0.000
G1 X-40.286 Y78.300 Z0.000
G1 X-40.295 Y78.140 Z0.000
G1 X-40.298 Y77.977 Z0.000
G1 X-40.298 Y66.278 Z0.000
G1 X-40.335 Y65.706 Z0.000
G1 X-40.439 Y65.197 Z0.000
G1 X-40.605 Y64.741 Z0.000
G1 X-40.832 Y64.332 Z0.000
G1 X-41.224 Y63.853 Z0.000
G1 X-41.586 Y63.542 Z0.000
G1 X-41.983 Y63.297 Z0.000
G1 X-42.418 Y63.114 Z0.000
G1 X-42.898 Y62.992 Z0.000
G1 X-43.648 Y62.928 Z0.000
G1 X-44.237 Y62.965 Z0.000
G1 X-44.755 Y63.068 Z0.000
G1 X-45.212 Y63.233 Z0.000
G1 X-45.617 Y63.455 Z0.000
G1 X-46.097 Y63.853 Z0.000
G1 X-46.397 Y64.214 Z0.000
G1 X-46.635 Y64.614 Z0.000
G1 X-46.814 Y65.057 Z0.000
G1 X-46.934 Y65.552 Z0.000
G1 X-46.997 Y66.328 Z0.000
G1 X-46.997 Y77.977 Z0.000
G1 X-47.034 Y78.560 Z0.000
G1 X-47.138 Y79.086 Z0.000
G1 X-47.307 Y79.562 Z0.000
G1 X-47.537 Y79.997 Z0.000
G1 X-47.831 Y80.395 Z0.000
G1 X-47.924 Y80.500 Z0.000
G1 X-48.023 Y80.602 Z0.000
G1 X-48.408 Y80.937 Z0.000
G1 X-48.824 Y81.202 Z0.000
G1 X-49.274 Y81.403 Z0.000
G1 X-49.763 Y81.541 Z0.000
G1 X-50.298 Y81.615 Z0.000
G1 X-50.471 Y81.625 Z0.000
G1 X-50.648 Y81.628 Z0.000
G1 X-51.230 Y81.591 Z0.000
G1 X-51.755 Y81.487 Z0.000
G1 X-52.232 Y81.318 Z0.000
G1 X-52.667 Y81.088 Z0.000
G1 X-53.065 Y80.794 Z0.000
G1 X-53.171 Y80.700 Z0.000
G1 X-53.273 Y80.601 Z0.000
G1 X-53.608 Y80.215 Z0.000
G1 X-53.873 Y79.798 Z0.000
G1 X-54.073 Y79.347 Z0.000
G1 X-54.211 Y78.857 Z0.000
G1 X-54.285 Y78.321 Z0.000
G1 X-54.294 Y78.149 Z0.000
G1 X-54.297 Y77.974 Z0.000
G1 X-54.297 Y45.233 Z0.000
G1 X-54.334 Y44.910 Z0.000
G1 X-54.431 Y44.668 Z0.000
G1 X-54.582 Y44.487 Z0.000
G1 X-54.788 Y44.354 Z0.000
G1 X-55.063 Y44.266 Z0.000
G1 X-55.199 Y44.244 Z0.000
G1 X-55.347 Y44.232 Z0.000
G1 X-56.648 Y44.232 Z0.000
G0 Z6.000
(Finish operation: Engrave)
(Begin postamble)
M5
G17 G90
M2
